{"type":"FeatureCollection","features":[{"type":"Feature","geometry":{"type":"Point","coordinates":[-72.208765821,40.9619077840001]},"properties":{"name":"East Hampton","project":"South Fork Wind","developer":"South Fork Wind, LLC","lease":"OCS-A 0517","mw":null,"current":"AC","status":"Installed","source":"BOEM cable interconnections"}},{"type":"Feature","geometry":{"type":"Point","coordinates":[-73.0728381,40.8213441180001]},"properties":{"name":"Holbrook Substation","project":"Sunrise Wind","developer":"Orsted","lease":"OCS-A-0487","mw":1034,"current":"DC","status":"Proposed","source":"BOEM cable interconnections"}},{"type":"Feature","geometry":{"type":"Point","coordinates":[-70.284639248,41.6852916230001]},"properties":{"name":"Barnstable substation","project":"VW1","developer":"Vineyard Wind","lease":"OCS-A 0501","mw":800,"current":"AC","status":"Proposed","source":"BOEM cable interconnections"}},{"type":"Feature","geometry":{"type":"Point","coordinates":[-70.349931047,41.6864861500001]},"properties":{"name":"West Barnstable Substation","project":"New England Wind","developer":"Park City Wind, LLC","lease":"OCS-A 0534","mw":null,"current":"AC","status":"Proposed","source":"BOEM cable interconnections"}},{"type":"Feature","geometry":{"type":"Point","coordinates":[-70.587822564,41.6305103930001]},"properties":{"name":"Falmouth Tap","project":"SouthCoast Wind","developer":"SouthCoast Wind Energy LLC","lease":"OCS-A 0521","mw":1200,"current":"AC","status":"Proposed","source":"BOEM cable interconnections"}},{"type":"Feature","geometry":{"type":"Point","coordinates":[-71.1906882439999,41.7141631160001]},"properties":{"name":"Brayton Point","project":"SouthCoast Wind","developer":"SouthCoast Wind Energy LLC","lease":"OCS-A 0521","mw":1200,"current":"AC","status":"Proposed","source":"BOEM cable interconnections"}},{"type":"Feature","geometry":{"type":"Point","coordinates":[-74.003690986,40.661570096]},"properties":{"name":"Gowanus","project":"Empire Wind","developer":"Empire Offshore Wind, LLC","lease":"OCS-A 0512","mw":816,"current":"AC","status":"Proposed","source":"BOEM cable interconnections"}},{"type":"Feature","geometry":{"type":"Point","coordinates":[-73.651887135,40.6211006390001]},"properties":{"name":"Potential Expansion of Barrett","project":"Empire Wind","developer":"Empire Offshore Wind, LLC","lease":"OCS-A 0512","mw":1260,"current":"AC","status":"Proposed","source":"BOEM cable interconnections"}},{"type":"Feature","geometry":{"type":"Point","coordinates":[-73.647554868,40.6178759530001]},"properties":{"name":"Barrett","project":"Empire Wind","developer":"Empire Offshore Wind, LLC","lease":"OCS-A 0512","mw":1260,"current":"AC","status":"Proposed","source":"BOEM cable interconnections"}},{"type":"Feature","geometry":{"type":"Point","coordinates":[-74.192196736,40.1136287940001]},"properties":{"name":"Larrabee POI","project":"Project 2","developer":"Atlantic Shores Offshore Wind, LLC","lease":"OCS-A 0499","mw":null,"current":"AC and/or DC","status":"Proposed","source":"BOEM cable interconnections"}},{"type":"Feature","geometry":{"type":"Point","coordinates":[-74.620451997,39.429193125]},"properties":{"name":"Cardiff POI","project":"Project 1","developer":"Atlantic Shores Offshore Wind, LLC","lease":"OCS-A 0499","mw":null,"current":"AC and/or DC","status":"Proposed","source":"BOEM cable interconnections"}},{"type":"Feature","geometry":{"type":"Point","coordinates":[-74.209153922,39.8136006620001]},"properties":{"name":"Oyster Creek","project":"Ocean Wind Offshore Wind Farm Project (OCW01)","developer":"Ocean Wind LLC","lease":"OCS-A 0498","mw":816,"current":"AC","status":"Proposed","source":"BOEM cable interconnections"}},{"type":"Feature","geometry":{"type":"Point","coordinates":[-74.635577745,39.289470819]},"properties":{"name":"BL England","project":"Ocean Wind Offshore Wind Farm Project (OCW01)","developer":"Ocean Wind LLC","lease":"OCS-A 0498","mw":432,"current":"AC","status":"Proposed","source":"BOEM cable interconnections"}},{"type":"Feature","geometry":{"type":"Point","coordinates":[-75.24383155,38.586393086]},"properties":{"name":"Indian River","project":"Maryland Offshore Wind Project","developer":"US Wind, Inc.","lease":"OCS-A 0490","mw":null,"current":null,"status":"Proposed","source":"BOEM cable interconnections"}},{"type":"Feature","geometry":{"type":"Point","coordinates":[-75.9780555259999,36.8117769990001]},"properties":{"name":"Interconnection Station","project":"Coastal Virginia Offshore Wind Pilot Project","developer":"Dominion Energy","lease":"OCS-A 0497","mw":12.80000019,"current":"AC","status":"Installed","source":"BOEM cable interconnections"}},{"type":"Feature","geometry":{"type":"Point","coordinates":[-76.1892254059999,36.6916292390001]},"properties":{"name":"Fentress Substation","project":"Coastal Virignia Offshore Wind Commercial Project","developer":"Dominion Energy","lease":"OCS-A 0483","mw":3000,"current":"AC","status":"Proposed","source":"BOEM cable interconnections"}},{"type":"Feature","geometry":{"type":"Point","coordinates":[-76.0117978929999,36.776694068]},"properties":{"name":"Corporate Landing","project":"Kitty Hawk North","developer":"Avangrid Renewables, LLC","lease":"OCS-A 0559","mw":null,"current":"AC","status":"Proposed","source":"BOEM cable interconnections"}},{"type":"Feature","geometry":{"type":"Point","coordinates":[-71.086782049,41.7375274830001]},"properties":{"name":"Bell Rock Substation","project":"Vineyard Northeast","developer":"Vineyard Northeast LLC","lease":"OCS-A 0522","mw":null,"current":"AC","status":"Proposed","source":"BOEM cable interconnections"}},{"type":"Feature","geometry":{"type":"Point","coordinates":[-72.104275844,41.4287124960001]},"properties":{"name":"Montville Substation","project":"Vineyard Northeast","developer":"Vineyard Northeast LLC","lease":"OCS-A 0522","mw":null,"current":"AC","status":"Proposed","source":"BOEM cable interconnections"}},{"type":"Feature","geometry":{"type":"Point","coordinates":[-71.435241397,41.592505971]},"properties":{"name":"Davisville Substation","project":"Revolution Wind","developer":"Revolution Wind LCC","lease":"OCS-A 0486","mw":null,"current":"AC","status":"Proposed","source":"BOEM cable interconnections"}}]}