{"type":"FeatureCollection","features":[{"type":"Feature","geometry":{"type":"Polygon","coordinates":[[[-75.9033,36.8192],[-75.9033,36.8192],[-75.9034,36.8193],[-75.9034,36.8194],[-75.9034,36.8195],[-75.9034,36.8196],[-75.9035,36.8197],[-75.8767,36.8197],[-75.8767,36.8197],[-75.8765,36.8197],[-75.8765,36.8197],[-75.8764,36.8197],[-75.8764,36.8197],[-75.8763,36.8196],[-75.8763,36.8196],[-75.8093,36.8085],[-75.8092,36.8085],[-75.8091,36.8085],[-75.8091,36.8085],[-75.7496,36.8061],[-75.7495,36.8061],[-75.7494,36.8061],[-75.7493,36.8061],[-75.7492,36.8061],[-75.6188,36.8293],[-75.6187,36.8293],[-75.6186,36.8293],[-75.6186,36.8293],[-75.6185,36.8294],[-75.6184,36.8294],[-75.4983,36.8878],[-75.4983,36.8871],[-75.6181,36.8289],[-75.6181,36.8289],[-75.6182,36.8289],[-75.6182,36.8289],[-75.6183,36.8288],[-75.6183,36.8288],[-75.6184,36.8288],[-75.6184,36.8288],[-75.6185,36.8288],[-75.6185,36.8288],[-75.6185,36.8288],[-75.6187,36.8287],[-75.6187,36.8287],[-75.7491,36.8056],[-75.7491,36.8056],[-75.7492,36.8056],[-75.7492,36.8056],[-75.7494,36.8056],[-75.7494,36.8056],[-75.7495,36.8056],[-75.7495,36.8056],[-75.7496,36.8056],[-75.7496,36.8056],[-75.8091,36.8079],[-75.8091,36.8079],[-75.8092,36.8079],[-75.8092,36.8079],[-75.8093,36.8079],[-75.8093,36.8079],[-75.8094,36.8079],[-75.8094,36.8079],[-75.8764,36.8191],[-75.8765,36.8191],[-75.8766,36.8191],[-75.8767,36.8191],[-75.9033,36.8192]]]},"properties":{"name":"OCS-A 0497","company":"Virginia Department of Energy","lease_type":"Easement","resource":"Wind","state":"Virginia","lease_date":"04/01/2015","source":"BOEM wind leases"}},{"type":"Feature","geometry":{"type":"Polygon","coordinates":[[[-71.4191,41.3262],[-71.4189,41.3263],[-71.4188,41.3263],[-71.4186,41.3264],[-71.4184,41.3265],[-71.4184,41.3265],[-71.4132,41.3053],[-71.4132,41.3053],[-71.4132,41.3053],[-71.4127,41.3001],[-71.4127,41.3001],[-71.4127,41.3001],[-71.4127,41.3001],[-71.4127,41.2905],[-71.4127,41.2905],[-71.4127,41.2905],[-71.4127,41.2905],[-71.4139,41.2853],[-71.4139,41.2853],[-71.4147,41.2822],[-71.4147,41.2822],[-71.4147,41.2821],[-71.4147,41.2821],[-71.4158,41.279],[-71.4158,41.279],[-71.4158,41.2789],[-71.4158,41.2789],[-71.4188,41.2738],[-71.4188,41.2738],[-71.423,41.2662],[-71.423,41.2662],[-71.4231,41.2662],[-71.4231,41.2662],[-71.4231,41.2662],[-71.4231,41.2662],[-71.4231,41.2662],[-71.4231,41.2662],[-71.4877,41.2177],[-71.4877,41.2177],[-71.4877,41.2178],[-71.4877,41.2179],[-71.4877,41.218],[-71.4878,41.2181],[-71.4878,41.2182],[-71.4878,41.2183],[-71.4878,41.2184],[-71.4878,41.2184],[-71.4878,41.2184],[-71.4237,41.2665],[-71.4194,41.274],[-71.4165,41.2791],[-71.4154,41.2823],[-71.4146,41.2854],[-71.4134,41.2905],[-71.4134,41.3001],[-71.4139,41.3052],[-71.4191,41.3262],[-71.4191,41.3262]]]},"properties":{"name":"OCS-A 0506","company":"The Narragansett Electric Company","lease_type":"Right-of-Way Grant","resource":"Wind","state":"Rhode Island","lease_date":"12/01/2014","source":"BOEM wind leases"}},{"type":"Feature","geometry":{"type":"Polygon","coordinates":[[[-124.5401,40.9649],[-124.5544,40.9647],[-124.5546,40.9755],[-124.5404,40.9757],[-124.5401,40.9649]]]},"properties":{"name":"OCS-P 0561","company":"RWE Offshore Wind Holdings, LLC","lease_type":"Commercial","resource":"Wind","state":"CA","lease_date":"06/01/2023","source":"BOEM wind leases"}},{"type":"Feature","geometry":{"type":"Polygon","coordinates":[[[-124.6684,40.9631],[-124.6827,40.9629],[-124.683,40.9737],[-124.6687,40.9739],[-124.6684,40.9631]]]},"properties":{"name":"OCS-P 0562","company":"California North Floating LLC","lease_type":"Commercial","resource":"Wind","state":"CA","lease_date":"06/01/2023","source":"BOEM wind leases"}},{"type":"Feature","geometry":{"type":"Polygon","coordinates":[[[-121.8761,35.4434],[-121.8893,35.4436],[-121.8892,35.4544],[-121.876,35.4542],[-121.8761,35.4434]]]},"properties":{"name":"OCS-P 0564","company":"Golden State Wind LLC","lease_type":"Commercial","resource":"Wind","state":"CA","lease_date":"06/01/2023","source":"BOEM wind leases"}},{"type":"Feature","geometry":{"type":"Polygon","coordinates":[[[-121.7704,35.4424],[-121.7836,35.4425],[-121.7834,35.4533],[-121.7702,35.4532],[-121.7704,35.4424]]]},"properties":{"name":"OCS-P 0565","company":"Invenergy California Offshore LLC","lease_type":"Commercial","resource":"Wind","state":"CA","lease_date":"06/01/2023","source":"BOEM wind leases"}},{"type":"Feature","geometry":{"type":"Polygon","coordinates":[[[-121.9415,35.4981],[-121.9547,35.4982],[-121.9546,35.509],[-121.9414,35.5089],[-121.9415,35.4981]]]},"properties":{"name":"OCS-P 0563","company":"Equinor wind US LLC","lease_type":"Commercial","resource":"Wind","state":"CA","lease_date":"06/01/2023","source":"BOEM wind leases"}},{"type":"Feature","geometry":{"type":"Polygon","coordinates":[[[-73.9977,39.3221],[-73.9976,39.3275],[-73.9906,39.3275],[-73.9907,39.322],[-73.9977,39.3221]]]},"properties":{"name":"OCS-A 0549","company":"Atlantic Shores Offshore Wind, LLC","lease_type":"Commercial","resource":"Wind","state":"New Jersey","lease_date":"03/01/2016","source":"BOEM wind leases"}},{"type":"Feature","geometry":{"type":"Polygon","coordinates":[[[-74.2931,39.0161],[-74.293,39.0215],[-74.2861,39.0215],[-74.2862,39.0161],[-74.2931,39.0161]]]},"properties":{"name":"OCS-A 0532","company":"Orsted North America Inc.","lease_type":"Commercial","resource":"Wind","state":"New Jersey","lease_date":"03/01/2016","source":"BOEM wind leases"}},{"type":"Feature","geometry":{"type":"Polygon","coordinates":[[[-74.293,39.0215],[-74.293,39.0269],[-74.286,39.0269],[-74.2861,39.0215],[-74.293,39.0215]]]},"properties":{"name":"OCS-A 0498","company":"Ocean Wind LLC","lease_type":"Commercial","resource":"Wind","state":"New Jersey","lease_date":"03/01/2016","source":"BOEM wind leases"}},{"type":"Feature","geometry":{"type":"Polygon","coordinates":[[[-70.833,40.9822],[-70.8331,40.9876],[-70.826,40.9877],[-70.8258,40.9823],[-70.833,40.9822]]]},"properties":{"name":"OCS-A 0500","company":"Bay State Wind LLC","lease_type":"Commercial","resource":"Wind","state":"Massachusetts","lease_date":"04/01/2015","source":"BOEM wind leases"}},{"type":"Feature","geometry":{"type":"Polygon","coordinates":[[[-70.8331,40.9876],[-70.8333,40.993],[-70.8261,40.9931],[-70.826,40.9877],[-70.8331,40.9876]]]},"properties":{"name":"OCS-A 0487","company":"Sunrise Wind, LLC","lease_type":"Commercial","resource":"Wind","state":"Rhode Island / Massachusetts","lease_date":"10/01/2013","source":"BOEM wind leases"}},{"type":"Feature","geometry":{"type":"Polygon","coordinates":[[[-71.0794,41.1077],[-71.0796,41.1131],[-71.0724,41.1133],[-71.0722,41.1079],[-71.0794,41.1077]]]},"properties":{"name":"OCS-A 0517","company":"South Fork Wind, LLC","lease_type":"Commercial","resource":"Wind","state":"Rhode Island / Massachusetts","lease_date":"10/01/2013","source":"BOEM wind leases"}},{"type":"Feature","geometry":{"type":"Polygon","coordinates":[[[-71.0796,41.1131],[-71.0797,41.1185],[-71.0726,41.1187],[-71.0724,41.1133],[-71.0796,41.1131]]]},"properties":{"name":"OCS-A 0486","company":"Revolution Wind, LLC","lease_type":"Commercial","resource":"Wind","state":"Rhode Island / Massachusetts","lease_date":"10/01/2013","source":"BOEM wind leases"}},{"type":"Feature","geometry":{"type":"Polygon","coordinates":[[[-70.3845,41.0209],[-70.3846,41.0263],[-70.3774,41.0264],[-70.3773,41.021],[-70.3845,41.0209]]]},"properties":{"name":"OCS-A 0501","company":"Vineyard Wind 1 LLC","lease_type":"Commercial","resource":"Wind","state":"Massachussets","lease_date":"04/01/2015","source":"BOEM wind leases"}},{"type":"Feature","geometry":{"type":"Polygon","coordinates":[[[-78.0064,33.4105],[-78.0062,33.4159],[-78.006,33.4213],[-78.0058,33.4267],[-78.0056,33.4321],[-78.0055,33.4375],[-78.0053,33.4429],[-78.0051,33.4483],[-78.0049,33.4537],[-78.0,33.4536],[-78.0,33.4532],[-78.0,33.4529],[-78.0,33.4525],[-78.0,33.4521],[-78.0,33.4518],[-78.0,33.4514],[-78.0,33.4511],[-78.0,33.4507],[-78.0,33.4503],[-78.0,33.45],[-78.0,33.4496],[-78.0,33.4493],[-78.0,33.4489],[-78.0,33.4485],[-78.0,33.4482],[-78.0,33.4478],[-78.0,33.4475],[-78.0,33.4471],[-78.0,33.4467],[-78.0,33.4464],[-78.0,33.446],[-78.0,33.4458],[-78.0,33.4457],[-78.0,33.4453],[-78.0,33.4449],[-78.0,33.4446],[-78.0,33.4442],[-78.0,33.4439],[-78.0,33.4435],[-78.0,33.4431],[-78.0,33.4428],[-78.0,33.4424],[-78.0,33.4421],[-78.0,33.4417],[-78.0,33.4413],[-78.0,33.441],[-78.0,33.4406],[-78.0,33.4403],[-78.0,33.4399],[-78.0,33.4395],[-78.0,33.4392],[-78.0,33.4388],[-78.0,33.4384],[-78.0,33.4381],[-78.0,33.4377],[-78.0,33.4374],[-78.0,33.437],[-78.0,33.4366],[-78.0,33.4363],[-78.0,33.4359],[-78.0,33.4356],[-78.0,33.4352],[-78.0,33.4348],[-78.0,33.4345],[-78.0,33.4341],[-78.0,33.4338],[-78.0,33.4334],[-78.0,33.4333],[-78.0,33.433],[-78.0,33.4327],[-78.0,33.4323],[-78.0,33.432],[-78.0,33.4316],[-78.0,33.4312],[-78.0,33.4309],[-78.0,33.4305],[-78.0,33.4302],[-78.0,33.4298],[-78.0,33.4294],[-78.0,33.4291],[-78.0,33.4287],[-78.0,33.4284],[-78.0,33.428],[-78.0,33.4276],[-78.0,33.4273],[-78.0,33.4269],[-78.0,33.4265],[-78.0,33.4262],[-78.0,33.4258],[-78.0,33.4255],[-78.0,33.4251],[-78.0,33.4247],[-78.0,33.4244],[-78.0,33.424],[-78.0,33.4237],[-78.0,33.4233],[-78.0,33.4229],[-78.0,33.4226],[-78.0,33.4222],[-78.0,33.4219],[-78.0,33.4215],[-78.0,33.4211],[-78.0,33.4208],[-78.0,33.4208],[-78.0,33.4204],[-78.0,33.4201],[-78.0,33.4197],[-78.0,33.4193],[-78.0,33.419],[-78.0,33.4186],[-78.0,33.4183],[-78.0,33.4179],[-78.0,33.4175],[-78.0,33.4172],[-78.0,33.4168],[-78.0,33.4165],[-78.0,33.4161],[-78.0,33.4157],[-78.0,33.4154],[-78.0,33.415],[-78.0,33.4146],[-78.0,33.4143],[-78.0,33.4139],[-78.0,33.4136],[-78.0,33.4132],[-78.0,33.4128],[-78.0,33.4125],[-78.0,33.4121],[-78.0,33.4118],[-78.0,33.4114],[-78.0,33.411],[-78.0,33.4107],[-78.0,33.4103],[-78.0064,33.4105]]]},"properties":{"name":"OCS-A 0545","company":"TotalEnergies Carolina Long Bay, LLC","lease_type":"Commercial","resource":"Wind","state":"North Carolina","lease_date":"06/01/2022","source":"BOEM wind leases"}},{"type":"Feature","geometry":{"type":"Polygon","coordinates":[[[-77.8375,33.3709],[-77.8377,33.3763],[-77.8379,33.3817],[-77.8381,33.3871],[-77.8382,33.3925],[-77.8384,33.3979],[-77.8386,33.4033],[-77.8388,33.4087],[-77.839,33.4141],[-77.8325,33.4143],[-77.8261,33.4144],[-77.8196,33.4146],[-77.8132,33.4147],[-77.8067,33.4148],[-77.8003,33.415],[-77.7938,33.4151],[-77.7874,33.4153],[-77.7872,33.4099],[-77.787,33.4045],[-77.7869,33.3991],[-77.7867,33.3937],[-77.7865,33.3883],[-77.7864,33.3829],[-77.7862,33.3774],[-77.786,33.372],[-77.7925,33.3719],[-77.7989,33.3718],[-77.8053,33.3716],[-77.8118,33.3715],[-77.8182,33.3713],[-77.8247,33.3712],[-77.8311,33.371],[-77.8375,33.3709]]]},"properties":{"name":"OCS-A 0546","company":"Duke Energy Renewables Wind, LLC","lease_type":"Commercial","resource":"Wind","state":"North Carolina","lease_date":"06/01/2022","source":"BOEM wind leases"}},{"type":"Feature","geometry":{"type":"Polygon","coordinates":[[[-73.5549,39.1931],[-73.5547,39.1985],[-73.5546,39.2039],[-73.5545,39.2093],[-73.5544,39.2147],[-73.5543,39.2201],[-73.5542,39.2255],[-73.5541,39.2309],[-73.554,39.2363],[-73.547,39.2363],[-73.5401,39.2362],[-73.5331,39.2361],[-73.5262,39.236],[-73.5192,39.2359],[-73.5123,39.2358],[-73.5053,39.2357],[-73.4984,39.2356],[-73.4985,39.2302],[-73.4986,39.2248],[-73.4987,39.2194],[-73.4988,39.214],[-73.4989,39.2086],[-73.4991,39.2032],[-73.4992,39.1978],[-73.4993,39.1924],[-73.5062,39.1925],[-73.5132,39.1926],[-73.5201,39.1927],[-73.5271,39.1928],[-73.534,39.1928],[-73.541,39.1929],[-73.5479,39.193],[-73.5549,39.1931]]]},"properties":{"name":"OCS-A 0542","company":"Invenergy Wind Offshore LLC","lease_type":"Commercial","resource":"Wind","state":"NY/NJ","lease_date":"05/01/2022","source":"BOEM wind leases"}},{"type":"Feature","geometry":{"type":"Polygon","coordinates":[[[-73.6087,39.2803],[-73.6086,39.2857],[-73.6085,39.2911],[-73.6084,39.2965],[-73.6083,39.3019],[-73.6082,39.3073],[-73.6081,39.3127],[-73.608,39.3181],[-73.6079,39.3235],[-73.6009,39.3234],[-73.5939,39.3233],[-73.587,39.3232],[-73.58,39.3232],[-73.5731,39.3231],[-73.5661,39.323],[-73.5591,39.3229],[-73.5522,39.3228],[-73.5523,39.3174],[-73.5524,39.312],[-73.5525,39.3066],[-73.5526,39.3012],[-73.5527,39.2958],[-73.5529,39.2904],[-73.553,39.285],[-73.5531,39.2796],[-73.56,39.2797],[-73.567,39.2798],[-73.5739,39.2798],[-73.5809,39.2799],[-73.5878,39.28],[-73.5948,39.2801],[-73.6018,39.2802],[-73.6087,39.2803]]]},"properties":{"name":"OCS-A 0541","company":"Atlantic Shores Offshore Wind Bight, LLC","lease_type":"Commercial","resource":"Wind","state":"NY/NJ","lease_date":"05/01/2022","source":"BOEM wind leases"}},{"type":"Feature","geometry":{"type":"Polygon","coordinates":[[[-73.3822,39.4503],[-73.3821,39.4557],[-73.3819,39.4611],[-73.3818,39.4665],[-73.3817,39.4719],[-73.3816,39.4774],[-73.3814,39.4828],[-73.3813,39.4882],[-73.3812,39.4936],[-73.3742,39.4935],[-73.3672,39.4934],[-73.3603,39.4933],[-73.3533,39.4932],[-73.3463,39.4931],[-73.3393,39.493],[-73.3324,39.4929],[-73.3254,39.4928],[-73.3255,39.4874],[-73.3257,39.482],[-73.3258,39.4766],[-73.3259,39.4712],[-73.326,39.4658],[-73.3262,39.4603],[-73.3263,39.4549],[-73.3264,39.4495],[-73.3334,39.4496],[-73.3404,39.4497],[-73.3473,39.4498],[-73.3543,39.4499],[-73.3613,39.45],[-73.3683,39.4501],[-73.3752,39.4502],[-73.3822,39.4503]]]},"properties":{"name":"OCS-A 0539","company":"Community Offshore Wind, LLC","lease_type":"Commercial","resource":"Wind","state":"NY/NJ","lease_date":"05/01/2022","source":"BOEM wind leases"}},{"type":"Feature","geometry":{"type":"Polygon","coordinates":[[[-73.0987,39.619],[-73.0985,39.6244],[-73.0984,39.6298],[-73.0982,39.6352],[-73.0981,39.6406],[-73.0979,39.646],[-73.0978,39.6514],[-73.0976,39.6568],[-73.0975,39.6622],[-73.0905,39.6621],[-73.0835,39.662],[-73.0765,39.6619],[-73.0695,39.6618],[-73.0625,39.6617],[-73.0556,39.6616],[-73.0486,39.6614],[-73.0416,39.6613],[-73.0417,39.6559],[-73.0419,39.6505],[-73.042,39.6451],[-73.0422,39.6397],[-73.0423,39.6343],[-73.0425,39.6289],[-73.0426,39.6235],[-73.0428,39.6181],[-73.0498,39.6182],[-73.0568,39.6183],[-73.0638,39.6184],[-73.0707,39.6186],[-73.0777,39.6187],[-73.0847,39.6188],[-73.0917,39.6189],[-73.0987,39.619]]]},"properties":{"name":"OCS-A 0538","company":"Attentive Energy LLC","lease_type":"Commercial","resource":"Wind","state":"NY/NJ","lease_date":"05/01/2022","source":"BOEM wind leases"}},{"type":"Feature","geometry":{"type":"Polygon","coordinates":[[[-72.8097,39.9166],[-72.8095,39.922],[-72.8093,39.9274],[-72.8092,39.9328],[-72.809,39.9382],[-72.8088,39.9436],[-72.8087,39.949],[-72.8085,39.9544],[-72.8083,39.9598],[-72.8013,39.9597],[-72.7943,39.9596],[-72.7872,39.9594],[-72.7802,39.9593],[-72.7732,39.9592],[-72.7662,39.959],[-72.7592,39.9589],[-72.7522,39.9588],[-72.7523,39.9534],[-72.7525,39.948],[-72.7527,39.9426],[-72.7529,39.9372],[-72.753,39.9318],[-72.7532,39.9264],[-72.7534,39.921],[-72.7536,39.9156],[-72.7606,39.9157],[-72.7676,39.9158],[-72.7746,39.916],[-72.7816,39.9161],[-72.7886,39.9162],[-72.7957,39.9164],[-72.8027,39.9165],[-72.8097,39.9166]]]},"properties":{"name":"OCS-A 0537","company":"Bluepoint Wind, LLC","lease_type":"Commercial","resource":"Wind","state":"NY/NJ","lease_date":"05/01/2022","source":"BOEM wind leases"}},{"type":"Feature","geometry":{"type":"Polygon","coordinates":[[[-74.7806,38.2502],[-74.7806,38.2556],[-74.7805,38.261],[-74.7805,38.2664],[-74.7805,38.2719],[-74.7805,38.2773],[-74.7805,38.2827],[-74.7805,38.2881],[-74.7804,38.2935],[-74.7736,38.2935],[-74.7667,38.2935],[-74.7599,38.2934],[-74.753,38.2934],[-74.7461,38.2934],[-74.7393,38.2934],[-74.7324,38.2934],[-74.7255,38.2934],[-74.7256,38.288],[-74.7256,38.2825],[-74.7256,38.2771],[-74.7256,38.2717],[-74.7256,38.2663],[-74.7257,38.2609],[-74.7257,38.2555],[-74.7257,38.2501],[-74.7326,38.2501],[-74.7394,38.2501],[-74.7463,38.2502],[-74.7531,38.2502],[-74.76,38.2502],[-74.7669,38.2502],[-74.7737,38.2502],[-74.7806,38.2502]]]},"properties":{"name":"OCS-A 0490","company":"US Wind Inc.","lease_type":"Commercial","resource":"Wind","state":"Maryland","lease_date":"12/01/2014","source":"BOEM wind leases"}},{"type":"Feature","geometry":{"type":"Polygon","coordinates":[[[-74.6697,38.5095],[-74.6697,38.5149],[-74.6696,38.5203],[-74.6696,38.5257],[-74.6696,38.5311],[-74.6696,38.5366],[-74.6695,38.542],[-74.6695,38.5474],[-74.6695,38.5528],[-74.6626,38.5528],[-74.6557,38.5527],[-74.6488,38.5527],[-74.6419,38.5527],[-74.635,38.5527],[-74.6282,38.5526],[-74.6213,38.5526],[-74.6144,38.5526],[-74.6144,38.5472],[-74.6144,38.5418],[-74.6145,38.5364],[-74.6145,38.531],[-74.6145,38.5256],[-74.6146,38.5202],[-74.6146,38.5148],[-74.6146,38.5093],[-74.6215,38.5094],[-74.6284,38.5094],[-74.6353,38.5094],[-74.6421,38.5094],[-74.649,38.5095],[-74.6559,38.5095],[-74.6628,38.5095],[-74.6697,38.5095]]]},"properties":{"name":"OCS-A 0519","company":"Skipjack Offshore Energy, LLC","lease_type":"Commercial","resource":"Wind","state":"Delaware","lease_date":"12/01/2012","source":"BOEM wind leases"}},{"type":"Feature","geometry":{"type":"Polygon","coordinates":[[[-74.7794,38.6395],[-74.7794,38.645],[-74.7794,38.6504],[-74.7793,38.6558],[-74.7793,38.6612],[-74.7793,38.6666],[-74.7793,38.672],[-74.7793,38.6774],[-74.7793,38.6828],[-74.7724,38.6828],[-74.7655,38.6828],[-74.7586,38.6828],[-74.7517,38.6827],[-74.7448,38.6827],[-74.7379,38.6827],[-74.731,38.6827],[-74.7241,38.6827],[-74.7241,38.6773],[-74.7241,38.6719],[-74.7241,38.6665],[-74.7242,38.6611],[-74.7242,38.6556],[-74.7242,38.6502],[-74.7242,38.6448],[-74.7242,38.6394],[-74.7311,38.6394],[-74.738,38.6395],[-74.7449,38.6395],[-74.7518,38.6395],[-74.7587,38.6395],[-74.7656,38.6395],[-74.7725,38.6395],[-74.7794,38.6395]]]},"properties":{"name":"OCS-A 0482","company":"GSOE I, LLC","lease_type":"Commercial","resource":"Wind","state":"Delaware","lease_date":"12/01/2012","source":"BOEM wind leases"}},{"type":"Feature","geometry":{"type":"Polygon","coordinates":[[[-75.4844,36.8217],[-75.4844,36.8271],[-75.4845,36.8325],[-75.4845,36.8379],[-75.4845,36.8433],[-75.4846,36.8487],[-75.4846,36.8541],[-75.4846,36.8595],[-75.4847,36.865],[-75.4779,36.865],[-75.4712,36.865],[-75.4645,36.865],[-75.4577,36.8651],[-75.451,36.8651],[-75.4443,36.8651],[-75.4375,36.8651],[-75.4308,36.8652],[-75.4308,36.8598],[-75.4308,36.8543],[-75.4307,36.8489],[-75.4307,36.8435],[-75.4307,36.8381],[-75.4306,36.8327],[-75.4306,36.8273],[-75.4306,36.8219],[-75.4373,36.8219],[-75.444,36.8218],[-75.4508,36.8218],[-75.4575,36.8218],[-75.4642,36.8218],[-75.4709,36.8217],[-75.4777,36.8217],[-75.4844,36.8217]]]},"properties":{"name":"OCS-A 0483","company":"Virginia Electric and Power Company","lease_type":"Commercial","resource":"Wind","state":"Virginia","lease_date":"11/01/2013","source":"BOEM wind leases"}},{"type":"Feature","geometry":{"type":"Polygon","coordinates":[[[-73.1394,40.1819],[-73.1393,40.1873],[-73.1391,40.1927],[-73.139,40.1981],[-73.1388,40.2035],[-73.1387,40.2089],[-73.1385,40.2143],[-73.1384,40.2197],[-73.1383,40.2251],[-73.1312,40.225],[-73.1242,40.2248],[-73.1171,40.2247],[-73.1101,40.2246],[-73.103,40.2245],[-73.096,40.2244],[-73.0889,40.2243],[-73.0819,40.2242],[-73.082,40.2187],[-73.0822,40.2133],[-73.0823,40.2079],[-73.0825,40.2025],[-73.0826,40.1971],[-73.0828,40.1917],[-73.0829,40.1863],[-73.0831,40.1809],[-73.0901,40.181],[-73.0972,40.1812],[-73.1042,40.1813],[-73.1113,40.1814],[-73.1183,40.1815],[-73.1253,40.1816],[-73.1324,40.1817],[-73.1394,40.1819]]]},"properties":{"name":"OCS-A 0544","company":"Vineyard Mid-Atlantic LLC","lease_type":"Commercial","resource":"Wind","state":"NY/NJ","lease_date":"05/01/2022","source":"BOEM wind leases"}},{"type":"Feature","geometry":{"type":"Polygon","coordinates":[[[-73.251,40.2268],[-73.2509,40.2322],[-73.2508,40.2376],[-73.2506,40.243],[-73.2505,40.2484],[-73.2503,40.2538],[-73.2502,40.2593],[-73.2501,40.2647],[-73.2499,40.2701],[-73.2429,40.27],[-73.2358,40.2698],[-73.2288,40.2697],[-73.2217,40.2696],[-73.2147,40.2695],[-73.2076,40.2694],[-73.2005,40.2693],[-73.1935,40.2692],[-73.1936,40.2638],[-73.1938,40.2584],[-73.1939,40.253],[-73.1941,40.2476],[-73.1942,40.2422],[-73.1944,40.2368],[-73.1945,40.2314],[-73.1946,40.226],[-73.2017,40.2261],[-73.2087,40.2262],[-73.2158,40.2263],[-73.2228,40.2264],[-73.2299,40.2265],[-73.2369,40.2266],[-73.244,40.2267],[-73.251,40.2268]]]},"properties":{"name":"OCS-A 0512","company":"Empire Offshore Wind , LLC","lease_type":"Commercial","resource":"Wind","state":"New York","lease_date":"04/01/2017","source":"BOEM wind leases"}},{"type":"Feature","geometry":{"type":"Polygon","coordinates":[[[-70.1918,40.6231],[-70.1919,40.6285],[-70.192,40.6339],[-70.1921,40.6393],[-70.1922,40.6447],[-70.1923,40.6501],[-70.1924,40.6555],[-70.1924,40.6609],[-70.1925,40.6663],[-70.1854,40.6664],[-70.1784,40.6665],[-70.1713,40.6665],[-70.1642,40.6666],[-70.1571,40.6667],[-70.15,40.6668],[-70.1429,40.6668],[-70.1358,40.6669],[-70.1357,40.6615],[-70.1356,40.6561],[-70.1355,40.6507],[-70.1354,40.6453],[-70.1353,40.6399],[-70.1352,40.6345],[-70.1351,40.6291],[-70.135,40.6237],[-70.1421,40.6236],[-70.1492,40.6235],[-70.1563,40.6235],[-70.1634,40.6234],[-70.1705,40.6233],[-70.1776,40.6232],[-70.1847,40.6232],[-70.1918,40.6231]]]},"properties":{"name":"OCS-A 0522","company":"Vineyard Northeast LLC","lease_type":"Commercial","resource":"Wind","state":"Massachusetts","lease_date":"04/01/2019","source":"BOEM wind leases"}},{"type":"Feature","geometry":{"type":"Polygon","coordinates":[[[-70.5322,40.6191],[-70.5323,40.6245],[-70.5324,40.6299],[-70.5326,40.6353],[-70.5327,40.6407],[-70.5328,40.6461],[-70.5329,40.6515],[-70.533,40.6569],[-70.5332,40.6623],[-70.5261,40.6624],[-70.519,40.6625],[-70.5119,40.6626],[-70.5048,40.6627],[-70.4977,40.6628],[-70.4906,40.6629],[-70.4835,40.663],[-70.4764,40.663],[-70.4763,40.6576],[-70.4762,40.6522],[-70.476,40.6468],[-70.4759,40.6414],[-70.4758,40.636],[-70.4757,40.6306],[-70.4756,40.6252],[-70.4755,40.6198],[-70.4825,40.6197],[-70.4896,40.6196],[-70.4967,40.6195],[-70.5038,40.6195],[-70.5109,40.6194],[-70.518,40.6193],[-70.5251,40.6192],[-70.5322,40.6191]]]},"properties":{"name":"OCS-A 0521","company":"SouthCoast Wind Energy LLC","lease_type":"Commercial","resource":"Wind","state":"Massachusetts","lease_date":"04/01/2019","source":"BOEM wind leases"}},{"type":"Feature","geometry":{"type":"Polygon","coordinates":[[[-70.7035,40.6599],[-70.7036,40.6653],[-70.7037,40.6707],[-70.7039,40.6761],[-70.704,40.6815],[-70.7041,40.6869],[-70.7043,40.6923],[-70.7044,40.6977],[-70.7046,40.7031],[-70.6975,40.7032],[-70.6904,40.7034],[-70.6833,40.7035],[-70.6762,40.7036],[-70.6691,40.7037],[-70.662,40.7038],[-70.6549,40.7039],[-70.6478,40.704],[-70.6476,40.6986],[-70.6475,40.6932],[-70.6474,40.6878],[-70.6472,40.6824],[-70.6471,40.677],[-70.647,40.6715],[-70.6468,40.6661],[-70.6467,40.6607],[-70.6538,40.6606],[-70.6609,40.6605],[-70.668,40.6604],[-70.6751,40.6603],[-70.6822,40.6602],[-70.6893,40.6601],[-70.6964,40.66],[-70.7035,40.6599]]]},"properties":{"name":"OCS-A 0520","company":"Beacon Wind LLC","lease_type":"Commercial","resource":"Wind","state":"Massachusetts","lease_date":"04/01/2019","source":"BOEM wind leases"}},{"type":"Feature","geometry":{"type":"Polygon","coordinates":[[[-93.493,29.0281],[-93.493,29.0335],[-93.493,29.0389],[-93.493,29.0444],[-93.4931,29.0498],[-93.4931,29.0552],[-93.4931,29.0606],[-93.4931,29.066],[-93.4932,29.0714],[-93.487,29.0715],[-93.4808,29.0715],[-93.4747,29.0715],[-93.4685,29.0715],[-93.4623,29.0715],[-93.4562,29.0716],[-93.45,29.0716],[-93.4438,29.0716],[-93.4438,29.0662],[-93.4438,29.0608],[-93.4438,29.0554],[-93.4437,29.0499],[-93.4437,29.0445],[-93.4437,29.0391],[-93.4437,29.0337],[-93.4437,29.0283],[-93.4498,29.0283],[-93.456,29.0282],[-93.4621,29.0282],[-93.4683,29.0282],[-93.4745,29.0282],[-93.4806,29.0282],[-93.4868,29.0281],[-93.493,29.0281]]]},"properties":{"name":"OCS-G 37334 - Provisional","company":"RWE Offshore US Gulf, LLC","lease_type":"Commercial","resource":"Wind","state":"Louisanna/Texas","lease_date":null,"source":"BOEM wind leases"}},{"type":"Feature","geometry":{"type":"Polygon","coordinates":[[[-75.0534,36.2168],[-75.0534,36.2222],[-75.0534,36.2277],[-75.0534,36.2331],[-75.0534,36.2385],[-75.0534,36.2439],[-75.0534,36.2493],[-75.0534,36.2547],[-75.0534,36.2601],[-75.0468,36.2601],[-75.0401,36.2601],[-75.0334,36.2601],[-75.0267,36.2601],[-75.02,36.2601],[-75.0134,36.2601],[-75.0067,36.2601],[-75.0,36.2601],[-75.0,36.2547],[-75.0,36.2493],[-75.0,36.2439],[-75.0,36.2385],[-75.0,36.2331],[-75.0,36.2277],[-75.0,36.2223],[-75.0,36.2169],[-75.0067,36.2169],[-75.0134,36.2169],[-75.02,36.2168],[-75.0267,36.2168],[-75.0334,36.2168],[-75.0401,36.2168],[-75.0467,36.2168],[-75.0534,36.2168]]]},"properties":{"name":"OCS-A 0508","company":"Kitty Hawk Wind, LLC","lease_type":"Commercial","resource":"Wind","state":"North Carolina","lease_date":"11/01/2017","source":"BOEM wind leases"}},{"type":"Feature","geometry":{"type":"Polygon","coordinates":[[[-75.2676,36.3896],[-75.2676,36.3951],[-75.2676,36.4005],[-75.2677,36.4059],[-75.2677,36.4113],[-75.2677,36.4167],[-75.2677,36.4221],[-75.2677,36.4275],[-75.2678,36.4329],[-75.2611,36.4329],[-75.2544,36.433],[-75.2477,36.433],[-75.241,36.433],[-75.2343,36.433],[-75.2276,36.433],[-75.2209,36.433],[-75.2142,36.433],[-75.2142,36.4276],[-75.2142,36.4222],[-75.2142,36.4168],[-75.2142,36.4114],[-75.2141,36.406],[-75.2141,36.4006],[-75.2141,36.3952],[-75.2141,36.3898],[-75.2208,36.3897],[-75.2275,36.3897],[-75.2342,36.3897],[-75.2409,36.3897],[-75.2475,36.3897],[-75.2542,36.3897],[-75.2609,36.3897],[-75.2676,36.3896]]]},"properties":{"name":"OCS-A 0559","company":"Kitty Hawk North, LLC","lease_type":"Commercial","resource":"Wind","state":"North Carolina","lease_date":"11/21/2023","source":"BOEM wind leases"}},{"type":"Feature","geometry":{"type":"Polygon","coordinates":[[[-70.6017,40.856],[-70.6088,40.8559],[-70.6089,40.8613],[-70.6091,40.8667],[-70.602,40.8668],[-70.5948,40.8669],[-70.5947,40.8615],[-70.5946,40.856],[-70.6017,40.856]]]},"properties":{"name":"OCS-A 0534","company":"Park City Wind LLC","lease_type":"Commercial","resource":"Wind","state":"Massachussets","lease_date":"05/15/2024","source":"BOEM wind leases"}},{"type":"Feature","geometry":{"type":"Polygon","coordinates":[[[-70.8294,40.8526],[-70.8365,40.8525],[-70.8366,40.8579],[-70.8368,40.8633],[-70.8297,40.8634],[-70.8226,40.8635],[-70.8224,40.8581],[-70.8223,40.8527],[-70.8294,40.8526]]]},"properties":{"name":"OCS-A 0561","company":"Commonwealth Wind LLC","lease_type":"Commercial","resource":"Wind","state":"Massachusetts","lease_date":"05/15/2024","source":"BOEM wind leases"}},{"type":"Feature","geometry":null,"properties":{"name":null,"company":null,"lease_type":null,"resource":null,"state":null,"lease_date":"05/15/2024","source":"BOEM wind leases"}},{"type":"Feature","geometry":{"type":"Polygon","coordinates":[[[-69.37,43.3198],[-69.37,43.3253],[-69.3626,43.3253],[-69.3626,43.3199],[-69.37,43.3198]]]},"properties":{"name":"OCS-A 0553","company":"Pine Tree Offshore Wind LLC","lease_type":"Research","resource":"Wind","state":"Maine","lease_date":"08/19/2024","source":"BOEM wind leases"}},{"type":"Feature","geometry":{"type":"Polygon","coordinates":[[[-68.7932,43.2122],[-68.7932,43.2068],[-68.7932,43.2014],[-68.8006,43.2014],[-68.808,43.2014],[-68.808,43.2068],[-68.8079,43.2122],[-68.8006,43.2122],[-68.7932,43.2122]]]},"properties":{"name":"OCS-A 0562","company":"Invenergy NE Offshore Wind, LLC","lease_type":"Commercial","resource":"Wind","state":"Maine","lease_date":"12/16/2024","source":"BOEM wind leases"}},{"type":"Feature","geometry":{"type":"Polygon","coordinates":[[[-69.4077,42.3039],[-69.4149,42.3039],[-69.4222,42.3039],[-69.4223,42.3093],[-69.4223,42.3147],[-69.415,42.3147],[-69.4077,42.3147],[-69.4077,42.3093],[-69.4077,42.3039]]]},"properties":{"name":"OCS-A 0564","company":"Avangrid Renewables, LLC","lease_type":"Commercial","resource":"Wind","state":"Massachussets","lease_date":"12/16/2024","source":"BOEM wind leases"}},{"type":"Feature","geometry":{"type":"Polygon","coordinates":[[[-69.42,41.9688],[-69.4272,41.9688],[-69.4345,41.9688],[-69.4345,41.9742],[-69.4346,41.9796],[-69.4273,41.9796],[-69.4201,41.9796],[-69.42,41.9742],[-69.42,41.9688]]]},"properties":{"name":"OCS-A 0567","company":"Invenergy NE Offshore Wind, LLC","lease_type":"Commercial","resource":"Wind","state":"Massachusetts","lease_date":"12/16/2024","source":"BOEM wind leases"}},{"type":"Feature","geometry":{"type":"Polygon","coordinates":[[[-69.087,42.0776],[-69.0943,42.0776],[-69.1016,42.0776],[-69.1016,42.083],[-69.1016,42.0884],[-69.0943,42.0884],[-69.0871,42.0885],[-69.0871,42.0831],[-69.087,42.0776]]]},"properties":{"name":"OCS-A 0568","company":"Avangrid Renewables, LLC","lease_type":"Commercial","resource":"Wind","state":"Massachusetts","lease_date":"12/16/2024","source":"BOEM wind leases"}},{"type":"Feature","geometry":{"type":"Polygon","coordinates":[[[-74.3933,38.6436],[-74.3933,38.6382],[-74.4002,38.6382],[-74.4071,38.6383],[-74.414,38.6383],[-74.4209,38.6383],[-74.4278,38.6384],[-74.4347,38.6384],[-74.4416,38.6384],[-74.4485,38.6385],[-74.4484,38.6439],[-74.4484,38.6493],[-74.4483,38.6547],[-74.4483,38.6601],[-74.4483,38.6655],[-74.4482,38.6709],[-74.4482,38.6763],[-74.4481,38.6817],[-74.4412,38.6817],[-74.4343,38.6816],[-74.4274,38.6816],[-74.4206,38.6816],[-74.4137,38.6815],[-74.4068,38.6815],[-74.3999,38.6815],[-74.393,38.6814],[-74.393,38.676],[-74.3931,38.6706],[-74.3931,38.6652],[-74.3931,38.6598],[-74.3932,38.6544],[-74.3932,38.649],[-74.3933,38.6436]]]},"properties":{"name":"OCS-A 0557","company":"OCS-A 0557","lease_type":"Commercial","resource":"Wind","state":"Delaware/Maryland","lease_date":"08/14/2024","source":"BOEM wind leases"}},{"type":"Feature","geometry":{"type":"Polygon","coordinates":[[[-75.101,36.8659],[-75.1077,36.8659],[-75.1077,36.8713],[-75.1077,36.8767],[-75.1077,36.8821],[-75.1077,36.8875],[-75.1077,36.8929],[-75.1078,36.8983],[-75.1078,36.9038],[-75.1078,36.9092],[-75.101,36.9092],[-75.0943,36.9092],[-75.0876,36.9092],[-75.0808,36.9092],[-75.0741,36.9092],[-75.0674,36.9092],[-75.0606,36.9092],[-75.0539,36.9092],[-75.0539,36.9038],[-75.0539,36.8984],[-75.0539,36.893],[-75.0539,36.8876],[-75.0539,36.8822],[-75.0539,36.8767],[-75.0539,36.8713],[-75.0539,36.8659],[-75.0606,36.8659],[-75.0673,36.8659],[-75.074,36.8659],[-75.0808,36.8659],[-75.0875,36.8659],[-75.0942,36.8659],[-75.101,36.8659]]]},"properties":{"name":"OCS-A 0558","company":"Virginia Electric and Power Co","lease_type":"Commercial","resource":"Wind","state":"Virginia","lease_date":"08/14/2024","source":"BOEM wind leases"}},{"type":"Feature","geometry":{"type":"Polygon","coordinates":[[[-74.1019,39.3284],[-74.109,39.3284],[-74.1089,39.3338],[-74.1019,39.3338],[-74.1019,39.3284]]]},"properties":{"name":"OCS-A 0499","company":"Atlantic Shores Offshore Wind Project 1, LLC","lease_type":"Commercial","resource":"Wind","state":"New Jersey","lease_date":"03/01/2016","source":"BOEM wind leases"}},{"type":"Feature","geometry":{"type":"Polygon","coordinates":[[[-74.0596,39.3713],[-74.0666,39.3713],[-74.0665,39.3767],[-74.0596,39.3767],[-74.0596,39.3713]]]},"properties":{"name":"OCS-A 0570","company":"Atlantic Shores Offshore Wind Project 2, LLC","lease_type":"Commercial","resource":"Wind","state":"New Jersey","lease_date":"09/30/2024","source":"BOEM wind leases"}}]}