{"type":"FeatureCollection","features":[{"type":"Feature","geometry":{"type":"LineString","coordinates":[[-103.89261,31.80733],[-103.63112,31.71929],[-102.89756,31.68602],[-102.30549,31.70172],[-101.28636,32.07976],[-100.92207,32.19861],[-100.56119,32.17917],[-100.27379,32.12479],[-99.95375,32.11133],[-99.61638,32.39951],[-97.58514,31.5412],[-96.41023,30.92885],[-95.97078,30.62301],[-95.54509,30.4357],[-95.3139,30.32764],[-95.1135,30.08271],[-95.067,29.63147]]},"properties":{"commodity":"hgl","source":"EIA HGL pipelines"}},{"type":"Feature","geometry":{"type":"LineString","coordinates":[[-82.37178,42.95043],[-82.38576,42.95238],[-82.41259,42.90498],[-82.42906,42.84359],[-82.42457,42.65793],[-82.46369,42.54492],[-82.55483,42.41537],[-82.7083,42.31285],[-82.86924,42.28806],[-83.07745,42.27929]]},"properties":{"commodity":"hgl","source":"EIA HGL pipelines"}},{"type":"Feature","geometry":{"type":"LineString","coordinates":[[-109.27388,41.36037],[-109.15788,41.14008],[-109.22442,41.07876],[-109.22294,41.00066],[-109.15163,40.95745],[-109.1407,40.90087],[-109.15633,40.76965],[-109.1926,40.68627],[-109.32724,40.60366],[-109.3528,40.52272],[-109.34807,40.40134],[-109.16036,40.28488],[-109.01057,40.16446],[-109.14803,39.99537],[-109.14089,39.85973],[-109.08027,39.80042],[-108.91916,39.56939],[-109.06058,39.15827],[-109.36463,38.96564],[-109.68053,38.93034],[-109.77545,38.82218],[-109.40053,38.47765],[-109.36869,38.19167],[-108.90259,37.70689],[-107.74191,37.11801],[-107.79557,36.89721],[-107.97798,36.58816],[-107.61483,36.26567],[-107.10009,35.75013],[-105.44944,34.49959],[-102.90345,32.80142],[-102.00968,32.46597]]},"properties":{"commodity":"hgl","source":"EIA HGL pipelines"}},{"type":"Feature","geometry":{"type":"LineString","coordinates":[[-102.95441,32.78174],[-102.08917,32.44558],[-101.23187,32.10363],[-100.08383,31.67513],[-96.47333,30.07653],[-96.41866,30.01683]]},"properties":{"commodity":"hgl","source":"EIA HGL pipelines"}},{"type":"Feature","geometry":{"type":"LineString","coordinates":[[-102.90345,32.80142],[-101.07599,35.83778],[-101.00931,36.55996],[-99.90858,37.17071],[-97.72963,38.18854]]},"properties":{"commodity":"hgl","source":"EIA HGL pipelines"}},{"type":"Feature","geometry":{"type":"LineString","coordinates":[[-97.72963,38.18854],[-96.8982,37.82301],[-96.7037,37.23689],[-95.46633,37.01675]]},"properties":{"commodity":"hgl","source":"EIA HGL pipelines"}},{"type":"Feature","geometry":{"type":"LineString","coordinates":[[-89.25854,31.37921],[-87.91218,32.53853],[-84.96178,32.62977],[-83.79428,33.30081],[-81.97337,33.62528],[-79.77594,34.80587],[-78.84987,35.73269]]},"properties":{"commodity":"hgl","source":"EIA HGL pipelines"}},{"type":"Feature","geometry":{"type":"LineString","coordinates":[[-97.72963,38.18854],[-94.8805,29.91022]]},"properties":{"commodity":"hgl","source":"EIA HGL pipelines"}},{"type":"Feature","geometry":{"type":"LineString","coordinates":[[-84.96178,32.62977],[-84.15546,31.57868],[-83.83935,31.4958],[-82.46204,31.53955]]},"properties":{"commodity":"hgl","source":"EIA HGL pipelines"}},{"type":"Feature","geometry":{"type":"LineString","coordinates":[[-79.95185,40.31527],[-80.19176,40.58198],[-80.89651,41.21551],[-81.23001,41.27423],[-83.62905,41.26037]]},"properties":{"commodity":"hgl","source":"EIA HGL pipelines"}},{"type":"Feature","geometry":{"type":"LineString","coordinates":[[-84.0579,40.69487],[-83.78042,40.58525],[-83.0733,39.93445],[-82.89061,39.74894]]},"properties":{"commodity":"hgl","source":"EIA HGL pipelines"}},{"type":"Feature","geometry":{"type":"LineString","coordinates":[[-85.49998,40.91139],[-86.304,39.89153]]},"properties":{"commodity":"hgl","source":"EIA HGL pipelines"}},{"type":"Feature","geometry":{"type":"LineString","coordinates":[[-91.94651,40.90778],[-91.3585,40.582],[-89.98684,40.69372]]},"properties":{"commodity":"hgl","source":"EIA HGL pipelines"}},{"type":"Feature","geometry":{"type":"LineString","coordinates":[[-94.60013,39.40941],[-94.31099,39.39719],[-93.51979,39.76087],[-92.09612,40.60188]]},"properties":{"commodity":"hgl","source":"EIA HGL pipelines"}},{"type":"Feature","geometry":{"type":"LineString","coordinates":[[-102.00968,32.46597],[-100.96807,32.65964],[-100.7593,32.63832],[-100.15165,32.47087],[-99.46137,32.22104],[-98.38118,31.76224],[-97.28716,31.28803],[-95.5717,30.30089],[-95.02113,29.98471],[-94.85343,30.87462]]},"properties":{"commodity":"hgl","source":"EIA HGL pipelines"}},{"type":"Feature","geometry":{"type":"LineString","coordinates":[[-101.23696,35.45695],[-100.43428,34.82837],[-99.34132,34.52648],[-97.725,32.17986],[-95.30753,31.41923]]},"properties":{"commodity":"hgl","source":"EIA HGL pipelines"}},{"type":"Feature","geometry":{"type":"LineString","coordinates":[[-84.22369,39.48212],[-84.00868,39.71722],[-83.94059,40.17323],[-84.08506,40.53881],[-84.12409,40.71513]]},"properties":{"commodity":"hgl","source":"EIA HGL pipelines"}},{"type":"Feature","geometry":{"type":"LineString","coordinates":[[-89.25854,31.37921],[-88.66162,30.78748],[-88.07454,30.76402]]},"properties":{"commodity":"hgl","source":"EIA HGL pipelines"}},{"type":"Feature","geometry":{"type":"LineString","coordinates":[[-101.23696,35.45695],[-100.94662,36.18804],[-99.43422,36.85948],[-97.55078,37.65134],[-95.11611,38.6618],[-94.5914,38.77091],[-91.45415,38.4987],[-90.33722,38.50418],[-90.04922,38.8512]]},"properties":{"commodity":"hgl","source":"EIA HGL pipelines"}},{"type":"Feature","geometry":{"type":"LineString","coordinates":[[-97.59199,40.55655],[-99.22749,40.59387],[-99.79914,40.66364],[-100.50417,40.75539],[-100.67149,40.93014],[-100.74029,41.12627]]},"properties":{"commodity":"hgl","source":"EIA HGL pipelines"}},{"type":"Feature","geometry":{"type":"LineString","coordinates":[[-97.72963,38.18854],[-99.82703,38.88007],[-104.6455,39.7777]]},"properties":{"commodity":"hgl","source":"EIA HGL pipelines"}},{"type":"Feature","geometry":{"type":"LineString","coordinates":[[-98.45796,38.4404],[-96.27102,40.57864],[-95.89195,40.9794],[-95.35473,41.14274],[-93.79282,41.48789],[-93.59996,41.4838],[-93.49867,41.56896],[-92.76384,41.58435],[-92.61794,41.61943],[-91.89152,41.63072],[-91.79913,41.60456],[-91.58327,41.60908],[-90.96492,41.62791],[-90.342,41.65036],[-89.21236,41.53235],[-88.9976,41.52335],[-88.7722,41.47498],[-88.63555,41.43531],[-88.54897,41.42281],[-88.43437,41.4088],[-88.33305,41.41394],[-88.26579,41.46202],[-88.23482,41.50098],[-88.21182,41.56626],[-88.05379,41.64655],[-87.4672,41.63979]]},"properties":{"commodity":"hgl","source":"EIA HGL pipelines"}},{"type":"Feature","geometry":{"type":"LineString","coordinates":[[-97.72963,38.18854],[-96.90034,38.94098],[-96.37999,39.06444],[-95.42018,39.40407],[-94.53918,39.55832]]},"properties":{"commodity":"hgl","source":"EIA HGL pipelines"}},{"type":"Feature","geometry":{"type":"LineString","coordinates":[[-95.11611,38.65852],[-94.84669,38.74394],[-94.74566,39.07806],[-94.66567,39.15971],[-94.59411,39.13032]]},"properties":{"commodity":"hgl","source":"EIA HGL pipelines"}},{"type":"Feature","geometry":{"type":"LineString","coordinates":[[-104.13346,32.71419],[-103.0495,32.67273],[-102.6371,31.98726],[-101.83918,31.89871],[-101.73763,31.1979],[-99.94827,30.69066],[-97.30616,30.06116],[-95.88248,29.81303],[-95.72434,29.05187],[-95.54238,29.0312],[-95.51762,29.3512],[-95.31217,29.32998],[-95.1237,29.82931]]},"properties":{"commodity":"hgl","source":"EIA HGL pipelines"}},{"type":"Feature","geometry":{"type":"LineString","coordinates":[[-104.57733,32.41289],[-104.28133,32.72074],[-103.90195,32.79447],[-103.73437,32.78869],[-103.29364,32.83876],[-102.88523,32.76798],[-102.79392,32.45153],[-102.50394,32.23455],[-101.92479,32.09347],[-100.75972,32.39184],[-100.28333,32.50062],[-99.80854,32.40664],[-99.42715,32.45268],[-99.0456,32.48556],[-98.13737,32.58033],[-97.9183,32.6945],[-96.35133,31.73263],[-95.89974,31.59843],[-95.34246,31.48133],[-94.81398,31.31548],[-94.9484,30.02641]]},"properties":{"commodity":"hgl","source":"EIA HGL pipelines"}},{"type":"Feature","geometry":{"type":"LineString","coordinates":[[-94.91375,29.86086],[-94.87151,29.96436],[-94.69144,30.07213],[-94.42734,30.31785],[-94.81398,31.31548],[-94.9855,32.05637],[-94.85565,32.43925]]},"properties":{"commodity":"hgl","source":"EIA HGL pipelines"}},{"type":"Feature","geometry":{"type":"LineString","coordinates":[[-100.75972,32.39184],[-100.66507,32.08542],[-101.92479,32.09347]]},"properties":{"commodity":"hgl","source":"EIA HGL pipelines"}},{"type":"Feature","geometry":{"type":"LineString","coordinates":[[-103.0367,31.95212],[-103.05502,32.14695],[-102.51335,32.27662],[-102.16856,32.06637],[-101.72853,32.11248],[-100.23297,32.48849],[-97.76783,32.01247],[-96.47398,32.04053],[-94.71978,30.5837],[-94.57695,30.12028],[-94.77011,29.959]]},"properties":{"commodity":"hgl","source":"EIA HGL pipelines"}},{"type":"Feature","geometry":{"type":"LineString","coordinates":[[-102.97377,31.19862],[-101.95445,31.7412],[-102.00685,32.03704],[-101.69134,32.13041]]},"properties":{"commodity":"hgl","source":"EIA HGL pipelines"}},{"type":"Feature","geometry":{"type":"LineString","coordinates":[[-97.64723,32.02799],[-97.55104,32.48555]]},"properties":{"commodity":"hgl","source":"EIA HGL pipelines"}},{"type":"Feature","geometry":{"type":"LineString","coordinates":[[-96.01716,31.68043],[-95.55367,32.08266]]},"properties":{"commodity":"hgl","source":"EIA HGL pipelines"}},{"type":"Feature","geometry":{"type":"LineString","coordinates":[[-106.24548,31.55941],[-104.91199,31.82162],[-103.52878,31.71136],[-103.0367,31.95212],[-102.64433,32.08134],[-102.27298,32.07748],[-102.00968,32.46597]]},"properties":{"commodity":"hgl","source":"EIA HGL pipelines"}},{"type":"Feature","geometry":{"type":"LineString","coordinates":[[-94.67509,30.04251],[-94.37058,30.13456],[-94.16466,30.15791],[-94.06238,30.14829],[-94.02664,30.19593],[-93.91698,30.20649],[-93.85141,30.24061],[-93.64795,30.27457],[-92.92751,30.42349],[-92.87847,30.43695],[-92.78151,30.43686],[-92.74893,30.42487],[-92.55729,30.45688],[-92.53132,30.4594]]},"properties":{"commodity":"hgl","source":"EIA HGL pipelines"}},{"type":"Feature","geometry":{"type":"LineString","coordinates":[[-111.1507,40.93611],[-111.15104,40.95191],[-111.12841,40.95368],[-111.09995,40.96651],[-111.01424,41.03093],[-110.87462,41.06619],[-110.73202,41.16485],[-110.667,41.21044],[-110.56717,41.29766],[-110.3961,41.34788],[-110.06867,41.54482],[-109.95534,41.56539],[-109.80319,41.53539],[-109.52958,41.52369],[-109.4404,41.46463],[-109.31332,41.45692],[-109.27388,41.36037],[-109.00358,41.35118],[-108.7304,41.40459],[-108.49843,41.57804],[-107.82552,41.71073],[-107.82512,41.64766]]},"properties":{"commodity":"hgl","source":"EIA HGL pipelines"}},{"type":"Feature","geometry":{"type":"LineString","coordinates":[[-97.72963,38.18854],[-97.42322,38.98472],[-96.59261,40.37331],[-96.28952,41.61393],[-96.19701,42.09537],[-96.03407,42.79901],[-95.5578,43.37292],[-94.88722,43.66901],[-93.71399,44.22419],[-93.15183,44.66431],[-93.03806,44.76103]]},"properties":{"commodity":"hgl","source":"EIA HGL pipelines"}},{"type":"Feature","geometry":{"type":"LineString","coordinates":[[-83.7363,43.59779],[-83.3119,42.38142],[-83.49794,42.04578],[-83.50493,41.68093],[-83.61175,41.29326],[-83.73885,41.02639],[-84.06137,40.69491],[-85.49998,40.91139],[-86.37499,41.11122],[-87.67474,41.35809]]},"properties":{"commodity":"hgl","source":"EIA HGL pipelines"}},{"type":"Feature","geometry":{"type":"LineString","coordinates":[[-97.81332,38.36187],[-98.06575,38.36732],[-98.27949,38.50865],[-98.99695,38.70551],[-99.54059,38.81621],[-100.55042,39.29505],[-102.07311,39.98456],[-104.25145,40.70466],[-105.6595,41.32315],[-106.52211,41.78974],[-106.76464,41.77988],[-106.80411,41.75633],[-107.51204,41.76371],[-107.59528,41.70611],[-107.82513,41.65003],[-108.55576,41.589],[-108.6214,41.48609],[-109.31332,41.45692],[-109.4404,41.46463],[-109.52958,41.52369],[-109.83265,41.5412],[-109.85527,41.5283],[-109.9582,41.52889],[-109.98041,41.55396],[-110.27162,41.66219],[-110.35148,41.7527],[-110.34456,41.77665]]},"properties":{"commodity":"hgl","source":"EIA HGL pipelines"}},{"type":"Feature","geometry":{"type":"LineString","coordinates":[[-89.1801,42.71976],[-90.55234,42.48143],[-91.3852,41.62843]]},"properties":{"commodity":"hgl","source":"EIA HGL pipelines"}},{"type":"Feature","geometry":{"type":"LineString","coordinates":[[-95.1268,29.73144],[-94.75011,29.84387],[-94.64095,29.84104],[-94.06902,29.98942],[-94.04139,30.01819],[-94.03193,30.04083],[-93.90602,30.1036],[-93.80065,30.65177],[-93.50097,31.27331],[-93.17992,32.10978],[-92.67377,33.19973],[-92.1774,34.77357],[-91.76395,35.13294],[-90.38937,36.37956],[-89.51437,37.22022],[-89.07447,37.50902],[-88.12897,38.04918],[-86.93182,38.43928],[-86.6111,38.54835],[-86.28032,38.70704],[-85.8504,39.02275],[-85.1552,39.31144],[-84.83927,39.33532],[-84.52469,39.47756],[-84.39808,39.46082],[-84.22369,39.48212],[-84.03123,39.56803],[-83.84631,39.53783],[-83.09005,39.65023],[-82.87253,39.7302],[-82.68648,39.76295],[-82.51521,39.97284],[-82.46735,40.08093],[-81.8446,40.19637],[-80.61874,40.40457],[-80.52857,40.35799],[-80.23691,40.32471],[-79.91816,40.25805],[-79.58585,40.29103],[-79.38273,40.47604],[-78.67884,41.01608],[-77.97877,41.40889],[-77.84616,41.60007],[-77.59278,41.73907],[-76.94091,42.11993],[-76.95986,42.37529],[-75.10192,42.48742],[-74.67663,42.48275],[-74.26755,42.46301],[-73.91184,42.45738],[-73.78827,42.52228]]},"properties":{"commodity":"hgl","source":"EIA HGL pipelines"}},{"type":"Feature","geometry":{"type":"LineString","coordinates":[[-81.23001,41.27423],[-81.6305,41.46498],[-82.17787,41.28154],[-82.83578,41.25803],[-83.51997,41.70698]]},"properties":{"commodity":"hgl","source":"EIA HGL pipelines"}},{"type":"Feature","geometry":{"type":"LineString","coordinates":[[-96.19701,42.09537],[-95.70528,39.31223]]},"properties":{"commodity":"hgl","source":"EIA HGL pipelines"}},{"type":"Feature","geometry":{"type":"LineString","coordinates":[[-97.72963,38.18854],[-97.63984,38.84118],[-97.69308,39.28939],[-97.58303,40.52424],[-97.59199,40.55655],[-97.55099,41.16834],[-97.42657,42.05123],[-97.39715,42.87501],[-97.991,43.69056],[-98.46331,44.39611]]},"properties":{"commodity":"hgl","source":"EIA HGL pipelines"}},{"type":"Feature","geometry":{"type":"LineString","coordinates":[[-81.29921,40.5244],[-81.2219,40.44226],[-81.12079,40.32482],[-80.95864,40.27196],[-80.23899,40.1735],[-79.41669,40.37513],[-78.94146,40.38567],[-78.4082,40.4025],[-77.4104,40.20611],[-76.74701,40.16882],[-76.38592,40.21267],[-76.05364,40.20515],[-75.43681,39.84045]]},"properties":{"commodity":"hgl","source":"EIA HGL pipelines"}},{"type":"Feature","geometry":{"type":"LineString","coordinates":[[-81.40914,40.6867],[-81.38689,40.6495],[-81.37512,40.61513],[-81.36939,40.58074],[-81.36488,40.55951],[-81.35612,40.53469],[-81.3435,40.51858],[-81.33477,40.49835],[-81.30302,40.45918],[-81.27609,40.43514],[-81.2234,40.38643],[-81.19994,40.3651],[-81.14758,40.33859],[-81.10531,40.30721],[-81.07963,40.2779],[-81.02706,40.25283],[-80.99576,40.24041]]},"properties":{"commodity":"hgl","source":"EIA HGL pipelines"}},{"type":"Feature","geometry":{"type":"LineString","coordinates":[[-84.10708,40.69785],[-83.31627,40.68306],[-81.41,40.68311]]},"properties":{"commodity":"hgl","source":"EIA HGL pipelines"}},{"type":"Feature","geometry":{"type":"LineString","coordinates":[[-83.74766,41.8086],[-83.78577,41.56271],[-83.75367,41.53801],[-83.66605,41.52461],[-83.64423,41.5074],[-83.60509,41.50341],[-83.56996,41.47734],[-83.48061,41.47563],[-83.39548,41.47804],[-83.36533,41.45242],[-83.3067,41.44628],[-83.25227,41.44431],[-83.23547,41.42755],[-83.17405,41.40981],[-83.15171,41.39619],[-83.11473,41.38101],[-83.05618,41.37476],[-83.01785,41.3669],[-82.84306,41.31799],[-82.75129,41.27794],[-82.70747,41.27312],[-82.50164,41.15642],[-82.46835,41.14893],[-82.26476,41.02447],[-82.2204,41.02315],[-82.17635,40.99555],[-82.09474,40.98236],[-82.0813,40.95075],[-81.95849,40.87255],[-81.89082,40.86459],[-81.88007,40.84454],[-81.82693,40.83825],[-81.80021,40.82381],[-81.74709,40.81749],[-81.70005,40.7818],[-81.4548,40.74843],[-81.36554,40.72623],[-81.3573,40.69513],[-81.31877,40.69039],[-81.2684,40.64844],[-81.23387,40.63664],[-81.21932,40.61226],[-81.15867,40.57272],[-81.1005,40.53346],[-81.0804,40.50083],[-80.98876,40.46858],[-80.96315,40.45028],[-80.92318,40.44145],[-80.88162,40.42863],[-80.84607,40.41092],[-80.81612,40.40144]]},"properties":{"commodity":"hgl","source":"EIA HGL pipelines"}},{"type":"Feature","geometry":{"type":"LineString","coordinates":[[-83.10327,42.29479],[-83.10744,42.29715],[-83.14981,42.28092],[-83.17838,42.24586],[-83.16484,42.22979],[-83.16374,42.19552],[-83.19405,42.12659],[-83.23815,42.1299],[-83.49888,41.9968],[-83.60348,41.89694],[-83.74769,41.80875]]},"properties":{"commodity":"hgl","source":"EIA HGL pipelines"}},{"type":"Feature","geometry":{"type":"MultiLineString","coordinates":[[[-88.30269,41.41345],[-88.18269,41.41434],[-87.9852,41.4481],[-87.76748,41.46611]],[[-85.8504,39.02275],[-85.89412,39.36056],[-86.20112,39.66205],[-86.32456,39.7722],[-86.33465,39.85496],[-86.99006,40.67231],[-87.57236,41.33868],[-87.76748,41.46611],[-87.79192,41.4901],[-87.83881,41.64724],[-87.81002,41.65893],[-87.81484,41.77047],[-87.83373,41.77087],[-87.83462,41.7647]]]},"properties":{"commodity":"hgl","source":"EIA HGL pipelines"}},{"type":"Feature","geometry":{"type":"LineString","coordinates":[[-96.19438,42.77044],[-95.14706,43.35639]]},"properties":{"commodity":"hgl","source":"EIA HGL pipelines"}},{"type":"Feature","geometry":{"type":"LineString","coordinates":[[-97.39715,42.87501],[-96.19438,42.77044]]},"properties":{"commodity":"hgl","source":"EIA HGL pipelines"}},{"type":"Feature","geometry":{"type":"LineString","coordinates":[[-103.6512,48.7375],[-103.65158,48.73502],[-103.68945,48.72873],[-103.68897,48.67735],[-103.74937,48.6538],[-103.7442,48.63358],[-103.80779,48.63364],[-103.80499,48.61861],[-103.78759,48.61842],[-103.78725,48.56822],[-103.79996,48.56837],[-103.79998,48.55426],[-103.84594,48.55364],[-103.84716,48.55052],[-103.86371,48.55026],[-103.86334,48.48897],[-103.87404,48.4888],[-103.87456,48.46004],[-103.88164,48.46001],[-103.88207,48.45809],[-103.90727,48.45781],[-103.91293,48.38521],[-103.92392,48.37767],[-103.93131,48.29979],[-103.92846,48.24122],[-103.95014,48.24127],[-103.95087,48.23063],[-103.94529,48.23127]]},"properties":{"commodity":"hgl","source":"EIA HGL pipelines"}},{"type":"Feature","geometry":{"type":"LineString","coordinates":[[-97.75752,36.77559],[-97.76158,37.00259],[-97.9768,38.02997]]},"properties":{"commodity":"hgl","source":"EIA HGL pipelines"}},{"type":"Feature","geometry":{"type":"LineString","coordinates":[[-97.20764,27.82301],[-97.20853,27.86203],[-97.28694,27.90647],[-97.36602,27.94316],[-97.30563,28.11792],[-97.22082,28.29664],[-96.99988,28.49994],[-96.63362,28.818],[-96.07241,29.10217],[-95.73792,29.27102],[-95.54615,29.47885],[-95.42862,29.6099],[-95.26779,29.65748],[-95.26666,29.68026],[-95.23008,29.70494],[-95.22758,29.71631],[-95.20301,29.72011],[-94.95271,29.42447]]},"properties":{"commodity":"hgl","source":"EIA HGL pipelines"}},{"type":"Feature","geometry":{"type":"LineString","coordinates":[[-97.36761,27.93707],[-97.47351,27.81442],[-97.71388,27.66695],[-98.11449,27.42106],[-98.1369,26.3724],[-98.39989,26.41669],[-98.67426,25.27395]]},"properties":{"commodity":"hgl","source":"EIA HGL pipelines"}},{"type":"Feature","geometry":{"type":"LineString","coordinates":[[-97.36264,27.94342],[-97.4619,27.8194],[-98.17569,28.45994],[-98.86299,27.97066],[-99.41729,27.77803],[-99.4618,27.68029]]},"properties":{"commodity":"hgl","source":"EIA HGL pipelines"}},{"type":"Feature","geometry":{"type":"LineString","coordinates":[[-94.89339,29.84441],[-94.87462,29.85215],[-94.88448,29.86492],[-94.8837,29.87085],[-94.84996,29.89075],[-94.84618,29.9263],[-94.86197,29.93116],[-94.86128,29.95428],[-94.76982,29.97065],[-94.75116,29.92819],[-94.69121,29.91214],[-94.67178,29.91235],[-94.61328,29.91299],[-94.49801,29.93692],[-94.27421,29.93777],[-94.23349,29.96425],[-94.20389,29.94714],[-94.07938,29.98505],[-94.04016,30.01813],[-93.94878,30.11712],[-93.94197,30.22429],[-93.83737,30.68076],[-93.17992,32.10978],[-92.67377,33.19973],[-92.19046,34.72013],[-91.7591,35.12944],[-90.51807,36.30013],[-89.08136,37.51387],[-88.1755,38.07578],[-86.73317,38.48645],[-85.9249,39.00071],[-85.11823,39.31986],[-84.84626,39.3598],[-84.31966,39.52593],[-83.07304,39.64281],[-82.67371,39.75611],[-82.35644,40.04653],[-81.89026,40.1961],[-81.8062,40.22281],[-81.21648,40.27864],[-80.65392,40.38482],[-80.25473,40.29937],[-80.25835,40.26271]]},"properties":{"commodity":"hgl","source":"EIA HGL pipelines"}},{"type":"Feature","geometry":{"type":"LineString","coordinates":[[-80.25616,40.25937],[-80.3292,40.6844],[-80.46742,40.7869],[-80.6631,41.0242],[-80.85915,41.02441],[-80.91874,41.0525],[-81.30089,41.04987],[-81.31967,41.0859],[-81.43728,41.07674],[-81.44041,41.24055],[-81.59918,41.21637],[-81.61251,41.23259],[-81.65211,41.2317],[-81.65563,41.21489],[-81.86189,41.21734],[-82.21128,41.21618],[-82.60938,41.21477],[-83.04936,41.21343],[-83.45584,41.21661],[-83.449,41.67363],[-83.49784,41.68927],[-83.53449,41.73514],[-83.31365,42.11223],[-83.31,42.2942],[-83.30388,42.57948],[-82.66796,42.8997],[-82.48284,42.92063],[-82.37178,42.95043]]},"properties":{"commodity":"hgl","source":"EIA HGL pipelines"}},{"type":"Feature","geometry":{"type":"LineString","coordinates":[[-80.30324,40.6822],[-79.56806,40.42801],[-78.84385,40.41885],[-78.40294,40.45644],[-77.40978,40.24586],[-76.73542,40.21448],[-76.35996,40.28707],[-76.02773,40.30797],[-75.48687,39.94916],[-75.42434,39.81332]]},"properties":{"commodity":"hgl","source":"EIA HGL pipelines"}},{"type":"Feature","geometry":{"type":"LineString","coordinates":[[-91.23897,30.23552],[-91.27153,30.25569],[-91.28339,30.28367],[-91.30402,30.2875],[-91.32301,30.27231],[-91.41928,30.2412],[-91.48533,30.16828],[-91.52527,30.16945],[-91.56333,30.14887],[-91.63871,30.13949],[-91.68926,30.14344],[-91.72877,30.1289],[-91.90163,30.07953],[-92.03749,30.08418],[-92.23615,30.19011],[-92.24373,30.28332],[-92.26559,30.32106],[-92.53132,30.4594]]},"properties":{"commodity":"hgl","source":"EIA HGL pipelines"}},{"type":"Feature","geometry":{"type":"LineString","coordinates":[[-100.7625,37.15889],[-99.15753,36.43792],[-96.74998,35.94521],[-96.74986,35.93998],[-96.74812,35.93998],[-96.74816,35.93576],[-96.74832,35.93068],[-96.74951,35.93043],[-96.74978,35.92834],[-96.75382,35.92402],[-96.75525,35.91962],[-96.75426,35.91683],[-96.75382,35.91494],[-96.75382,35.88383],[-96.75734,35.86291],[-96.95391,35.36329],[-96.95446,35.33742],[-97.04198,35.14397],[-97.24171,34.73934],[-97.29553,34.65138],[-97.64617,33.96852],[-97.67728,33.79918],[-97.68172,33.75855],[-97.73156,33.71255],[-97.89501,33.55605],[-98.12607,33.08822],[-97.70838,32.75253],[-96.95743,32.13755],[-96.27758,31.61683],[-95.6866,30.98659],[-95.5133,30.29461],[-95.41738,30.0839],[-95.35871,29.99695],[-95.3099,29.99777],[-95.27377,29.93841],[-95.22355,29.92417],[-95.21799,29.91245],[-95.21182,29.91221],[-95.22135,29.82793],[-95.21222,29.79369],[-95.22028,29.77855],[-95.22565,29.73729]]},"properties":{"commodity":"hgl","source":"EIA HGL pipelines"}},{"type":"Feature","geometry":{"type":"LineString","coordinates":[[-104.73494,40.26658],[-104.67842,39.73989],[-102.18427,36.99359],[-101.13585,35.52345]]},"properties":{"commodity":"hgl","source":"EIA HGL pipelines"}},{"type":"Feature","geometry":{"type":"LineString","coordinates":[[-101.13585,35.52345],[-100.09941,34.18033],[-98.24167,33.46635],[-97.58199,33.05678],[-97.37999,31.97274],[-97.02056,31.3327],[-96.6956,30.8672],[-96.06973,30.48585],[-94.90958,29.8271]]},"properties":{"commodity":"hgl","source":"EIA HGL pipelines"}},{"type":"Feature","geometry":{"type":"LineString","coordinates":[[-104.42019,40.9262],[-104.41574,40.98152],[-104.47976,42.19634],[-104.35505,42.50656],[-104.3574,42.53828],[-104.36501,42.61092],[-104.35436,42.9284],[-104.33198,43.16969],[-104.30182,43.30274],[-104.29847,43.87673],[-104.36549,44.00221],[-104.39564,44.04798],[-104.37051,44.09373],[-104.33916,44.16959],[-104.27235,44.5087],[-104.21798,44.52632],[-104.20376,44.6396],[-104.22238,44.81525],[-104.26211,44.91662],[-104.32171,44.99686],[-104.28789,45.15453],[-104.18596,45.31599],[-104.29032,45.40812],[-104.28172,45.5299],[-104.34117,45.59006],[-104.34385,45.82179],[-104.28226,45.83608],[-104.25476,45.95023],[-104.26,46.01347],[-104.35187,46.37107],[-104.36525,46.48358],[-104.36793,46.54252],[-104.35187,46.60874],[-104.35387,46.64145],[-104.22098,46.99529],[-104.06821,47.33729],[-104.06166,47.40984],[-104.06114,47.41556],[-104.12321,47.57773],[-104.14685,47.60324],[-104.15157,47.65239],[-104.16623,47.65503],[-104.17319,47.67082]]},"properties":{"commodity":"hgl","source":"EIA HGL pipelines"}},{"type":"Feature","geometry":{"type":"LineString","coordinates":[[-97.75624,36.77636],[-97.34706,35.98841],[-96.83623,34.93856],[-96.70832,34.76735],[-96.4539,34.15735],[-96.40798,33.97995],[-96.45392,33.63939],[-96.38489,33.34089],[-96.29578,33.15435],[-96.14298,32.83556],[-95.90271,32.53222],[-95.78257,32.19796],[-95.58824,31.76638],[-95.41864,31.32071],[-95.39864,31.22087],[-95.14657,31.02444],[-94.96283,30.6999],[-95.03463,30.26461],[-94.98633,30.21664],[-94.90716,29.85073]]},"properties":{"commodity":"hgl","source":"EIA HGL pipelines"}},{"type":"Feature","geometry":{"type":"LineString","coordinates":[[-102.64766,31.96541],[-102.62596,31.78751],[-102.24667,31.78167],[-102.0392,31.56313],[-101.73142,31.33027],[-101.21639,30.68111],[-100.58027,30.45597],[-100.45383,30.00666],[-100.61063,29.57324],[-100.50029,29.36089],[-99.79181,29.00598],[-99.55952,28.8179],[-98.72524,28.56038],[-97.88151,28.5172],[-97.68065,28.60748],[-96.61527,29.09736],[-96.3946,29.10244],[-96.19837,29.02182],[-95.97648,29.04661],[-95.84453,29.10919],[-95.47126,29.32545],[-95.34693,29.51249],[-95.11862,29.52001],[-95.16083,29.57759],[-95.00734,29.79427],[-94.93923,29.80259],[-94.91764,29.85394]]},"properties":{"commodity":"hgl","source":"EIA HGL pipelines"}},{"type":"Feature","geometry":{"type":"LineString","coordinates":[[-102.91704,48.40207],[-102.91332,48.42623],[-102.9371,48.42672],[-102.95419,48.43905],[-102.9523,48.45965],[-102.97796,48.47551],[-102.98762,48.48733],[-102.9943,48.50702],[-103.01659,48.50849],[-103.131,48.54392],[-103.13472,48.55179],[-103.14512,48.55622],[-103.25693,48.57072],[-103.2651,48.57564],[-103.27885,48.57588],[-103.4096,48.59419],[-103.4818,48.64231],[-103.53801,48.64203],[-103.61962,48.72176],[-103.63006,48.72921],[-103.64056,48.73535],[-103.65113,48.73765],[-103.6552,48.73826],[-103.65816,48.74147],[-103.67144,48.74174],[-103.72913,48.82411],[-103.82032,48.89561],[-103.83323,48.93912],[-103.85946,48.93994],[-103.85904,48.96728],[-104.01352,48.96653],[-104.02268,49.00943],[-104.00601,49.14747],[-104.58938,49.14851],[-104.60686,49.4119],[-105.12347,49.42845],[-105.15208,49.46565],[-105.32535,49.5276],[-105.52811,49.52231],[-105.70071,49.52705],[-105.89696,49.60633],[-106.1853,49.64508],[-106.41102,49.68623],[-106.49686,49.6996],[-106.7944,49.69808],[-107.03486,49.66914],[-107.28278,49.71255],[-107.74943,49.72529],[-108.56011,49.72886],[-108.76189,49.78786],[-109.02425,49.97002],[-109.46457,50.26584],[-109.7614,50.45712],[-109.93189,50.64167],[-109.98005,50.65926],[-110.02498,50.68537],[-110.03047,50.68555]]},"properties":{"commodity":"hgl","source":"EIA HGL pipelines"}},{"type":"Feature","geometry":{"type":"MultiLineString","coordinates":[[[-113.0639,53.76942],[-112.35633,53.63153],[-111.47103,53.2542],[-110.97801,52.93962],[-109.91647,52.38694],[-108.87459,51.90775],[-108.0132,51.68052],[-107.1907,51.49861],[-106.43215,51.24156],[-105.77483,50.92203],[-103.46571,50.05456],[-103.12419,49.76686],[-101.06699,48.69639],[-98.63853,47.33589],[-97.39574,46.42951],[-96.61606,46.02793],[-93.90924,44.17903],[-93.42911,43.80456],[-92.31807,43.09217],[-90.99146,42.03169],[-90.84829,41.94738],[-90.72193,41.838],[-90.62885,41.79473],[-90.28438,41.77734],[-90.28454,41.74178],[-90.12817,41.69582],[-90.04399,41.69665],[-89.98867,41.65143],[-89.03946,41.46562],[-88.53122,41.32361],[-88.10013,41.02904],[-87.72521,41.03028]],[[-90.99146,42.03169],[-91.36354,41.66797],[-91.40814,41.61798]]]},"properties":{"commodity":"hgl","source":"EIA HGL pipelines"}},{"type":"Feature","geometry":{"type":"LineString","coordinates":[[-102.91704,48.40207],[-102.91332,48.42623],[-102.9371,48.42672],[-102.95419,48.43905],[-102.9523,48.45965],[-102.97796,48.47551],[-102.98762,48.48733],[-102.9943,48.50702],[-103.01659,48.50849],[-103.131,48.54392],[-103.13472,48.55179],[-103.14512,48.55622],[-103.25693,48.57072],[-103.2651,48.57563],[-103.27885,48.57588],[-103.4096,48.59419],[-103.4818,48.64231],[-103.53801,48.64203],[-103.62587,48.72176],[-103.72913,48.82411],[-103.82032,48.89561],[-103.83323,48.93912],[-103.85946,48.93994],[-103.85904,48.96728],[-104.01352,48.96653],[-104.02268,49.00943],[-104.00601,49.14747],[-104.58938,49.14851],[-104.60686,49.4119],[-105.12347,49.42845],[-105.15208,49.46565],[-105.32535,49.5276],[-105.52811,49.52231],[-105.70071,49.52705],[-105.89696,49.60633],[-106.1853,49.64507],[-106.41102,49.68623],[-106.49686,49.6996],[-106.7944,49.69808],[-107.03486,49.66914],[-107.28278,49.71255],[-107.74943,49.72529],[-108.56011,49.72886],[-108.76189,49.78786],[-109.02425,49.97002],[-109.46457,50.26584],[-109.7614,50.45712],[-109.93189,50.64167],[-109.98006,50.65926],[-110.02498,50.68537],[-110.03047,50.68555]]},"properties":{"commodity":"hgl","source":"EIA HGL pipelines"}},{"type":"Feature","geometry":{"type":"LineString","coordinates":[[-110.03047,50.68555],[-111.94524,51.64002],[-113.54828,52.30811]]},"properties":{"commodity":"hgl","source":"EIA HGL pipelines"}},{"type":"Feature","geometry":{"type":"LineString","coordinates":[[-113.54828,52.30811],[-113.6419,52.99484],[-113.59832,53.38839],[-113.51738,53.44406],[-113.40531,53.44962],[-113.39908,53.49965],[-113.33308,53.57792],[-113.31499,53.58231],[-113.28971,53.6393],[-113.25938,53.67974],[-113.22651,53.69172],[-113.22146,53.70968]]},"properties":{"commodity":"hgl","source":"EIA HGL pipelines"}},{"type":"Feature","geometry":{"type":"LineString","coordinates":[[-113.54828,52.30811],[-114.46378,51.20323],[-114.48868,50.91168],[-114.47934,50.71497],[-114.3268,50.63803],[-114.25519,50.59655],[-114.04039,49.54559],[-114.00303,49.50113],[-113.95633,49.25792]]},"properties":{"commodity":"hgl","source":"EIA HGL pipelines"}},{"type":"Feature","geometry":{"type":"LineString","coordinates":[[-97.53267,49.00058],[-104.61693,50.41061],[-109.1688,51.8976],[-111.35015,52.63801],[-113.52902,53.49365]]},"properties":{"commodity":"hgl","source":"EIA HGL pipelines"}},{"type":"Feature","geometry":{"type":"LineString","coordinates":[[-101.24631,35.63573],[-101.93028,35.94496],[-102.70023,37.02678],[-104.68444,39.6232],[-104.25145,40.70466],[-104.73401,40.89023],[-105.43602,43.60989]]},"properties":{"commodity":"hgl","source":"EIA HGL pipelines"}},{"type":"Feature","geometry":{"type":"LineString","coordinates":[[-88.37493,41.41553],[-88.37485,41.40984],[-88.37374,41.37499],[-88.35066,39.79736]]},"properties":{"commodity":"hgl","source":"EIA HGL pipelines"}},{"type":"Feature","geometry":{"type":"LineString","coordinates":[[-91.36247,41.62021],[-90.63275,41.77446],[-90.30482,41.79991],[-90.23195,41.74198],[-90.11712,41.71757],[-90.00863,41.70787],[-89.62371,41.61193],[-89.32928,41.56188],[-89.07534,41.49775],[-88.74495,41.47143],[-88.62875,41.43957],[-88.43548,41.41522],[-88.37493,41.41553],[-88.31116,41.41074]]},"properties":{"commodity":"hgl","source":"EIA HGL pipelines"}},{"type":"Feature","geometry":{"type":"LineString","coordinates":[[-94.23675,42.05773],[-96.20734,42.09537]]},"properties":{"commodity":"hgl","source":"EIA HGL pipelines"}},{"type":"Feature","geometry":{"type":"LineString","coordinates":[[-91.10679,30.0099],[-91.09258,30.01004],[-91.08692,30.05619],[-91.08022,30.06459],[-91.08108,30.07711],[-91.09097,30.08565],[-91.09063,30.1125],[-91.08946,30.12939],[-91.17336,30.14059],[-91.20894,30.15695],[-91.23676,30.15346],[-91.3323,30.1687],[-91.3541,30.17308],[-91.35897,30.17031],[-91.37549,30.17409],[-91.49329,30.17487],[-91.57388,30.1755],[-91.61875,30.17589],[-91.65108,30.17592],[-91.68462,30.19694],[-91.70969,30.19752],[-91.72475,30.21853],[-91.76731,30.22241],[-91.77036,30.22238],[-91.77952,30.21429],[-91.79992,30.20497],[-91.80132,30.16953],[-91.82482,30.16588],[-91.83445,30.13627],[-91.85788,30.13668],[-91.87491,30.13807],[-91.94037,30.09069],[-91.99093,30.08301],[-92.03275,30.08429],[-92.05338,30.08371],[-92.06724,30.08041],[-92.06936,30.0775],[-92.10793,30.07377],[-92.12892,30.07442],[-92.14386,30.08641]]},"properties":{"commodity":"hgl","source":"EIA HGL pipelines"}},{"type":"Feature","geometry":{"type":"LineString","coordinates":[[-92.14693,30.08524],[-92.14762,30.11514],[-92.36529,30.1297],[-92.68367,30.15722],[-93.1924,30.15418],[-93.20545,30.15408],[-93.20454,30.14701],[-93.26991,30.14594],[-93.27223,30.14254],[-93.27465,30.13909],[-93.28784,30.139],[-93.30021,30.15082],[-93.33109,30.16837],[-93.34786,30.16837],[-93.35199,30.1664],[-93.43424,30.11019],[-93.53937,30.06224],[-93.97568,30.05747],[-94.02427,30.03211],[-94.05012,30.01204]]},"properties":{"commodity":"hgl","source":"EIA HGL pipelines"}},{"type":"Feature","geometry":{"type":"LineString","coordinates":[[-89.08136,37.51387],[-88.34703,37.05174]]},"properties":{"commodity":"hgl","source":"EIA HGL pipelines"}},{"type":"Feature","geometry":{"type":"LineString","coordinates":[[-84.08543,40.69745],[-84.17808,40.69455],[-84.79453,40.49386],[-85.00271,40.45563],[-85.7375,40.12831],[-85.86208,39.97324],[-86.22221,39.89825],[-86.38903,39.83207],[-86.66675,39.76439],[-87.28257,39.68912],[-88.37164,39.71054]]},"properties":{"commodity":"hgl","source":"EIA HGL pipelines"}},{"type":"Feature","geometry":{"type":"LineString","coordinates":[[-81.40914,40.6867],[-81.38689,40.6495],[-81.37512,40.61513],[-81.36939,40.58074],[-81.36488,40.55951],[-81.35612,40.53469],[-81.3435,40.51858],[-81.33477,40.49835],[-81.30302,40.45918],[-81.27609,40.43514],[-81.2234,40.38643],[-81.19994,40.3651],[-81.14758,40.33859],[-81.10531,40.30721],[-81.07963,40.2779],[-81.02706,40.25283],[-80.99576,40.24041]]},"properties":{"commodity":"hgl","source":"EIA HGL pipelines"}},{"type":"Feature","geometry":{"type":"LineString","coordinates":[[-104.22375,40.70673],[-104.70632,40.89229],[-105.40832,43.61195]]},"properties":{"commodity":"hgl","source":"EIA HGL pipelines"}},{"type":"Feature","geometry":{"type":"LineString","coordinates":[[-110.667,41.21044],[-110.73479,41.23548],[-110.78211,41.25664],[-110.81723,41.29129],[-110.82391,41.32229],[-110.81395,41.45321],[-110.88776,41.45642],[-110.86222,41.48923],[-110.87629,41.5154],[-110.87314,41.54503],[-110.88329,41.5536],[-110.88776,41.56434],[-110.90044,41.56999],[-110.91336,41.5713]]},"properties":{"commodity":"hgl","source":"EIA HGL pipelines"}},{"type":"Feature","geometry":{"type":"LineString","coordinates":[[-110.06867,41.54482],[-110.09647,41.59759],[-110.27681,41.66825],[-110.38263,41.69724],[-110.36358,41.74804],[-110.34876,41.76765],[-110.34566,41.78048],[-110.33738,41.78336],[-110.32968,41.7927]]},"properties":{"commodity":"hgl","source":"EIA HGL pipelines"}},{"type":"Feature","geometry":{"type":"LineString","coordinates":[[-109.07737,39.80077],[-109.03215,39.8006],[-108.97533,39.80454],[-108.92725,39.80144],[-108.89308,39.82323],[-108.8588,39.83239],[-108.82766,39.82462],[-108.69865,39.83765],[-108.68161,39.82626],[-108.6498,39.83386],[-108.6097,39.83094],[-108.45333,39.90655],[-108.35644,39.90218],[-108.35722,39.92023],[-108.32268,39.95363],[-108.29327,39.93427],[-108.26161,39.92387],[-108.24056,39.90704],[-108.19751,39.89865],[-108.19394,39.89331]]},"properties":{"commodity":"hgl","source":"EIA HGL pipelines"}},{"type":"Feature","geometry":{"type":"LineString","coordinates":[[-88.17256,30.38965],[-88.17387,30.40075],[-88.1764,30.42226],[-88.37549,30.43482],[-88.39492,30.45994],[-88.47327,30.41162],[-88.47291,30.41999],[-88.50768,30.44235],[-88.54788,30.54989],[-89.13787,30.42645],[-89.67201,30.42645],[-89.99007,30.39923],[-90.0532,30.34896],[-90.19048,30.24459],[-90.36395,30.07578],[-90.3998,30.08435],[-90.42346,30.05846]]},"properties":{"commodity":"hgl","source":"EIA HGL pipelines"}},{"type":"Feature","geometry":{"type":"LineString","coordinates":[[-88.48973,30.35098],[-88.4953,30.38425],[-88.48189,30.38497],[-88.47302,30.41236]]},"properties":{"commodity":"hgl","source":"EIA HGL pipelines"}},{"type":"Feature","geometry":{"type":"LineString","coordinates":[[-108.24084,39.83543],[-108.15019,39.99275],[-108.06088,40.00741],[-107.97794,40.10995],[-108.00984,40.16847],[-108.08639,40.22694],[-108.15657,40.38262],[-107.92053,40.83303],[-108.0226,41.04025],[-108.0226,41.23243],[-107.93329,41.3331],[-107.9907,41.44797],[-108.0253,41.46983],[-108.03763,41.61373],[-107.82512,41.64766]]},"properties":{"commodity":"hgl","source":"EIA HGL pipelines"}},{"type":"Feature","geometry":{"type":"LineString","coordinates":[[-79.58585,40.29103],[-79.20714,40.43543],[-78.63301,40.43682],[-78.52849,40.39892],[-78.27222,40.40655],[-77.79564,40.32767],[-77.34023,40.35552],[-77.02247,40.19618],[-76.03216,40.31505],[-75.61275,40.02973],[-75.4039,39.81914]]},"properties":{"commodity":"hgl","source":"EIA HGL pipelines"}},{"type":"Feature","geometry":{"type":"LineString","coordinates":[[-91.76965,35.11921],[-90.05739,35.10818],[-90.05739,35.10818]]},"properties":{"commodity":"hgl","source":"EIA HGL pipelines"}},{"type":"Feature","geometry":{"type":"LineString","coordinates":[[-92.67377,33.19973],[-93.70405,32.72758],[-93.67382,32.55265],[-93.79259,32.46756]]},"properties":{"commodity":"hgl","source":"EIA HGL pipelines"}},{"type":"Feature","geometry":{"type":"LineString","coordinates":[[-83.10328,42.29475],[-83.09669,42.28999],[-83.0924,42.2879],[-83.07745,42.27929]]},"properties":{"commodity":"hgl","source":"EIA HGL pipelines"}},{"type":"Feature","geometry":{"type":"LineString","coordinates":[[-94.69878,32.44281],[-94.51577,32.33422],[-94.4218,32.3175],[-94.25857,32.18783]]},"properties":{"commodity":"hgl","source":"EIA HGL pipelines"}},{"type":"Feature","geometry":{"type":"LineString","coordinates":[[-94.26352,32.19202],[-94.45147,31.85234],[-94.72351,31.46079],[-94.85211,31.35948],[-94.81749,31.1396],[-94.77792,31.09725],[-94.82243,30.55359],[-94.77297,30.48115],[-94.85706,30.38733],[-94.9263,30.1096],[-94.91653,29.91221],[-94.91589,29.89835],[-94.92099,29.88032],[-94.9183,29.86873]]},"properties":{"commodity":"hgl","source":"EIA HGL pipelines"}},{"type":"Feature","geometry":{"type":"LineString","coordinates":[[-97.45097,27.8046],[-97.52072,27.80091],[-97.51436,27.83],[-97.4581,27.88666],[-97.23356,27.89303],[-97.25659,28.0964],[-96.80976,28.59505],[-96.69154,28.7164],[-96.6231,28.8099],[-96.45046,28.86165],[-96.1664,29.00276],[-95.85009,29.15216],[-95.46929,29.37675],[-95.27121,29.4931],[-95.1192,29.50913],[-95.08695,29.62933],[-95.06648,29.71871],[-94.9361,29.83808],[-94.896,29.84828]]},"properties":{"commodity":"hgl","source":"EIA HGL pipelines"}},{"type":"Feature","geometry":{"type":"LineString","coordinates":[[-96.6946,28.71722],[-97.07438,29.03633],[-97.03957,29.13473]]},"properties":{"commodity":"hgl","source":"EIA HGL pipelines"}},{"type":"Feature","geometry":{"type":"LineString","coordinates":[[-95.85179,29.15212],[-95.9371,29.28037],[-95.90741,29.32857],[-95.85214,29.36248]]},"properties":{"commodity":"hgl","source":"EIA HGL pipelines"}},{"type":"Feature","geometry":{"type":"LineString","coordinates":[[-93.03715,44.76097],[-92.99627,44.73328],[-92.88829,44.71723],[-92.7847,44.71723],[-92.73947,44.74203],[-92.42723,44.71431],[-92.27694,44.69972],[-91.93552,44.66324],[-91.34898,44.66616],[-89.7169,44.59266]]},"properties":{"commodity":"hgl","source":"EIA HGL pipelines"}},{"type":"Feature","geometry":{"type":"LineString","coordinates":[[-82.42483,42.9606],[-82.38576,42.95238],[-82.38576,42.95238],[-82.38576,42.95238]]},"properties":{"commodity":"hgl","source":"EIA HGL pipelines"}},{"type":"Feature","geometry":{"type":"LineString","coordinates":[[-80.79483,39.91391],[-80.76461,39.88813],[-80.73379,39.86883],[-80.6933,39.87377],[-80.58838,39.87737]]},"properties":{"commodity":"hgl","source":"EIA HGL pipelines"}},{"type":"Feature","geometry":{"type":"LineString","coordinates":[[-80.58531,39.87847],[-80.52019,39.96045],[-80.46871,40.03881],[-80.45056,40.12168],[-80.31473,40.26087],[-80.25361,40.26361]]},"properties":{"commodity":"hgl","source":"EIA HGL pipelines"}},{"type":"Feature","geometry":{"type":"LineString","coordinates":[[-81.2273,40.45214],[-81.21311,40.4242],[-81.19738,40.40764],[-81.16008,40.40015],[-81.10686,40.40308]]},"properties":{"commodity":"hgl","source":"EIA HGL pipelines"}},{"type":"Feature","geometry":{"type":"LineString","coordinates":[[-80.9245,40.73702],[-80.94609,40.69953],[-80.9719,40.68883],[-80.95084,40.63438],[-80.92118,40.56259],[-80.92238,40.52313],[-80.96326,40.49222],[-81.03974,40.45284],[-81.10686,40.40308],[-81.10686,40.40308],[-81.10686,40.40308]]},"properties":{"commodity":"hgl","source":"EIA HGL pipelines"}},{"type":"Feature","geometry":{"type":"LineString","coordinates":[[-81.09937,40.32301],[-81.10482,40.36031],[-81.12025,40.37374],[-81.11491,40.3905],[-81.10686,40.40308]]},"properties":{"commodity":"hgl","source":"EIA HGL pipelines"}},{"type":"Feature","geometry":{"type":"LineString","coordinates":[[-81.34912,39.80019],[-81.2949,39.86761],[-81.27101,39.95206],[-81.07911,40.10322],[-81.06688,40.12803],[-81.08563,40.13289],[-81.09424,40.15209],[-81.07555,40.1741],[-81.02621,40.25997],[-80.93624,40.33294]]},"properties":{"commodity":"hgl","source":"EIA HGL pipelines"}},{"type":"Feature","geometry":{"type":"LineString","coordinates":[[-80.93624,40.33294],[-80.92009,40.28631],[-80.71041,40.17136],[-80.67725,40.16365],[-80.65563,40.1306],[-80.62824,40.12619],[-80.6095,39.97942],[-80.61815,39.97832],[-80.61238,39.95512],[-80.51922,39.9622],[-80.5218,39.96291]]},"properties":{"commodity":"hgl","source":"EIA HGL pipelines"}},{"type":"Feature","geometry":{"type":"LineString","coordinates":[[-80.68681,39.2717],[-80.64036,39.32078],[-80.5744,39.49091],[-80.56476,39.54966],[-80.6095,39.68163],[-80.56313,39.72402],[-80.61028,39.92051],[-80.51918,39.95665],[-80.44017,40.01423],[-80.41619,40.11497],[-80.25616,40.25937]]},"properties":{"commodity":"hgl","source":"EIA HGL pipelines"}},{"type":"Feature","geometry":{"type":"LineString","coordinates":[[-80.46742,40.7869],[-80.42896,40.80487],[-80.36281,40.78452],[-80.26674,40.78706],[-80.17429,40.83493],[-80.156,40.80037],[-80.07445,40.80354]]},"properties":{"commodity":"hgl","source":"EIA HGL pipelines"}},{"type":"Feature","geometry":{"type":"LineString","coordinates":[[-94.88688,29.85781],[-94.87817,29.91661],[-93.86581,30.08872],[-93.53937,30.15395],[-93.29998,30.18367],[-91.09548,31.08834],[-89.25854,31.37921]]},"properties":{"commodity":"hgl","source":"EIA HGL pipelines"}},{"type":"Feature","geometry":{"type":"LineString","coordinates":[[-97.51675,27.82915],[-97.44478,27.89648],[-97.22627,27.88337],[-97.26971,28.09773],[-97.12502,28.3003],[-96.87417,28.50467],[-96.6756,28.73035],[-96.25545,28.96211],[-95.5224,29.33828],[-95.23287,29.49465],[-95.11213,29.51588],[-95.06282,29.66253],[-95.01873,29.7579],[-94.90567,29.84392]]},"properties":{"commodity":"hgl","source":"EIA HGL pipelines"}},{"type":"Feature","geometry":{"type":"LineString","coordinates":[[-80.24743,40.29473],[-80.24182,40.27813],[-80.22759,40.27045],[-80.23696,40.26234],[-80.25419,40.26105],[-80.28058,40.25666],[-80.29891,40.25047],[-80.31646,40.23121],[-80.37958,40.16831],[-80.43783,40.1098],[-80.45714,40.04898],[-80.56228,39.88862],[-80.59686,39.86762],[-80.58599,39.75673],[-80.561,39.59209],[-80.59566,39.38495],[-80.68583,39.26151]]},"properties":{"commodity":"hgl","source":"EIA HGL pipelines"}},{"type":"Feature","geometry":{"type":"LineString","coordinates":[[-91.3852,41.62843],[-91.94566,40.90772],[-92.09639,40.60183],[-92.41984,39.71698],[-92.43717,39.52372],[-92.53783,39.45778],[-93.32844,39.4802],[-94.61574,39.40938],[-94.88909,39.40553],[-95.13634,39.22602],[-95.43931,39.00061],[-95.91855,38.86986],[-96.61025,38.74928],[-97.05929,38.5814],[-97.81779,38.38049]]},"properties":{"commodity":"hgl","source":"EIA HGL pipelines"}},{"type":"Feature","geometry":{"type":"LineString","coordinates":[[-91.10004,30.01068],[-91.12,30.0262],[-91.12,30.11047],[-91.11334,30.12378],[-91.09338,30.14152],[-91.07564,30.16148],[-91.06899,30.18143],[-91.06012,30.19696],[-91.04899,30.21708],[-91.0225,30.20422]]},"properties":{"commodity":"hgl","source":"EIA HGL pipelines"}},{"type":"Feature","geometry":{"type":"LineString","coordinates":[[-91.0225,30.20421],[-91.01964,30.214],[-91.01211,30.22427],[-91.02785,30.23641],[-91.09541,30.25369],[-91.15326,30.36549],[-91.16656,30.38767],[-91.23753,30.40984],[-91.30405,30.3921],[-91.39276,30.35219],[-91.66773,30.35219],[-91.93384,30.27235],[-92.00037,30.28122],[-92.12455,30.29896],[-92.23987,30.3167],[-92.51484,30.44976],[-92.65233,30.42758],[-92.89627,30.30783],[-92.93175,30.29009],[-93.11802,30.29453],[-93.27325,30.25018],[-93.33534,30.20139],[-93.52605,30.0639],[-93.71233,30.05947],[-93.7345,30.04173],[-93.76555,30.0639],[-93.80547,30.03729],[-93.85869,30.02399],[-93.91635,30.00181],[-93.93852,29.97964],[-93.99618,29.90424],[-93.99618,29.86432],[-94.00948,29.85102],[-94.0494,29.85102],[-94.33325,29.86432],[-94.3909,29.86432],[-94.43969,29.86876],[-94.57274,29.85102],[-94.67475,29.83771],[-94.74128,29.83771],[-94.7945,29.84215],[-94.82555,29.84658],[-94.89831,29.84814]]},"properties":{"commodity":"hgl","source":"EIA HGL pipelines"}},{"type":"Feature","geometry":{"type":"LineString","coordinates":[[-91.3048,30.39109],[-91.31024,30.32363]]},"properties":{"commodity":"hgl","source":"EIA HGL pipelines"}},{"type":"Feature","geometry":{"type":"LineString","coordinates":[[-91.76568,30.22079],[-91.80671,30.20117],[-91.80255,30.15597],[-91.8299,30.14408],[-91.8525,30.13575],[-91.9869,30.12981],[-91.99166,30.12267],[-92.14111,30.10629],[-92.36473,30.1274],[-92.68312,30.15492],[-93.19184,30.15187],[-93.20489,30.15177],[-93.20398,30.14471],[-93.26935,30.14364],[-93.27167,30.14023],[-93.27409,30.13679],[-93.28728,30.13669],[-93.29965,30.14852],[-93.33053,30.16606],[-93.3473,30.16606],[-93.35143,30.1641],[-93.43369,30.10789],[-93.53882,30.05994],[-93.97512,30.05517],[-94.03674,30.0192],[-94.09264,29.97876],[-94.16994,29.95735],[-94.24011,29.93832],[-94.29839,29.93713],[-94.53983,29.92881],[-94.63022,29.90859],[-94.69801,29.91335],[-94.77056,29.89194],[-94.83717,29.8967],[-94.89782,29.85626]]},"properties":{"commodity":"hgl","source":"EIA HGL pipelines"}},{"type":"Feature","geometry":{"type":"LineString","coordinates":[[-90.45614,29.86653],[-90.5154,29.97394],[-90.54132,29.99245],[-90.63391,29.98875],[-90.75983,29.96653],[-90.83761,29.97023],[-90.89316,30.00727],[-90.9339,30.0443],[-90.96353,30.05912],[-90.99315,30.08504],[-91.04871,30.09245],[-91.04871,30.1443],[-91.00975,30.18491],[-91.01519,30.19198],[-91.02248,30.20421]]},"properties":{"commodity":"hgl","source":"EIA HGL pipelines"}},{"type":"Feature","geometry":{"type":"LineString","coordinates":[[-98.35259,38.52024],[-98.35042,38.5379],[-98.44043,38.57092],[-99.02435,38.73835],[-99.58761,38.88502],[-100.0505,39.10734],[-100.08374,39.19415],[-100.21991,39.20251],[-100.40591,39.28362],[-101.07126,39.5603],[-102.02686,39.95979],[-103.26988,40.46245],[-103.46089,40.46832],[-103.63437,40.57629],[-103.6489,40.70757],[-104.0679,40.92239],[-104.10623,41.02559],[-104.16654,41.06778],[-104.30624,41.06698],[-104.39407,42.19429],[-104.26937,42.50451],[-104.27171,42.53622],[-104.27932,42.60887],[-104.26868,42.92635],[-104.24629,43.16764],[-104.21613,43.30069],[-104.21278,43.87468],[-104.2798,44.00015],[-104.30996,44.04593],[-104.28483,44.09168],[-104.25348,44.16754],[-104.18667,44.50665],[-104.1323,44.52427],[-104.11808,44.63755],[-104.1367,44.8132],[-104.17642,44.91457],[-104.23603,44.99481],[-104.20221,45.15247],[-104.10027,45.31393],[-104.20464,45.40607],[-104.19604,45.52785],[-104.25548,45.58801],[-104.25816,45.81974],[-104.19658,45.83402],[-104.16907,45.94818],[-104.17431,46.01142],[-104.26619,46.36902],[-104.27957,46.48153],[-104.28224,46.54046],[-104.26619,46.60669],[-104.26819,46.63939],[-104.1353,46.99324],[-103.98253,47.33523],[-103.97597,47.40778],[-103.97545,47.41351],[-104.03752,47.57567],[-104.06116,47.60118],[-104.06589,47.65034],[-104.08054,47.65297],[-104.0875,47.66876]]},"properties":{"commodity":"hgl","source":"EIA HGL pipelines"}},{"type":"Feature","geometry":{"type":"LineString","coordinates":[[-89.82698,29.85814],[-89.73088,29.63642],[-89.80652,29.54844],[-89.76678,29.40488],[-89.69273,29.35739],[-89.38197,29.24148]]},"properties":{"commodity":"hgl","source":"EIA HGL pipelines"}},{"type":"Feature","geometry":{"type":"LineString","coordinates":[[-104.13797,32.13336],[-104.12103,31.88773],[-104.01939,31.65056],[-103.75681,31.45575],[-103.51118,31.28634],[-103.3333,31.31176],[-103.13849,31.30328],[-102.69804,31.39646],[-102.35924,31.43034],[-102.07972,31.50657],[-101.98655,31.51504],[-101.67315,31.19317],[-101.36823,30.97295],[-101.08871,30.87131],[-101.04636,30.74425],[-100.88543,30.67649],[-100.54662,30.46474],[-100.47886,30.38851],[-100.36875,30.12593],[-100.50427,29.93112],[-100.54662,29.75325],[-100.62285,29.60078],[-100.62285,29.49067],[-100.47039,29.27045],[-100.31793,29.19422],[-100.14852,28.84694],[-99.8436,28.35567],[-99.69114,28.33026],[-99.55561,28.33026],[-99.42009,28.32179],[-99.25069,28.33873],[-99.13211,28.37261],[-99.13211,28.36414],[-99.03893,28.2625],[-98.93729,28.20321],[-98.72554,28.0931],[-98.60696,27.92369],[-98.58155,27.83899],[-98.58155,27.66959],[-98.50531,27.59336],[-98.47143,27.57642],[-98.27662,27.6103],[-98.14957,27.66112],[-98.07334,27.695],[-97.92934,27.75429],[-97.74363,27.80846],[-97.59198,27.82123]]},"properties":{"commodity":"hgl","source":"EIA HGL pipelines"}},{"type":"Feature","geometry":{"type":"LineString","coordinates":[[-96.41866,30.01683],[-95.5538,28.98567],[-95.3717,29.0376]]},"properties":{"commodity":"hgl","source":"EIA HGL pipelines"}},{"type":"Feature","geometry":{"type":"LineString","coordinates":[[-96.41866,30.01683],[-96.07875,29.98832],[-95.87843,29.9442],[-95.2629,29.93873],[-95.17763,29.90069],[-94.97816,29.89802],[-94.90431,29.84546]]},"properties":{"commodity":"hgl","source":"EIA HGL pipelines"}},{"type":"Feature","geometry":{"type":"LineString","coordinates":[[-103.04329,31.26238],[-102.88939,31.68481]]},"properties":{"commodity":"hgl","source":"EIA HGL pipelines"}},{"type":"Feature","geometry":{"type":"LineString","coordinates":[[-97.6022,32.32329],[-97.45107,32.2841],[-97.31673,32.31769],[-96.85775,32.0714],[-96.61146,31.92027],[-96.42115,31.92587],[-95.85582,31.34374],[-95.72148,30.87916],[-95.41922,30.81759],[-95.20092,30.62168],[-95.10017,30.59929],[-94.99942,30.40898],[-95.0274,30.25225],[-94.90426,29.87723]]},"properties":{"commodity":"hgl","source":"EIA HGL pipelines"}},{"type":"Feature","geometry":{"type":"LineString","coordinates":[[-103.0192,31.32852],[-102.25922,31.6628],[-101.77785,31.8699],[-101.17333,32.03782],[-100.63598,32.18895],[-100.31133,32.24492],[-99.90832,32.25052],[-99.35978,32.26731],[-98.52017,32.30649],[-98.04999,32.34568],[-97.6022,32.32329]]},"properties":{"commodity":"hgl","source":"EIA HGL pipelines"}},{"type":"Feature","geometry":{"type":"LineString","coordinates":[[-96.22874,34.8708],[-96.29031,34.59093],[-97.57771,34.50697],[-97.53586,34.09173],[-97.5945,33.80729],[-97.69208,33.6123],[-97.87437,33.30353],[-97.79601,32.9341],[-97.69118,32.8844],[-97.74353,32.7884],[-97.69526,32.55908],[-97.6022,32.32329]]},"properties":{"commodity":"hgl","source":"EIA HGL pipelines"}},{"type":"Feature","geometry":{"type":"LineString","coordinates":[[-81.08293,40.30386],[-81.0941,40.32391],[-81.09749,40.35992],[-81.11292,40.37334],[-81.10758,40.3901],[-81.10686,40.40308]]},"properties":{"commodity":"hgl","source":"EIA HGL pipelines"}},{"type":"Feature","geometry":{"type":"LineString","coordinates":[[-80.70003,39.87295],[-80.72786,39.86955],[-80.7428,39.86515],[-80.76778,39.88312],[-80.7791,39.88851],[-80.78808,39.90228],[-80.79483,39.91391],[-80.8115,39.95376],[-80.82555,39.95137],[-80.87239,40.00879],[-80.91766,40.03749],[-80.92703,40.04107],[-80.93171,40.04466],[-80.93015,40.05542],[-80.93015,40.08767],[-80.93171,40.09484],[-80.95357,40.09365],[-80.9645,40.12111],[-80.9926,40.16288],[-81.00197,40.17243],[-81.01134,40.18435],[-81.00665,40.20224],[-80.99885,40.21178],[-81.00978,40.22609],[-81.01776,40.23412],[-81.07535,40.24039],[-81.08457,40.30681],[-81.08018,40.31158],[-81.08315,40.32019],[-81.09937,40.32301],[-81.10872,40.35451],[-81.12218,40.3694],[-81.12349,40.38631],[-81.10686,40.40308]]},"properties":{"commodity":"hgl","source":"EIA HGL pipelines"}},{"type":"Feature","geometry":{"type":"MultiLineString","coordinates":[[[-104.38592,31.86528],[-104.11561,31.84848],[-103.97352,31.85807],[-103.91618,31.85914]],[[-103.0278,31.32619],[-103.2124,31.46126],[-103.41678,31.59613],[-103.52886,31.77004],[-103.66071,31.85408],[-103.91783,31.85968],[-104.07606,32.04428],[-104.06287,32.14481],[-104.06287,32.2062],[-104.14198,32.32327]]]},"properties":{"commodity":"hgl","source":"EIA HGL pipelines"}},{"type":"Feature","geometry":{"type":"LineString","coordinates":[[-104.60135,40.20326],[-104.54522,40.2053],[-100.82433,38.70379],[-98.40902,37.69091],[-96.8209,36.11925],[-96.72029,35.99671]]},"properties":{"commodity":"hgl","source":"EIA HGL pipelines"}},{"type":"Feature","geometry":{"type":"LineString","coordinates":[[-97.57095,49.00008],[-95.39282,47.68514],[-94.67072,47.47504],[-93.43626,47.35742],[-92.4232,46.7218],[-90.07231,46.53027],[-88.65176,46.20608],[-86.53159,45.99721],[-85.19754,46.22983],[-84.66938,45.89929],[-84.0708,43.59413],[-83.80633,43.44017],[-82.67241,42.96281],[-82.42483,42.9606]]},"properties":{"commodity":"hgl","source":"EIA HGL pipelines"}},{"type":"Feature","geometry":{"type":"LineString","coordinates":[[-90.59593,30.05928],[-90.61158,30.07631],[-90.6232,30.0765],[-90.70213,30.07592],[-90.78821,30.1326],[-90.87585,30.16894],[-90.89016,30.16817],[-90.91073,30.19832],[-90.95812,30.19909],[-90.96349,30.21609],[-91.00016,30.23232],[-91.02109,30.2312],[-91.03764,30.21157]]},"properties":{"commodity":"hgl","source":"EIA HGL pipelines"}}]}