{"type":"FeatureCollection","features":[{"type":"Feature","geometry":{"type":"LineString","coordinates":[[-95.38768,47.70825],[-96.02724,48.00649],[-97.42136,49.03755],[-101.25133,49.75523]]},"properties":{"commodity":"crude_oil","source":"EIA crude oil trunk pipelines"}},{"type":"Feature","geometry":{"type":"LineString","coordinates":[[-78.78838,42.87786],[-78.8582,42.99606],[-79.90542,43.02796]]},"properties":{"commodity":"crude_oil","source":"EIA crude oil trunk pipelines"}},{"type":"Feature","geometry":{"type":"LineString","coordinates":[[-89.0953,38.7553],[-88.46313,40.42691],[-88.12895,41.14423],[-88.01512,41.5964]]},"properties":{"commodity":"crude_oil","source":"EIA crude oil trunk pipelines"}},{"type":"Feature","geometry":{"type":"LineString","coordinates":[[-97.53267,49.00058],[-96.12277,47.98214],[-95.41318,47.70562],[-95.16737,47.64575],[-94.72923,47.39695],[-93.61867,47.32501],[-93.11194,47.09424],[-92.55045,46.6934],[-92.24155,46.61275],[-92.06769,46.69071]]},"properties":{"commodity":"crude_oil","source":"EIA crude oil trunk pipelines"}},{"type":"Feature","geometry":{"type":"LineString","coordinates":[[-92.06769,46.68275],[-88.68557,42.93001],[-88.37084,41.57259],[-87.49184,41.63752]]},"properties":{"commodity":"crude_oil","source":"EIA crude oil trunk pipelines"}},{"type":"Feature","geometry":{"type":"LineString","coordinates":[[-92.06769,46.69071],[-88.65302,42.93001],[-88.33829,41.57259],[-88.01512,41.5964],[-87.45929,41.63752]]},"properties":{"commodity":"crude_oil","source":"EIA crude oil trunk pipelines"}},{"type":"Feature","geometry":{"type":"LineString","coordinates":[[-82.48188,42.86797],[-82.9748,43.16936],[-83.67337,43.42981],[-83.80145,43.54425],[-83.96682,43.55947],[-84.04546,43.8936],[-84.26049,44.56978],[-84.78422,45.92694],[-85.31649,46.18462],[-86.52953,45.95272],[-87.09889,45.99572],[-88.68319,46.15885],[-90.0695,46.48368],[-92.06769,46.69071]]},"properties":{"commodity":"crude_oil","source":"EIA crude oil trunk pipelines"}},{"type":"Feature","geometry":{"type":"LineString","coordinates":[[-82.49001,42.8867],[-83.32077,42.83927],[-83.73203,42.67716],[-84.23952,42.54051],[-84.9758,42.26692],[-85.65298,42.06448],[-86.24631,41.80816],[-87.06165,41.53852],[-87.50898,41.60512]]},"properties":{"commodity":"crude_oil","source":"EIA crude oil trunk pipelines"}},{"type":"Feature","geometry":{"type":"LineString","coordinates":[[-97.53267,49.00058],[-104.61693,50.41061],[-109.1688,51.8976],[-111.35015,52.63801],[-113.52902,53.49365]]},"properties":{"commodity":"crude_oil","source":"EIA crude oil trunk pipelines"}},{"type":"Feature","geometry":{"type":"LineString","coordinates":[[-73.78026,45.61616],[-74.12685,45.78042],[-74.40536,45.63347],[-74.53532,45.48615],[-75.48841,45.22086],[-79.53593,43.70593],[-80.00628,43.26588],[-82.48188,42.86797]]},"properties":{"commodity":"crude_oil","source":"EIA crude oil trunk pipelines"}},{"type":"Feature","geometry":{"type":"LineString","coordinates":[[-96.76813,35.94709],[-95.43302,36.84483],[-92.92128,37.56958],[-90.14011,38.86275]]},"properties":{"commodity":"crude_oil","source":"EIA crude oil trunk pipelines"}},{"type":"Feature","geometry":{"type":"LineString","coordinates":[[-89.07098,38.79404],[-88.36749,40.31343],[-88.15088,40.99891],[-88.01512,41.5964]]},"properties":{"commodity":"crude_oil","source":"EIA crude oil trunk pipelines"}},{"type":"Feature","geometry":{"type":"LineString","coordinates":[[-79.81378,42.85227],[-79.90542,43.02796],[-80.00628,43.26588]]},"properties":{"commodity":"crude_oil","source":"EIA crude oil trunk pipelines"}},{"type":"Feature","geometry":{"type":"LineString","coordinates":[[-101.26126,48.2393],[-101.2562,48.37732],[-101.20033,48.54026],[-101.20661,48.71966],[-101.317,48.82467],[-101.34636,48.83658],[-101.34284,48.8658],[-101.40846,48.93847],[-101.65478,48.96365]]},"properties":{"commodity":"crude_oil","source":"EIA crude oil trunk pipelines"}},{"type":"Feature","geometry":{"type":"LineString","coordinates":[[-102.57539,49.43139],[-101.9112,49.40632],[-101.23931,49.73966]]},"properties":{"commodity":"crude_oil","source":"EIA crude oil trunk pipelines"}},{"type":"Feature","geometry":{"type":"LineString","coordinates":[[-101.71813,48.29857],[-102.42589,48.84702],[-102.59391,48.87707],[-102.57539,49.43139],[-103.37294,49.18719],[-103.49831,49.11544]]},"properties":{"commodity":"crude_oil","source":"EIA crude oil trunk pipelines"}},{"type":"Feature","geometry":{"type":"LineString","coordinates":[[-104.14142,48.98543],[-104.13734,48.78188],[-103.95106,48.60389],[-102.92655,48.28478],[-102.45167,48.30324],[-101.78233,48.32361],[-101.71813,48.29857],[-101.45628,48.29837],[-101.28354,48.28084],[-101.26126,48.2393],[-100.92327,48.25204],[-100.19503,48.36731],[-99.81508,48.36259],[-99.23931,48.27712],[-98.64637,48.0736],[-96.42959,47.79004],[-95.43263,47.69258]]},"properties":{"commodity":"crude_oil","source":"EIA crude oil trunk pipelines"}},{"type":"Feature","geometry":{"type":"LineString","coordinates":[[-91.99027,46.58546],[-88.74044,42.93788],[-88.80925,41.93324],[-88.64549,40.95052],[-87.45354,41.46681],[-87.50898,41.60512]]},"properties":{"commodity":"crude_oil","source":"EIA crude oil trunk pipelines"}},{"type":"Feature","geometry":{"type":"LineString","coordinates":[[-96.76813,35.94709],[-95.935,37.0114],[-95.8853,37.25955],[-95.4367,37.8106],[-94.9125,38.14],[-94.1619,38.6672],[-93.5683,38.9833],[-93.22886,39.27402],[-92.79198,39.51463],[-92.0428,39.6939],[-91.3961,39.9706],[-90.5631,40.1211],[-89.8275,40.37],[-89.2747,40.6297],[-88.8611,40.8781]]},"properties":{"commodity":"crude_oil","source":"EIA crude oil trunk pipelines"}},{"type":"Feature","geometry":{"type":"LineString","coordinates":[[-90.4603,32.7319],[-91.0511,32.9019]]},"properties":{"commodity":"crude_oil","source":"EIA crude oil trunk pipelines"}},{"type":"Feature","geometry":{"type":"LineString","coordinates":[[-83.50805,41.6305],[-83.61583,41.69125],[-84.23952,42.54051]]},"properties":{"commodity":"crude_oil","source":"EIA crude oil trunk pipelines"}},{"type":"Feature","geometry":{"type":"LineString","coordinates":[[-96.76813,35.94709],[-96.0074,36.11336]]},"properties":{"commodity":"crude_oil","source":"EIA crude oil trunk pipelines"}},{"type":"Feature","geometry":{"type":"LineString","coordinates":[[-96.74421,35.98037],[-96.75374,35.22502],[-96.46523,33.80349],[-96.3281,32.74658],[-96.36819,32.05142],[-96.14019,31.40328],[-96.00343,30.77331],[-95.90505,30.06383],[-95.88115,29.70169],[-95.84109,29.53295],[-95.77807,29.36817],[-95.70063,29.18785],[-95.68456,29.14426],[-95.55637,28.9876],[-95.33415,28.9335]]},"properties":{"commodity":"crude_oil","source":"EIA crude oil trunk pipelines"}},{"type":"Feature","geometry":{"type":"LineString","coordinates":[[-91.21102,30.47984],[-91.83208,30.7497],[-92.56973,31.24651],[-93.36379,31.96618],[-93.67747,32.35523],[-95.20388,32.58952]]},"properties":{"commodity":"crude_oil","source":"EIA crude oil trunk pipelines"}},{"type":"Feature","geometry":{"type":"LineString","coordinates":[[-90.84809,30.01179],[-91.21102,30.48011]]},"properties":{"commodity":"crude_oil","source":"EIA crude oil trunk pipelines"}},{"type":"Feature","geometry":{"type":"LineString","coordinates":[[-90.86148,30.01092],[-90.68845,29.81364],[-90.49719,29.6654],[-90.25272,29.56216],[-90.01881,28.83783]]},"properties":{"commodity":"crude_oil","source":"EIA crude oil trunk pipelines"}},{"type":"Feature","geometry":{"type":"LineString","coordinates":[[-102.39218,31.42346],[-101.66055,31.19413],[-101.21539,30.96255],[-97.21322,30.03783],[-96.49466,29.99864],[-95.92175,29.92865],[-95.34884,29.86426],[-94.93453,29.34635]]},"properties":{"commodity":"crude_oil","source":"EIA crude oil trunk pipelines"}},{"type":"Feature","geometry":{"type":"LineString","coordinates":[[-96.01174,36.13739],[-96.0139,35.96987],[-96.76813,35.94709],[-96.70949,36.37646],[-96.88073,37.80364]]},"properties":{"commodity":"crude_oil","source":"EIA crude oil trunk pipelines"}},{"type":"Feature","geometry":{"type":"LineString","coordinates":[[-101.87151,35.96378],[-101.51588,36.27155]]},"properties":{"commodity":"crude_oil","source":"EIA crude oil trunk pipelines"}},{"type":"Feature","geometry":{"type":"LineString","coordinates":[[-97.9542,33.86346],[-97.53597,34.16102],[-97.1038,34.20427]]},"properties":{"commodity":"crude_oil","source":"EIA crude oil trunk pipelines"}},{"type":"Feature","geometry":{"type":"LineString","coordinates":[[-98.4401,33.91598],[-100.23324,34.33919],[-100.74259,35.15734],[-101.3681,35.63103],[-101.87151,35.96378],[-102.0021,36.80911],[-102.32938,37.5009],[-102.34314,38.82146]]},"properties":{"commodity":"crude_oil","source":"EIA crude oil trunk pipelines"}},{"type":"Feature","geometry":{"type":"LineString","coordinates":[[-103.15713,32.66925],[-103.17709,32.06461],[-103.13294,31.78613],[-102.0398,32.00555],[-101.05886,32.25713],[-100.6899,32.69955],[-99.45034,33.37115],[-98.48077,33.84341],[-97.61131,34.8472],[-96.75855,35.94698]]},"properties":{"commodity":"crude_oil","source":"EIA crude oil trunk pipelines"}},{"type":"Feature","geometry":{"type":"LineString","coordinates":[[-111.92121,40.83273],[-111.92826,41.13326],[-111.78981,41.13646],[-111.66694,41.04287],[-111.28384,41.21149],[-111.06996,41.24441],[-110.81889,41.25697],[-110.72888,41.26578],[-110.46193,41.333],[-109.97969,41.56403],[-109.52966,41.7187],[-109.1151,41.93704],[-108.79254,41.93802],[-107.66242,42.43701],[-106.37224,42.86215]]},"properties":{"commodity":"crude_oil","source":"EIA crude oil trunk pipelines"}},{"type":"Feature","geometry":{"type":"LineString","coordinates":[[-90.68849,29.6192],[-90.04577,29.69963]]},"properties":{"commodity":"crude_oil","source":"EIA crude oil trunk pipelines"}},{"type":"Feature","geometry":{"type":"LineString","coordinates":[[-90.02357,29.67434],[-89.9768,29.67689]]},"properties":{"commodity":"crude_oil","source":"EIA crude oil trunk pipelines"}},{"type":"Feature","geometry":{"type":"LineString","coordinates":[[-90.85983,30.01008],[-90.73939,31.46633],[-90.48589,31.88424],[-89.98187,33.53846],[-89.92799,34.13936],[-89.77877,34.56571],[-88.85803,37.17825],[-89.02648,38.07832],[-89.04242,38.28895],[-89.06979,38.79399]]},"properties":{"commodity":"crude_oil","source":"EIA crude oil trunk pipelines"}},{"type":"Feature","geometry":{"type":"LineString","coordinates":[[-90.26923,29.54619],[-90.40922,29.99448]]},"properties":{"commodity":"crude_oil","source":"EIA crude oil trunk pipelines"}},{"type":"Feature","geometry":{"type":"LineString","coordinates":[[-90.55793,29.09059],[-90.47053,29.12881],[-90.44163,29.35089],[-90.53141,29.4949],[-90.69047,29.62261]]},"properties":{"commodity":"crude_oil","source":"EIA crude oil trunk pipelines"}},{"type":"Feature","geometry":{"type":"LineString","coordinates":[[-89.32266,29.035],[-89.01046,29.2598],[-89.17321,29.41773],[-89.59904,29.41641],[-90.02357,29.67434],[-90.04577,29.69963],[-90.14549,29.80748],[-90.22014,29.87299],[-90.40922,29.99448]]},"properties":{"commodity":"crude_oil","source":"EIA crude oil trunk pipelines"}},{"type":"Feature","geometry":{"type":"LineString","coordinates":[[-90.85983,30.01008],[-90.9041,29.9943],[-90.68849,29.6192]]},"properties":{"commodity":"crude_oil","source":"EIA crude oil trunk pipelines"}},{"type":"Feature","geometry":{"type":"LineString","coordinates":[[-90.68849,29.6192],[-90.93308,29.62636],[-91.33464,29.69259],[-91.87179,29.96115],[-92.06465,29.89715],[-92.57446,30.02208],[-92.85156,30.10225],[-93.31695,30.14755],[-93.34701,30.14879],[-93.54019,30.08175],[-93.85451,30.02795],[-93.95965,29.94185],[-94.10766,29.93884],[-94.5135,29.93057],[-95.12239,29.82637],[-95.23448,29.80646],[-95.22323,29.63725]]},"properties":{"commodity":"crude_oil","source":"EIA crude oil trunk pipelines"}},{"type":"Feature","geometry":{"type":"LineString","coordinates":[[-90.19384,29.12643],[-90.26923,29.54619]]},"properties":{"commodity":"crude_oil","source":"EIA crude oil trunk pipelines"}},{"type":"Feature","geometry":{"type":"LineString","coordinates":[[-94.10766,29.93884],[-94.10865,29.98618],[-94.00166,29.98589]]},"properties":{"commodity":"crude_oil","source":"EIA crude oil trunk pipelines"}},{"type":"Feature","geometry":{"type":"LineString","coordinates":[[-91.38245,28.76772],[-91.0021,29.35997],[-90.84576,30.01396]]},"properties":{"commodity":"crude_oil","source":"EIA crude oil trunk pipelines"}},{"type":"Feature","geometry":{"type":"LineString","coordinates":[[-111.30507,52.68243],[-111.07341,49.81819],[-110.25038,48.99807],[-110.17704,47.54225],[-109.69437,46.49631],[-108.69453,45.27236],[-107.93603,44.17002],[-107.78089,43.38589],[-106.0306,42.83848]]},"properties":{"commodity":"crude_oil","source":"EIA crude oil trunk pipelines"}},{"type":"Feature","geometry":{"type":"LineString","coordinates":[[-106.19736,42.83987],[-105.69649,42.8233],[-105.48154,42.741],[-104.94406,42.31868],[-104.86003,42.26575],[-103.87053,41.64242],[-99.32087,40.40505],[-96.39422,39.93827],[-94.63194,39.6448],[-92.38796,39.33241],[-90.58044,38.85337],[-90.09022,38.84526]]},"properties":{"commodity":"crude_oil","source":"EIA crude oil trunk pipelines"}},{"type":"Feature","geometry":{"type":"LineString","coordinates":[[-96.9984,39.99734],[-97.05193,38.84071],[-97.04159,37.0741],[-97.14533,36.64248],[-97.04159,36.27537],[-96.80605,35.98623]]},"properties":{"commodity":"crude_oil","source":"EIA crude oil trunk pipelines"}},{"type":"Feature","geometry":{"type":"LineString","coordinates":[[-96.99922,40.02654],[-93.99166,39.5882],[-92.77792,39.44416],[-91.33597,39.08273],[-90.61453,38.866],[-89.07637,38.79508]]},"properties":{"commodity":"crude_oil","source":"EIA crude oil trunk pipelines"}},{"type":"Feature","geometry":{"type":"LineString","coordinates":[[-111.30507,52.68243],[-110.27528,50.87983],[-98.00663,49.68125],[-97.95862,49.00045]]},"properties":{"commodity":"crude_oil","source":"EIA crude oil trunk pipelines"}},{"type":"Feature","geometry":{"type":"LineString","coordinates":[[-97.95862,49.00045],[-97.92761,47.70615],[-97.9069,45.94605],[-97.92335,44.56595],[-97.36316,42.87168],[-96.9984,39.99734]]},"properties":{"commodity":"crude_oil","source":"EIA crude oil trunk pipelines"}},{"type":"Feature","geometry":{"type":"LineString","coordinates":[[-94.00245,29.98893],[-94.41367,30.11062],[-96.52029,30.89738],[-97.36286,31.14656],[-98.64534,31.59852],[-100.58705,31.85571],[-100.70898,31.85005],[-100.72854,31.84257],[-100.78529,31.86984],[-101.31467,31.92002],[-102.01831,32.01258]]},"properties":{"commodity":"crude_oil","source":"EIA crude oil trunk pipelines"}},{"type":"Feature","geometry":{"type":"LineString","coordinates":[[-101.31486,31.92091],[-101.31929,31.94836],[-101.31869,31.97183],[-101.31493,32.02703],[-101.32696,32.0741],[-101.35213,32.11413],[-101.36098,32.13803],[-101.384,32.19665],[-101.39222,32.22051],[-101.41078,32.26927]]},"properties":{"commodity":"crude_oil","source":"EIA crude oil trunk pipelines"}},{"type":"Feature","geometry":{"type":"LineString","coordinates":[[-94.83759,32.48259],[-94.88602,32.22108],[-94.89153,31.62916],[-94.97198,30.5058],[-95.08858,30.03937],[-95.12418,29.7494]]},"properties":{"commodity":"crude_oil","source":"EIA crude oil trunk pipelines"}},{"type":"Feature","geometry":{"type":"LineString","coordinates":[[-94.82802,32.57034],[-94.97953,32.14375],[-94.84179,31.60183],[-94.39486,30.12851],[-94.00646,29.98662]]},"properties":{"commodity":"crude_oil","source":"EIA crude oil trunk pipelines"}},{"type":"Feature","geometry":{"type":"LineString","coordinates":[[-94.00618,29.98897],[-94.35295,30.12985],[-94.7867,31.58228],[-94.85097,31.87124],[-94.82603,32.48231]]},"properties":{"commodity":"crude_oil","source":"EIA crude oil trunk pipelines"}},{"type":"Feature","geometry":{"type":"LineString","coordinates":[[-96.56341,30.84578],[-97.54211,31.69808],[-98.47123,32.07148],[-98.52079,32.16591],[-99.65054,32.62223],[-99.80606,32.63326],[-100.07786,32.63774],[-100.21109,32.88329]]},"properties":{"commodity":"crude_oil","source":"EIA crude oil trunk pipelines"}},{"type":"Feature","geometry":{"type":"LineString","coordinates":[[-102.01857,32.01256],[-101.69524,32.13296],[-101.61616,32.21841],[-101.4412,32.31467],[-100.83207,32.52905]]},"properties":{"commodity":"crude_oil","source":"EIA crude oil trunk pipelines"}},{"type":"Feature","geometry":{"type":"LineString","coordinates":[[-100.83406,32.52738],[-100.54516,32.61721]]},"properties":{"commodity":"crude_oil","source":"EIA crude oil trunk pipelines"}},{"type":"Feature","geometry":{"type":"LineString","coordinates":[[-101.35,35.68872],[-100.93936,35.48594],[-100.91306,35.24617],[-100.82184,35.17088],[-100.30064,34.46934],[-99.93144,33.39805],[-99.79843,32.64823],[-99.86569,32.39709],[-99.86569,32.39709],[-100.15395,32.25907]]},"properties":{"commodity":"crude_oil","source":"EIA crude oil trunk pipelines"}},{"type":"Feature","geometry":{"type":"LineString","coordinates":[[-100.82184,35.17088],[-100.59979,35.23066]]},"properties":{"commodity":"crude_oil","source":"EIA crude oil trunk pipelines"}},{"type":"Feature","geometry":{"type":"LineString","coordinates":[[-99.93178,33.3995],[-99.95821,33.38639],[-99.97391,33.39247],[-99.99612,33.38511],[-99.99612,33.38511],[-100.01489,33.38959]]},"properties":{"commodity":"crude_oil","source":"EIA crude oil trunk pipelines"}},{"type":"Feature","geometry":{"type":"LineString","coordinates":[[-96.46196,32.06894],[-96.51784,32.04638],[-96.53194,32.04913],[-96.55112,32.07436],[-96.69665,32.08363],[-97.09134,32.0413],[-98.10722,32.38483],[-98.67468,32.50371],[-99.22479,32.45063],[-99.64314,32.62036],[-99.81024,32.63765],[-100.07097,32.48916],[-100.09166,32.42411],[-100.2791,32.45884],[-100.37963,32.42854],[-100.46449,32.41981],[-100.48641,32.45103],[-100.83445,32.53352],[-101.04044,32.24916],[-101.12937,32.20469],[-101.34743,31.9967],[-101.70725,31.88751],[-101.8677,31.93314],[-101.90369,31.93101]]},"properties":{"commodity":"crude_oil","source":"EIA crude oil trunk pipelines"}},{"type":"Feature","geometry":{"type":"LineString","coordinates":[[-96.39946,31.78614],[-95.13749,32.56622],[-95.00939,32.55367],[-94.83763,32.48243]]},"properties":{"commodity":"crude_oil","source":"EIA crude oil trunk pipelines"}},{"type":"Feature","geometry":{"type":"LineString","coordinates":[[-96.47416,32.07029],[-97.04627,32.51571],[-97.75079,33.55265],[-97.95556,33.86413],[-98.11185,33.83872],[-98.23173,33.94486],[-98.43552,33.92049]]},"properties":{"commodity":"crude_oil","source":"EIA crude oil trunk pipelines"}},{"type":"Feature","geometry":{"type":"LineString","coordinates":[[-96.47642,32.06901],[-96.06024,32.1129],[-94.90124,32.41237],[-94.83934,32.4842]]},"properties":{"commodity":"crude_oil","source":"EIA crude oil trunk pipelines"}},{"type":"Feature","geometry":{"type":"LineString","coordinates":[[-98.66627,33.00413],[-98.90246,32.75289],[-98.68265,32.51458],[-98.70253,32.44817],[-98.46965,32.07328],[-99.93689,31.73508],[-100.04706,31.65004],[-100.21366,31.57251]]},"properties":{"commodity":"crude_oil","source":"EIA crude oil trunk pipelines"}},{"type":"Feature","geometry":{"type":"LineString","coordinates":[[-99.93822,31.73236],[-100.16719,32.05297]]},"properties":{"commodity":"crude_oil","source":"EIA crude oil trunk pipelines"}},{"type":"Feature","geometry":{"type":"LineString","coordinates":[[-148.62184,70.25649],[-148.9277,68.74243],[-150.69536,66.58085],[-149.78982,65.83294],[-148.98923,65.64882],[-147.62717,64.93677],[-147.2681,64.74972],[-146.77144,64.54877],[-146.21038,64.36314],[-145.71428,64.04335],[-145.85658,63.70754],[-145.86314,63.4858],[-145.73663,63.40026],[-145.7448,63.28047],[-145.51193,63.17009],[-145.45206,63.00381],[-145.4777,62.10757],[-145.16506,61.69504],[-145.22757,61.54375],[-145.1087,61.4385],[-145.29687,61.35655],[-145.27354,61.28448],[-145.3817,61.21315],[-145.68692,61.17736],[-145.92928,61.038],[-146.3705,61.0827]]},"properties":{"commodity":"crude_oil","source":"EIA crude oil trunk pipelines"}},{"type":"Feature","geometry":{"type":"LineString","coordinates":[[-73.66703,45.47782],[-73.24599,45.26564],[-72.42248,44.98483],[-72.22616,44.76221],[-71.3661,44.35661],[-70.92229,44.4081],[-70.64339,44.18439],[-70.29925,43.64219]]},"properties":{"commodity":"crude_oil","source":"EIA crude oil trunk pipelines"}},{"type":"Feature","geometry":{"type":"LineString","coordinates":[[-104.45077,46.39011],[-104.71673,45.15222],[-104.8008,44.67154],[-104.80768,44.46676],[-104.38826,43.98257],[-104.34139,42.99129],[-104.49287,42.19125],[-104.66322,42.22291]]},"properties":{"commodity":"crude_oil","source":"EIA crude oil trunk pipelines"}},{"type":"Feature","geometry":{"type":"LineString","coordinates":[[-101.35685,35.68989],[-101.10864,35.49436],[-99.36732,35.44411],[-98.4177,35.64515],[-96.81618,35.98422]]},"properties":{"commodity":"crude_oil","source":"EIA crude oil trunk pipelines"}},{"type":"Feature","geometry":{"type":"LineString","coordinates":[[-113.38686,48.99658],[-112.3087,48.61737],[-111.95954,48.1476],[-111.11673,47.63918],[-110.8206,47.34206],[-110.30885,47.14208],[-109.46588,46.62157],[-108.43419,45.8066]]},"properties":{"commodity":"crude_oil","source":"EIA crude oil trunk pipelines"}},{"type":"Feature","geometry":{"type":"LineString","coordinates":[[-122.24239,38.04033],[-122.11757,37.99048],[-122.03473,37.99619],[-121.5895,37.75831],[-121.15784,37.43425],[-121.03653,37.08753],[-120.26919,36.28228],[-120.25251,36.14882],[-120.12672,35.96398],[-119.97449,35.6727]]},"properties":{"commodity":"crude_oil","source":"EIA crude oil trunk pipelines"}},{"type":"Feature","geometry":{"type":"LineString","coordinates":[[-120.43036,34.72646],[-120.44501,34.93529],[-120.46269,35.01795],[-120.52783,35.07193],[-120.57852,35.0437],[-120.61133,35.15086],[-120.65315,35.17945],[-120.67999,35.24788],[-120.62197,35.31831],[-120.63992,35.37314],[-120.60252,35.40717],[-120.5652,35.41098],[-120.52329,35.5202],[-120.42338,35.58898],[-120.28225,35.73473],[-120.22478,35.7436],[-119.97449,35.6727]]},"properties":{"commodity":"crude_oil","source":"EIA crude oil trunk pipelines"}},{"type":"Feature","geometry":{"type":"LineString","coordinates":[[-79.12022,41.82888],[-78.84087,42.54721],[-78.82314,42.86346],[-78.8582,42.99606],[-79.90542,43.02796]]},"properties":{"commodity":"crude_oil","source":"EIA crude oil trunk pipelines"}},{"type":"Feature","geometry":{"type":"LineString","coordinates":[[-119.39125,35.09812],[-119.44497,35.13596],[-119.47714,35.14694],[-119.52706,35.17833],[-119.60307,35.25755],[-119.6328,35.29402],[-119.63214,35.30858],[-119.6435,35.31688],[-119.97449,35.6727]]},"properties":{"commodity":"crude_oil","source":"EIA crude oil trunk pipelines"}},{"type":"Feature","geometry":{"type":"LineString","coordinates":[[-119.381,35.23372],[-119.46665,35.23221],[-119.54608,35.28585],[-119.57605,35.28065],[-119.64327,35.31692]]},"properties":{"commodity":"crude_oil","source":"EIA crude oil trunk pipelines"}},{"type":"Feature","geometry":{"type":"LineString","coordinates":[[-89.06937,38.79424],[-89.12266,38.70848],[-90.07105,37.59816],[-90.43493,37.31605],[-90.7271,36.82238],[-91.0122,36.30908],[-91.23862,35.99585],[-91.8425,35.36142],[-93.38753,34.42342],[-93.54555,34.28889],[-94.63257,33.56643],[-96.46129,32.06927]]},"properties":{"commodity":"crude_oil","source":"EIA crude oil trunk pipelines"}},{"type":"Feature","geometry":{"type":"LineString","coordinates":[[-94.82416,32.4846],[-93.75957,32.7014],[-93.17225,32.94748],[-91.19235,32.89279],[-91.05174,32.87928],[-90.13522,33.85895],[-89.96228,34.05603],[-89.93149,34.16428],[-89.74243,34.27567],[-88.39033,35.61876],[-88.05143,35.98535],[-87.96528,36.01534],[-87.42529,36.5217],[-86.197,37.49201],[-85.76047,37.81576],[-84.90346,38.68624],[-84.75899,38.84292],[-84.68011,39.08518],[-84.6811,39.28834],[-84.20211,40.59283],[-84.12253,40.71012],[-83.69894,41.0863],[-83.54533,41.446],[-83.50805,41.6305],[-83.60901,41.9163],[-83.33557,42.4388],[-82.78642,42.76831],[-82.63979,42.89672],[-82.49001,42.8867]]},"properties":{"commodity":"crude_oil","source":"EIA crude oil trunk pipelines"}},{"type":"Feature","geometry":{"type":"LineString","coordinates":[[-93.17225,32.94748],[-93.16108,33.23571]]},"properties":{"commodity":"crude_oil","source":"EIA crude oil trunk pipelines"}},{"type":"Feature","geometry":{"type":"LineString","coordinates":[[-91.19235,32.89279],[-91.30417,32.66279],[-91.43395,32.6021],[-91.48201,32.54884],[-91.51165,32.45579]]},"properties":{"commodity":"crude_oil","source":"EIA crude oil trunk pipelines"}},{"type":"Feature","geometry":{"type":"LineString","coordinates":[[-95.41186,47.68462],[-95.15675,47.25999],[-95.09867,46.68995],[-94.59778,46.15947],[-94.53549,45.26565],[-94.3689,45.14588],[-94.22083,45.08814],[-94.18434,44.88065],[-93.95887,44.73947],[-93.78824,44.57943],[-93.27572,44.56221],[-93.03549,44.6596],[-93.23372,44.55504],[-93.35695,43.63912],[-93.53912,41.25545],[-93.74882,41.03974],[-93.79732,40.78297],[-93.9177,40.63006],[-93.93881,40.56209],[-91.62708,39.22111],[-91.04896,38.96102],[-90.07979,38.83295]]},"properties":{"commodity":"crude_oil","source":"EIA crude oil trunk pipelines"}},{"type":"Feature","geometry":{"type":"LineString","coordinates":[[-95.41232,47.684],[-95.19984,47.2549],[-95.15428,46.67262],[-94.64654,46.14],[-94.18991,45.82261],[-93.48008,45.36243],[-92.94428,45.10783],[-92.98383,44.80467],[-93.049,44.77476],[-93.03515,44.66547]]},"properties":{"commodity":"crude_oil","source":"EIA crude oil trunk pipelines"}},{"type":"Feature","geometry":{"type":"LineString","coordinates":[[-104.60209,40.20375],[-100.85529,38.6919],[-98.43998,37.67902],[-96.73682,36.01097],[-96.73938,35.95337]]},"properties":{"commodity":"crude_oil","source":"EIA crude oil trunk pipelines"}},{"type":"Feature","geometry":{"type":"LineString","coordinates":[[-90.09452,38.82871],[-89.07115,38.79425],[-85.81505,40.30399],[-84.13368,40.70863],[-81.41166,40.69181],[-81.40927,40.76984]]},"properties":{"commodity":"crude_oil","source":"EIA crude oil trunk pipelines"}},{"type":"Feature","geometry":{"type":"LineString","coordinates":[[-89.06937,38.79424],[-87.49632,38.1178],[-87.3559,37.93873],[-87.06744,37.77505],[-85.75397,37.81866],[-85.55928,37.86507],[-84.84271,37.93839],[-84.30173,37.94185],[-83.72226,38.07754],[-83.49767,38.14701],[-83.25336,38.18386],[-82.81755,38.29642],[-82.59275,38.39937]]},"properties":{"commodity":"crude_oil","source":"EIA crude oil trunk pipelines"}},{"type":"Feature","geometry":{"type":"LineString","coordinates":[[-89.069,38.79424],[-88.34636,38.93063],[-87.71334,38.99298]]},"properties":{"commodity":"crude_oil","source":"EIA crude oil trunk pipelines"}},{"type":"Feature","geometry":{"type":"LineString","coordinates":[[-89.06956,38.79709],[-88.41516,39.03797]]},"properties":{"commodity":"crude_oil","source":"EIA crude oil trunk pipelines"}},{"type":"Feature","geometry":{"type":"LineString","coordinates":[[-112.12039,48.9987],[-112.16436,48.98003],[-112.19041,48.86083],[-112.24234,48.82125],[-112.35587,48.71438],[-112.11668,48.23626],[-111.91741,48.19386],[-111.28713,47.5538],[-111.05095,47.52513],[-110.06061,46.99486],[-109.41053,46.08657],[-108.77134,45.65715]]},"properties":{"commodity":"crude_oil","source":"EIA crude oil trunk pipelines"}},{"type":"Feature","geometry":{"type":"LineString","coordinates":[[-96.75052,35.94473],[-96.59388,35.98409],[-96.49125,36.18925],[-96.41563,36.29817],[-96.37782,36.48513],[-95.92407,37.10799],[-95.74582,37.24142],[-95.41633,37.79834],[-94.93019,38.27905],[-93.8931,39.06344],[-92.04039,40.33926],[-91.35439,40.60636],[-91.11672,40.62686],[-90.61438,40.86012],[-89.42604,40.9377],[-88.49698,41.21052],[-88.22151,41.33231],[-88.03245,41.34448],[-87.9858,41.4225],[-87.6314,41.4444],[-87.48733,41.66794]]},"properties":{"commodity":"crude_oil","source":"EIA crude oil trunk pipelines"}},{"type":"Feature","geometry":{"type":"LineString","coordinates":[[-97.07975,36.67623],[-97.26332,36.60048],[-97.34717,36.30388],[-97.3646,36.21424],[-97.37658,35.80009],[-97.41975,35.43463],[-97.53744,35.13749],[-97.60926,34.8653],[-98.00692,34.38032],[-98.4924,33.93759],[-98.64706,33.82828],[-98.68048,33.77225],[-98.69766,33.72018],[-98.8282,33.44132],[-99.05781,33.24168]]},"properties":{"commodity":"crude_oil","source":"EIA crude oil trunk pipelines"}},{"type":"Feature","geometry":{"type":"LineString","coordinates":[[-98.69766,33.72018],[-98.44428,33.37912],[-98.1119,33.13285],[-98.25729,32.9421],[-98.4496,32.99199],[-98.57865,33.06612],[-98.66101,32.99369]]},"properties":{"commodity":"crude_oil","source":"EIA crude oil trunk pipelines"}},{"type":"Feature","geometry":{"type":"LineString","coordinates":[[-101.36028,35.68741],[-101.54547,35.27256],[-101.78642,35.05908],[-102.9756,33.00724],[-103.06463,32.68466],[-102.60436,31.95118]]},"properties":{"commodity":"crude_oil","source":"EIA crude oil trunk pipelines"}},{"type":"Feature","geometry":{"type":"LineString","coordinates":[[-96.75747,35.93967],[-97.37126,35.74454],[-98.20169,35.36268],[-99.15247,34.82109],[-99.92273,34.60345],[-100.5606,34.27591],[-100.92167,34.07678],[-101.86298,33.73065],[-102.44373,33.40885]]},"properties":{"commodity":"crude_oil","source":"EIA crude oil trunk pipelines"}},{"type":"Feature","geometry":{"type":"LineString","coordinates":[[-104.58173,32.41791],[-104.56047,32.52451],[-104.5313,32.62382],[-104.4737,32.65178],[-104.26137,32.77662],[-103.60364,33.06175],[-103.51469,33.0369],[-103.11441,33.02446],[-103.05511,32.9685],[-102.30642,32.98714]]},"properties":{"commodity":"crude_oil","source":"EIA crude oil trunk pipelines"}},{"type":"Feature","geometry":{"type":"LineString","coordinates":[[-104.26307,32.77611],[-104.21649,32.60436],[-104.20209,32.52657],[-104.05389,32.34075]]},"properties":{"commodity":"crude_oil","source":"EIA crude oil trunk pipelines"}},{"type":"Feature","geometry":{"type":"LineString","coordinates":[[-103.11467,33.01721],[-103.11014,33.31646],[-103.21876,33.48646]]},"properties":{"commodity":"crude_oil","source":"EIA crude oil trunk pipelines"}},{"type":"Feature","geometry":{"type":"LineString","coordinates":[[-102.44375,33.40999],[-102.57996,33.40811],[-102.74471,33.38166],[-102.74471,33.38166]]},"properties":{"commodity":"crude_oil","source":"EIA crude oil trunk pipelines"}},{"type":"Feature","geometry":{"type":"LineString","coordinates":[[-102.44532,33.41069],[-102.76858,32.98508],[-102.84462,32.48126],[-102.80658,32.33276],[-102.81131,31.88181],[-102.7923,31.8374]]},"properties":{"commodity":"crude_oil","source":"EIA crude oil trunk pipelines"}},{"type":"Feature","geometry":{"type":"LineString","coordinates":[[-102.81132,32.02297],[-102.52134,32.03506],[-102.20284,32.08743]]},"properties":{"commodity":"crude_oil","source":"EIA crude oil trunk pipelines"}},{"type":"Feature","geometry":{"type":"LineString","coordinates":[[-101.84156,31.62717],[-101.8368,31.67573],[-101.99368,31.70809],[-102.03189,32.01257],[-102.2076,32.09549],[-102.73528,32.39299]]},"properties":{"commodity":"crude_oil","source":"EIA crude oil trunk pipelines"}},{"type":"Feature","geometry":{"type":"LineString","coordinates":[[-103.05381,32.97312],[-102.64973,32.69353]]},"properties":{"commodity":"crude_oil","source":"EIA crude oil trunk pipelines"}},{"type":"Feature","geometry":{"type":"LineString","coordinates":[[-102.57843,33.41069],[-102.63546,32.69753],[-102.64496,32.56943],[-102.58315,32.34079],[-102.64019,32.29661],[-102.62117,32.11964],[-102.51183,32.03506],[-102.35496,31.43269]]},"properties":{"commodity":"crude_oil","source":"EIA crude oil trunk pipelines"}},{"type":"Feature","geometry":{"type":"LineString","coordinates":[[-102.03181,32.0126],[-101.41829,32.23945],[-101.41678,32.27049]]},"properties":{"commodity":"crude_oil","source":"EIA crude oil trunk pipelines"}},{"type":"Feature","geometry":{"type":"LineString","coordinates":[[-100.82668,32.53943],[-101.06878,32.95161],[-101.31087,33.13474],[-101.57659,33.35201],[-101.86002,33.73585],[-102.02535,33.86342]]},"properties":{"commodity":"crude_oil","source":"EIA crude oil trunk pipelines"}},{"type":"Feature","geometry":{"type":"LineString","coordinates":[[-113.52125,53.50924],[-116.90207,53.50923],[-117.46122,53.38532],[-117.64327,53.47054],[-118.17639,53.1286],[-118.2414,52.98011],[-118.55348,52.97227],[-118.90458,53.07394],[-119.50272,53.07392],[-119.20364,52.87034],[-119.13861,52.69732],[-119.06057,52.33332],[-119.2036,52.02236],[-119.2686,51.76558],[-119.38563,51.57202],[-119.6197,51.54776],[-119.91878,51.55584],[-120.10083,51.4344],[-120.08782,51.14163],[-120.15283,50.88804],[-120.28285,50.66604],[-120.4779,50.40156],[-120.65994,50.07722],[-120.82899,49.93517],[-120.86799,49.67501],[-121.12805,49.46419],[-121.49213,49.29487],[-121.84321,49.11647],[-122.14723,49.06331],[-123.09152,49.2694]]},"properties":{"commodity":"crude_oil","source":"EIA crude oil trunk pipelines"}},{"type":"Feature","geometry":{"type":"LineString","coordinates":[[-122.14723,49.06331],[-122.41841,48.84709],[-122.41841,48.71813],[-122.33103,48.65121],[-122.32293,48.47148],[-122.46545,48.4441],[-122.56219,48.46225],[-122.56474,48.47788]]},"properties":{"commodity":"crude_oil","source":"EIA crude oil trunk pipelines"}},{"type":"Feature","geometry":{"type":"LineString","coordinates":[[-122.41886,48.84779],[-122.60378,48.85993]]},"properties":{"commodity":"crude_oil","source":"EIA crude oil trunk pipelines"}},{"type":"Feature","geometry":{"type":"LineString","coordinates":[[-96.46128,32.06949],[-95.94034,31.69227],[-95.37207,31.18266],[-94.474,30.33678],[-94.4733,30.33612],[-94.24392,30.08616],[-94.22407,30.046],[-94.17217,30.02443],[-94.09603,30.02324],[-94.05715,30.03398],[-93.99811,29.98]]},"properties":{"commodity":"crude_oil","source":"EIA crude oil trunk pipelines"}},{"type":"Feature","geometry":{"type":"LineString","coordinates":[[-148.62184,70.25649],[-148.70385,70.49677]]},"properties":{"commodity":"crude_oil","source":"EIA crude oil trunk pipelines"}},{"type":"Feature","geometry":{"type":"LineString","coordinates":[[-148.62184,70.25649],[-148.03097,70.25439],[-147.94156,70.35746]]},"properties":{"commodity":"crude_oil","source":"EIA crude oil trunk pipelines"}},{"type":"Feature","geometry":{"type":"LineString","coordinates":[[-147.09193,70.15384],[-148.03097,70.25439]]},"properties":{"commodity":"crude_oil","source":"EIA crude oil trunk pipelines"}},{"type":"Feature","geometry":{"type":"LineString","coordinates":[[-150.93286,70.34266],[-150.9916,70.32257],[-150.9627,70.28759],[-150.85337,70.24571],[-150.7347,70.23165],[-150.62856,70.23068],[-150.40033,70.2371],[-150.2154,70.24613],[-149.92077,70.28261]]},"properties":{"commodity":"crude_oil","source":"EIA crude oil trunk pipelines"}},{"type":"Feature","geometry":{"type":"LineString","coordinates":[[-149.92077,70.28261],[-149.72822,70.33782],[-149.60103,70.32463],[-149.40875,70.32106],[-149.09151,70.30821],[-148.93981,70.29297],[-148.85582,70.25948],[-148.62184,70.25649]]},"properties":{"commodity":"crude_oil","source":"EIA crude oil trunk pipelines"}},{"type":"Feature","geometry":{"type":"LineString","coordinates":[[-149.40875,70.32106],[-149.45195,70.46194]]},"properties":{"commodity":"crude_oil","source":"EIA crude oil trunk pipelines"}},{"type":"Feature","geometry":{"type":"LineString","coordinates":[[-149.87151,70.51049],[-149.81358,70.39541],[-149.78371,70.36713],[-149.75198,70.35888],[-149.72719,70.33851]]},"properties":{"commodity":"crude_oil","source":"EIA crude oil trunk pipelines"}},{"type":"Feature","geometry":{"type":"LineString","coordinates":[[-148.43388,70.28929],[-148.62184,70.25649]]},"properties":{"commodity":"crude_oil","source":"EIA crude oil trunk pipelines"}},{"type":"Feature","geometry":{"type":"LineString","coordinates":[[-148.86355,70.31146],[-148.73826,70.3056],[-148.62184,70.25649]]},"properties":{"commodity":"crude_oil","source":"EIA crude oil trunk pipelines"}},{"type":"Feature","geometry":{"type":"LineString","coordinates":[[-119.76721,35.67625],[-119.67381,35.42575],[-119.47315,35.11507],[-119.06492,35.07261],[-118.86773,34.83445],[-118.59442,34.43598],[-118.47334,34.29892],[-118.47334,34.08718],[-118.33314,33.85297]]},"properties":{"commodity":"crude_oil","source":"EIA crude oil trunk pipelines"}},{"type":"Feature","geometry":{"type":"LineString","coordinates":[[-118.22392,34.0107],[-118.22937,34.00844],[-118.22846,33.98963],[-118.23845,33.98888],[-118.22664,33.91885],[-118.27796,33.91585],[-118.27882,33.84721],[-118.33314,33.85297]]},"properties":{"commodity":"crude_oil","source":"EIA crude oil trunk pipelines"}},{"type":"Feature","geometry":{"type":"LineString","coordinates":[[-103.95106,48.60389],[-104.45681,48.59988],[-104.79078,48.85622]]},"properties":{"commodity":"crude_oil","source":"EIA crude oil trunk pipelines"}},{"type":"Feature","geometry":{"type":"LineString","coordinates":[[-102.92655,48.28478],[-103.77674,48.26112],[-103.79122,48.08728],[-103.66208,47.97947]]},"properties":{"commodity":"crude_oil","source":"EIA crude oil trunk pipelines"}},{"type":"Feature","geometry":{"type":"LineString","coordinates":[[-101.20661,48.71966],[-100.91492,48.7161]]},"properties":{"commodity":"crude_oil","source":"EIA crude oil trunk pipelines"}},{"type":"Feature","geometry":{"type":"LineString","coordinates":[[-104.72131,49.00209],[-104.79078,48.85622],[-104.93489,48.56186],[-105.13001,48.23267],[-104.9787,47.94931],[-104.85274,47.36652],[-104.77744,47.08428],[-104.76683,46.96169],[-104.60496,46.83475],[-104.55939,46.73907],[-104.44375,46.60665],[-104.45077,46.39011]]},"properties":{"commodity":"crude_oil","source":"EIA crude oil trunk pipelines"}},{"type":"Feature","geometry":{"type":"LineString","coordinates":[[-104.9787,47.94931],[-104.93653,47.90964],[-104.84266,47.91082],[-104.76827,47.86741]]},"properties":{"commodity":"crude_oil","source":"EIA crude oil trunk pipelines"}},{"type":"Feature","geometry":{"type":"LineString","coordinates":[[-102.91842,47.977],[-102.90463,47.75263],[-102.84232,47.68276],[-102.84751,47.64779],[-102.87867,47.6233],[-102.84751,47.4726],[-102.89943,47.41993],[-102.89424,47.32851],[-103.01366,47.21224],[-103.00327,47.07097],[-103.22654,46.9045],[-103.29404,46.9045],[-103.29923,46.82285],[-103.41866,46.7553],[-103.60559,46.76597],[-104.02099,46.68767],[-104.16637,46.63065],[-104.22349,46.51285],[-104.38965,46.51285],[-104.45077,46.39011]]},"properties":{"commodity":"crude_oil","source":"EIA crude oil trunk pipelines"}},{"type":"Feature","geometry":{"type":"LineString","coordinates":[[-111.54837,40.72246],[-111.15032,40.89965],[-111.05962,41.06328],[-110.82103,41.25676]]},"properties":{"commodity":"crude_oil","source":"EIA crude oil trunk pipelines"}},{"type":"Feature","geometry":{"type":"LineString","coordinates":[[-111.05962,41.06328],[-111.06996,41.24441]]},"properties":{"commodity":"crude_oil","source":"EIA crude oil trunk pipelines"}},{"type":"Feature","geometry":{"type":"LineString","coordinates":[[-106.37224,42.86215],[-106.82142,43.00917],[-107.08782,43.03838],[-107.35414,43.25242],[-107.65914,43.34781],[-107.9536,43.73529],[-108.49971,43.90826],[-108.85935,44.15723],[-109.01919,44.47172],[-108.8194,44.97329],[-108.61394,45.15524],[-108.80608,45.30213],[-108.77134,45.65715],[-108.43657,45.8149]]},"properties":{"commodity":"crude_oil","source":"EIA crude oil trunk pipelines"}},{"type":"Feature","geometry":{"type":"LineString","coordinates":[[-106.37224,42.86215],[-106.24867,43.33943],[-106.39519,43.86989]]},"properties":{"commodity":"crude_oil","source":"EIA crude oil trunk pipelines"}},{"type":"Feature","geometry":{"type":"LineString","coordinates":[[-109.97969,41.56403],[-109.44882,41.53204],[-108.85265,41.70419],[-108.33143,41.63469],[-107.9237,41.68222],[-107.4034,41.77429],[-105.56936,41.90866],[-105.39632,42.12636],[-104.75867,42.21393],[-104.69718,42.21964],[-104.66239,42.22282]]},"properties":{"commodity":"crude_oil","source":"EIA crude oil trunk pipelines"}},{"type":"Feature","geometry":{"type":"LineString","coordinates":[[-104.49287,42.19125],[-104.71689,41.91857],[-104.71689,41.32116],[-104.68815,41.11713],[-104.82828,41.10839]]},"properties":{"commodity":"crude_oil","source":"EIA crude oil trunk pipelines"}},{"type":"Feature","geometry":{"type":"LineString","coordinates":[[-107.99748,41.67362],[-107.62741,41.03298],[-108.84191,40.11141]]},"properties":{"commodity":"crude_oil","source":"EIA crude oil trunk pipelines"}},{"type":"Feature","geometry":{"type":"LineString","coordinates":[[-118.23864,33.81098],[-118.22476,34.08654],[-118.56882,34.37098],[-118.83169,34.81647],[-119.00179,35.06996],[-119.36131,35.0573],[-119.45795,34.95915],[-119.68217,34.98133],[-120.07648,35.1016],[-120.16927,35.03199],[-120.21952,35.01933],[-120.26205,34.90528],[-120.16927,34.75615],[-120.19633,34.61629],[-120.24658,34.49531],[-120.04556,34.47301]]},"properties":{"commodity":"crude_oil","source":"EIA crude oil trunk pipelines"}},{"type":"Feature","geometry":{"type":"LineString","coordinates":[[-106.37224,42.86215],[-105.7187,42.87258],[-105.05092,42.41761],[-104.99941,42.36914],[-104.68807,42.23425],[-104.67412,42.22727],[-104.66275,42.22282]]},"properties":{"commodity":"crude_oil","source":"EIA crude oil trunk pipelines"}},{"type":"Feature","geometry":{"type":"LineString","coordinates":[[-109.97969,41.56403],[-110.22614,42.17527],[-110.22614,42.25269]]},"properties":{"commodity":"crude_oil","source":"EIA crude oil trunk pipelines"}},{"type":"Feature","geometry":{"type":"LineString","coordinates":[[-96.75855,35.94698],[-96.68012,35.76163],[-96.96304,35.37156],[-97.55979,34.22571],[-95.20388,32.58952],[-94.83934,32.4842]]},"properties":{"commodity":"crude_oil","source":"EIA crude oil trunk pipelines"}},{"type":"Feature","geometry":{"type":"LineString","coordinates":[[-94.83759,32.48259],[-94.36754,32.57759],[-94.02039,32.55648],[-93.85838,32.54799],[-93.79153,32.46577],[-93.51318,32.5943],[-93.12485,32.78711],[-92.87623,32.89368]]},"properties":{"commodity":"crude_oil","source":"EIA crude oil trunk pipelines"}},{"type":"Feature","geometry":{"type":"LineString","coordinates":[[-93.12485,32.78711],[-93.13761,32.94652],[-93.06143,32.97885]]},"properties":{"commodity":"crude_oil","source":"EIA crude oil trunk pipelines"}},{"type":"Feature","geometry":{"type":"LineString","coordinates":[[-94.02039,32.55648],[-93.96458,32.75938]]},"properties":{"commodity":"crude_oil","source":"EIA crude oil trunk pipelines"}},{"type":"Feature","geometry":{"type":"LineString","coordinates":[[-95.92897,37.04152],[-95.91806,36.87108],[-96.00289,36.76802],[-95.98403,36.55791],[-96.73938,35.95337]]},"properties":{"commodity":"crude_oil","source":"EIA crude oil trunk pipelines"}},{"type":"Feature","geometry":{"type":"LineString","coordinates":[[-96.74451,35.95632],[-97.44198,35.46711],[-97.39059,35.13185],[-97.47576,34.68977],[-97.54679,34.48092],[-97.37407,34.17723]]},"properties":{"commodity":"crude_oil","source":"EIA crude oil trunk pipelines"}},{"type":"Feature","geometry":{"type":"LineString","coordinates":[[-91.55498,32.44737],[-91.67629,32.31481],[-91.4194,31.77046],[-91.41227,31.7037],[-91.16965,31.54573],[-90.76492,31.15767],[-90.59165,31.00907],[-90.66159,30.85205]]},"properties":{"commodity":"crude_oil","source":"EIA crude oil trunk pipelines"}},{"type":"Feature","geometry":{"type":"LineString","coordinates":[[-90.76456,31.16198],[-90.47035,31.20458],[-89.97798,31.13742],[-89.42852,31.02742],[-88.6507,30.85606],[-88.40094,30.82543],[-88.17973,30.80704],[-88.05128,30.73347]]},"properties":{"commodity":"crude_oil","source":"EIA crude oil trunk pipelines"}},{"type":"Feature","geometry":{"type":"LineString","coordinates":[[-89.42852,31.02742],[-89.32862,31.19847],[-89.20731,31.28998],[-88.91474,31.8311]]},"properties":{"commodity":"crude_oil","source":"EIA crude oil trunk pipelines"}},{"type":"Feature","geometry":{"type":"LineString","coordinates":[[-91.4194,31.77046],[-91.76906,31.51533]]},"properties":{"commodity":"crude_oil","source":"EIA crude oil trunk pipelines"}},{"type":"Feature","geometry":{"type":"LineString","coordinates":[[-88.99323,31.90381],[-88.99323,31.87958],[-88.91474,31.8311],[-88.83624,31.78865],[-88.71493,31.81291],[-88.71493,31.74618]]},"properties":{"commodity":"crude_oil","source":"EIA crude oil trunk pipelines"}},{"type":"Feature","geometry":{"type":"LineString","coordinates":[[-88.17973,30.80704],[-88.13691,30.90505],[-88.06555,30.89893]]},"properties":{"commodity":"crude_oil","source":"EIA crude oil trunk pipelines"}},{"type":"Feature","geometry":{"type":"LineString","coordinates":[[-103.98118,33.05147],[-104.83264,34.01485],[-106.19016,35.0772],[-107.21833,35.82943],[-107.61995,36.04718],[-108.14208,36.47609]]},"properties":{"commodity":"crude_oil","source":"EIA crude oil trunk pipelines"}},{"type":"Feature","geometry":{"type":"LineString","coordinates":[[-107.98946,36.70044],[-108.14208,36.47609],[-108.36699,36.15935],[-108.47945,35.68426],[-108.42313,35.49651],[-108.02158,35.53249],[-107.72438,35.76344],[-107.61995,36.04718]]},"properties":{"commodity":"crude_oil","source":"EIA crude oil trunk pipelines"}},{"type":"Feature","geometry":{"type":"LineString","coordinates":[[-103.17658,32.06486],[-103.98118,33.05147]]},"properties":{"commodity":"crude_oil","source":"EIA crude oil trunk pipelines"}},{"type":"Feature","geometry":{"type":"LineString","coordinates":[[-88.46888,31.93028],[-88.37469,32.08974],[-88.17312,32.33742],[-88.07714,32.48327],[-87.97155,32.71777],[-87.88996,32.79445],[-87.79878,32.93956],[-87.71719,33.0241],[-87.66919,33.06835],[-87.6356,33.19695],[-87.602,33.20498]]},"properties":{"commodity":"crude_oil","source":"EIA crude oil trunk pipelines"}},{"type":"Feature","geometry":{"type":"LineString","coordinates":[[-89.33457,31.78837],[-89.19059,31.80061],[-89.11536,31.82272],[-89.04601,31.82438],[-89.00526,31.84099],[-88.94001,31.88662],[-88.68268,32.00455],[-88.64959,32.0373],[-88.50261,31.89758]]},"properties":{"commodity":"crude_oil","source":"EIA crude oil trunk pipelines"}},{"type":"Feature","geometry":{"type":"LineString","coordinates":[[-88.46897,31.93172],[-88.4842,31.90416],[-88.5045,31.89899],[-88.5593,31.8964],[-88.56235,31.87745],[-88.60193,31.85159],[-88.6344,31.84038],[-88.65876,31.79727],[-88.67805,31.78002],[-88.71763,31.75241]]},"properties":{"commodity":"crude_oil","source":"EIA crude oil trunk pipelines"}},{"type":"Feature","geometry":{"type":"LineString","coordinates":[[-88.17972,31.84383],[-88.24569,31.84642],[-88.3208,31.87314],[-88.44056,31.88175],[-88.46999,31.93258]]},"properties":{"commodity":"crude_oil","source":"EIA crude oil trunk pipelines"}},{"type":"Feature","geometry":{"type":"LineString","coordinates":[[-89.00688,31.8171],[-89.00383,31.85159],[-88.98658,31.87572]]},"properties":{"commodity":"crude_oil","source":"EIA crude oil trunk pipelines"}},{"type":"Feature","geometry":{"type":"LineString","coordinates":[[-88.27817,31.89813],[-88.24772,31.84124],[-88.17972,31.84469]]},"properties":{"commodity":"crude_oil","source":"EIA crude oil trunk pipelines"}},{"type":"Feature","geometry":{"type":"LineString","coordinates":[[-90.77369,31.16519],[-90.70205,31.22858],[-90.66753,31.26062],[-90.65481,31.27307],[-90.64051,31.28234],[-90.61453,31.30776],[-90.58117,31.33896],[-90.56132,31.35645],[-90.50807,31.40054],[-90.46356,31.44298],[-90.42946,31.45387],[-90.41512,31.46585],[-90.3391,31.5091],[-90.19424,31.57517],[-90.02286,31.65161],[-89.86984,31.72452],[-89.81476,31.7384],[-89.6495,31.7384],[-89.55157,31.76616],[-89.37203,31.78524],[-89.27817,31.80084],[-89.28226,31.80604]]},"properties":{"commodity":"crude_oil","source":"EIA crude oil trunk pipelines"}},{"type":"Feature","geometry":{"type":"LineString","coordinates":[[-89.81476,31.74187],[-89.75559,31.79738],[-89.68052,31.86681],[-89.66609,31.88017],[-89.6643,31.94347],[-89.75763,31.99483],[-89.84606,31.9496],[-89.91491,31.92056]]},"properties":{"commodity":"crude_oil","source":"EIA crude oil trunk pipelines"}},{"type":"Feature","geometry":{"type":"LineString","coordinates":[[-90.61469,31.30776],[-90.60542,31.30874],[-90.59859,31.30967],[-90.58287,31.31002],[-90.57032,31.31317],[-90.5563,31.31175],[-90.55123,31.31164],[-90.54925,31.3145]]},"properties":{"commodity":"crude_oil","source":"EIA crude oil trunk pipelines"}},{"type":"Feature","geometry":{"type":"LineString","coordinates":[[-90.41512,31.46585],[-90.43263,31.48877],[-90.43091,31.52301],[-90.45743,31.54214],[-90.49212,31.55779],[-90.49212,31.57169],[-90.51252,31.59429],[-90.52476,31.59255]]},"properties":{"commodity":"crude_oil","source":"EIA crude oil trunk pipelines"}},{"type":"Feature","geometry":{"type":"LineString","coordinates":[[-90.41512,31.46585],[-90.41138,31.4579],[-90.37174,31.34371]]},"properties":{"commodity":"crude_oil","source":"EIA crude oil trunk pipelines"}},{"type":"Feature","geometry":{"type":"LineString","coordinates":[[-89.6643,31.94347],[-89.58266,31.97484]]},"properties":{"commodity":"crude_oil","source":"EIA crude oil trunk pipelines"}},{"type":"Feature","geometry":{"type":"LineString","coordinates":[[-98.46429,26.6547],[-98.41164,26.80953],[-98.11745,27.1161],[-98.05242,27.15945],[-98.0679,27.32666],[-98.09887,27.40717],[-98.04622,27.46911],[-97.92855,27.54652],[-97.92855,27.66109],[-97.85423,27.77257],[-97.7861,27.79734],[-97.60959,27.91501],[-97.41449,27.90882],[-97.29992,27.90573],[-97.2225,27.87476]]},"properties":{"commodity":"crude_oil","source":"EIA crude oil trunk pipelines"}},{"type":"Feature","geometry":{"type":"LineString","coordinates":[[-97.43307,27.80664],[-97.52598,27.84689],[-97.42069,27.90882]]},"properties":{"commodity":"crude_oil","source":"EIA crude oil trunk pipelines"}},{"type":"Feature","geometry":{"type":"LineString","coordinates":[[-96.81676,28.68513],[-96.97439,28.52752],[-97.19591,28.18673],[-97.27684,28.10144]]},"properties":{"commodity":"crude_oil","source":"EIA crude oil trunk pipelines"}},{"type":"Feature","geometry":{"type":"LineString","coordinates":[[-97.22146,27.87577],[-97.27684,28.10154],[-97.29553,28.2717],[-97.78965,28.60845],[-97.7923,29.27297],[-97.43446,29.74155],[-97.28536,29.92472],[-97.06384,29.92046],[-97.05958,29.98436],[-96.78268,30.29532],[-96.78268,30.3294],[-96.6847,30.46997],[-96.63784,30.57221],[-96.57819,30.85335]]},"properties":{"commodity":"crude_oil","source":"EIA crude oil trunk pipelines"}},{"type":"Feature","geometry":{"type":"LineString","coordinates":[[-97.15331,28.37842],[-97.29732,28.27185]]},"properties":{"commodity":"crude_oil","source":"EIA crude oil trunk pipelines"}},{"type":"Feature","geometry":{"type":"LineString","coordinates":[[-97.62818,29.67603],[-96.90668,29.67678],[-96.53915,29.76227],[-96.04216,29.77488]]},"properties":{"commodity":"crude_oil","source":"EIA crude oil trunk pipelines"}},{"type":"Feature","geometry":{"type":"LineString","coordinates":[[-98.13997,28.92436],[-97.77159,29.06496],[-97.41623,29.29078],[-97.35319,29.33539],[-97.25941,29.3456],[-97.18579,29.34344],[-97.01162,29.36634],[-96.96056,29.41364],[-96.62585,29.47807],[-96.19786,29.65967]]},"properties":{"commodity":"crude_oil","source":"EIA crude oil trunk pipelines"}},{"type":"Feature","geometry":{"type":"LineString","coordinates":[[-96.6376,28.80637],[-96.5129,29.0763],[-96.19786,29.65967],[-96.15849,29.75658],[-96.04216,29.77488]]},"properties":{"commodity":"crude_oil","source":"EIA crude oil trunk pipelines"}},{"type":"Feature","geometry":{"type":"LineString","coordinates":[[-97.29391,29.92166],[-96.85418,29.95579],[-96.64416,29.93304],[-96.04216,29.77488]]},"properties":{"commodity":"crude_oil","source":"EIA crude oil trunk pipelines"}},{"type":"Feature","geometry":{"type":"LineString","coordinates":[[-95.22109,29.62703],[-95.24582,29.60303],[-95.28643,29.58107],[-95.3983,29.4357],[-95.42932,29.39459],[-95.49314,29.33205],[-95.60755,29.25789],[-95.68456,29.14426]]},"properties":{"commodity":"crude_oil","source":"EIA crude oil trunk pipelines"}},{"type":"Feature","geometry":{"type":"LineString","coordinates":[[-96.5129,29.0763],[-96.30288,29.00171]]},"properties":{"commodity":"crude_oil","source":"EIA crude oil trunk pipelines"}},{"type":"Feature","geometry":{"type":"LineString","coordinates":[[-96.04216,29.77488],[-95.7455,29.6713],[-95.63958,29.67557],[-95.50538,29.61999],[-95.22032,29.62818]]},"properties":{"commodity":"crude_oil","source":"EIA crude oil trunk pipelines"}},{"type":"Feature","geometry":{"type":"LineString","coordinates":[[-96.04216,29.77488],[-95.58726,29.88796],[-95.41028,29.93872],[-95.60718,30.10919]]},"properties":{"commodity":"crude_oil","source":"EIA crude oil trunk pipelines"}},{"type":"Feature","geometry":{"type":"LineString","coordinates":[[-95.58726,29.88796],[-95.61542,29.91077],[-95.3776,30.24355]]},"properties":{"commodity":"crude_oil","source":"EIA crude oil trunk pipelines"}},{"type":"Feature","geometry":{"type":"LineString","coordinates":[[-111.90841,40.79527],[-111.81498,40.75774],[-111.52372,40.73272],[-110.23227,40.16978],[-109.31453,40.06971],[-109.04524,40.04469],[-108.84741,40.0989]]},"properties":{"commodity":"crude_oil","source":"EIA crude oil trunk pipelines"}},{"type":"Feature","geometry":{"type":"LineString","coordinates":[[-92.32224,46.6109],[-93.09379,47.02909],[-93.58978,47.26546],[-94.82979,47.39274],[-95.46357,47.72003],[-96.23514,47.95641],[-97.69558,48.95645],[-104.50177,50.22925],[-109.44431,51.8359],[-111.62567,52.57631],[-113.80453,53.43195]]},"properties":{"commodity":"crude_oil","source":"EIA crude oil trunk pipelines"}},{"type":"Feature","geometry":{"type":"LineString","coordinates":[[-100.81794,32.52564],[-100.55777,32.58855],[-100.332,32.54018],[-99.64457,32.08987],[-98.70948,31.7008],[-97.96829,31.44538],[-97.28962,31.22315],[-96.62733,30.72284],[-96.13043,30.41069],[-95.74394,30.1165],[-95.28276,29.79999],[-94.9252,29.37107]]},"properties":{"commodity":"crude_oil","source":"EIA crude oil trunk pipelines"}},{"type":"Feature","geometry":{"type":"MultiLineString","coordinates":[[[-93.93906,29.91748],[-94.03773,29.99045],[-94.06615,29.96703],[-94.25733,30.02546],[-94.33816,30.08227],[-94.4945,30.08457],[-94.68347,30.20654],[-94.74287,30.35045],[-94.84201,30.54607],[-94.77425,31.03433],[-94.81857,31.08266],[-94.77999,31.12122],[-94.85021,31.17832],[-94.87688,31.28369],[-94.94984,31.38194],[-94.8792,31.71929],[-94.89883,31.84519],[-94.9852,32.10876],[-95.07998,32.29439],[-95.15251,32.72849],[-95.22716,32.96214],[-95.30805,33.10618],[-95.75778,33.70293],[-96.10254,34.15708],[-96.16007,34.30484]],[[-96.15417,34.30366],[-96.39132,34.6781],[-96.39352,34.85461],[-96.40389,34.91599],[-96.44346,35.09664],[-96.43669,35.29103],[-96.51578,35.41464],[-96.53474,35.46894],[-96.56999,35.53428],[-96.5877,35.62458],[-96.63432,35.72251],[-96.63307,35.7585],[-96.65786,35.88492],[-96.76671,35.98498]]]},"properties":{"commodity":"crude_oil","source":"EIA crude oil trunk pipelines"}},{"type":"Feature","geometry":{"type":"LineString","coordinates":[[-104.687,42.22582],[-104.56814,42.21335],[-104.50427,42.20579],[-104.48124,41.98947],[-104.13181,41.57074],[-103.96834,41.39334],[-103.54649,40.99725],[-103.30516,40.75398],[-103.05655,40.67067],[-102.05133,40.33381],[-100.71967,39.86817],[-100.17988,39.65392],[-99.85003,39.53874],[-99.54175,39.45535],[-99.2752,39.3997],[-99.04863,39.27223],[-98.7086,39.18402],[-98.20898,39.0753],[-98.1428,39.03859],[-98.01083,38.95738],[-97.94321,38.87586],[-97.94926,38.62964],[-97.93233,38.62303],[-97.91715,38.6098],[-97.90692,38.54265],[-97.82755,38.43157],[-97.69475,38.34577],[-97.57895,38.17391],[-97.19786,37.91248],[-97.0221,37.83514],[-96.8946,37.79437],[-96.90599,37.4809],[-97.00573,37.28044],[-96.99747,37.21307],[-97.0305,37.13742],[-97.06765,36.88029],[-97.07975,36.67623],[-97.09036,36.6339],[-97.07178,36.39003],[-97.0321,36.33334],[-96.76671,35.98498]]},"properties":{"commodity":"crude_oil","source":"EIA crude oil trunk pipelines"}},{"type":"Feature","geometry":{"type":"LineString","coordinates":[[-85.86439,44.48097],[-85.765,44.47724],[-85.66036,44.60774],[-85.34124,44.66358],[-85.1843,44.70078],[-85.15814,44.79738],[-84.79193,44.84933],[-84.76578,44.90494],[-84.66638,44.92717],[-84.65592,44.9827],[-84.56698,44.96789],[-84.37546,44.8705]]},"properties":{"commodity":"crude_oil","source":"EIA crude oil trunk pipelines"}},{"type":"Feature","geometry":{"type":"LineString","coordinates":[[-102.18667,31.13721],[-102.17819,31.12553],[-102.10554,31.09932],[-102.04765,31.09396],[-102.00088,30.99881],[-101.86821,30.9145],[-101.83975,30.85012],[-101.05725,30.21125],[-100.97538,30.21539],[-100.83211,29.90579],[-100.73343,29.3284],[-100.29325,29.08785],[-100.11426,29.08294],[-99.84889,28.87795],[-99.41834,28.82264],[-99.42508,28.78736],[-99.3603,28.71225],[-99.33457,28.64327],[-99.25837,28.54017],[-99.22446,28.52427]]},"properties":{"commodity":"crude_oil","source":"EIA crude oil trunk pipelines"}},{"type":"Feature","geometry":{"type":"LineString","coordinates":[[-102.35065,48.29595],[-102.96157,48.28457],[-103.79241,48.08773],[-103.33413,47.75806],[-102.8816,47.72763],[-102.85608,47.63748],[-102.84148,47.51932],[-102.46078,47.4038],[-102.0602,47.21303],[-101.76689,46.97034],[-101.38396,46.75932],[-100.77881,46.51722],[-100.47934,46.40129],[-100.19217,46.10077],[-100.05681,45.88376],[-99.33901,45.39233],[-98.9212,45.1121],[-98.5271,44.8416],[-98.29675,44.63362],[-97.87343,44.42684],[-97.42301,44.08061],[-96.97963,43.60895],[-96.49827,43.3276],[-96.25514,43.22914],[-95.83509,42.9833],[-95.3091,42.73459],[-94.81401,42.50396],[-93.93944,42.16413],[-93.55143,41.89871],[-93.10536,41.68188],[-92.53796,41.3037],[-91.67975,40.75521],[-91.33581,40.47642],[-90.58774,39.81242],[-89.662,39.08114],[-89.07703,38.78331],[-89.04722,38.76602]]},"properties":{"commodity":"crude_oil","source":"EIA crude oil trunk pipelines"}},{"type":"Feature","geometry":{"type":"LineString","coordinates":[[-102.46065,48.29107],[-102.46075,48.29812],[-102.45962,48.29818],[-102.45959,48.30317]]},"properties":{"commodity":"crude_oil","source":"EIA crude oil trunk pipelines"}},{"type":"Feature","geometry":{"type":"LineString","coordinates":[[-102.89122,48.2884],[-102.89896,48.29113],[-102.9145,48.29118],[-102.91426,48.29512],[-102.92446,48.2948],[-102.93904,48.28805]]},"properties":{"commodity":"crude_oil","source":"EIA crude oil trunk pipelines"}},{"type":"Feature","geometry":{"type":"LineString","coordinates":[[-103.35078,48.27078],[-103.34334,48.2853],[-103.32268,48.28564]]},"properties":{"commodity":"crude_oil","source":"EIA crude oil trunk pipelines"}},{"type":"Feature","geometry":{"type":"LineString","coordinates":[[-103.77586,48.11891],[-103.76621,48.11877],[-103.76583,48.1112],[-103.77069,48.10738],[-103.77241,48.09872],[-103.78814,48.08681],[-103.79241,48.08773]]},"properties":{"commodity":"crude_oil","source":"EIA crude oil trunk pipelines"}},{"type":"Feature","geometry":{"type":"LineString","coordinates":[[-104.03064,47.91885],[-104.0527,47.91832],[-104.26633,47.80805],[-104.26993,47.79064],[-104.27342,47.75558],[-104.29047,47.74557],[-104.2939,47.54981],[-104.20782,47.5088],[-104.1467,47.47327],[-104.15887,47.42122],[-104.13639,47.41332],[-104.13388,47.38155],[-104.231,47.33105],[-104.23457,47.24209],[-104.18359,47.03461],[-104.22306,46.94697],[-104.25124,46.85623],[-104.24363,46.81694],[-104.30072,46.76246],[-104.31378,46.69702],[-104.45168,46.43939],[-104.44758,46.38684],[-104.8092,46.18602],[-104.8947,46.11079],[-104.90446,46.05281],[-105.03913,45.98327],[-105.14585,45.84262],[-105.27556,45.74796],[-105.41322,45.55486],[-105.40032,45.42378],[-105.33155,45.32128],[-105.34871,45.10216],[-105.3828,45.05768],[-105.37316,44.9199],[-105.40546,44.71904],[-105.54087,44.69784],[-105.71262,44.621],[-105.72261,44.11174],[-105.65559,43.50462],[-105.56806,43.39201],[-105.43776,43.35074],[-105.33811,43.1404],[-105.27814,43.09748],[-105.28146,42.85452],[-105.32388,42.80511],[-105.32447,42.71617],[-105.33442,42.68032],[-105.33225,42.59858],[-105.03616,42.3879],[-104.83156,42.28492],[-104.83095,42.24597],[-104.74321,42.22583],[-104.71427,42.22638],[-104.71287,42.23401],[-104.68812,42.23184]]},"properties":{"commodity":"crude_oil","source":"EIA crude oil trunk pipelines"}},{"type":"Feature","geometry":{"type":"LineString","coordinates":[[-104.48612,47.80656],[-104.47854,47.79701],[-104.26914,47.79001]]},"properties":{"commodity":"crude_oil","source":"EIA crude oil trunk pipelines"}},{"type":"Feature","geometry":{"type":"LineString","coordinates":[[-103.66537,47.96152],[-103.66179,47.61736],[-103.57582,47.56904],[-103.49701,47.53519]]},"properties":{"commodity":"crude_oil","source":"EIA crude oil trunk pipelines"}},{"type":"Feature","geometry":{"type":"LineString","coordinates":[[-103.53641,47.61253],[-103.57582,47.57146],[-103.84807,47.38988],[-104.07375,47.24903],[-104.31376,46.77764],[-104.45347,46.39358]]},"properties":{"commodity":"crude_oil","source":"EIA crude oil trunk pipelines"}},{"type":"Feature","geometry":{"type":"LineString","coordinates":[[-103.84807,47.39231],[-103.79792,47.3025],[-103.69045,47.27577],[-103.68329,47.17116],[-103.5185,47.11024],[-103.32864,47.10537],[-103.32864,47.07366],[-103.12088,47.06878],[-102.89878,46.90261],[-102.91311,46.85854]]},"properties":{"commodity":"crude_oil","source":"EIA crude oil trunk pipelines"}},{"type":"Feature","geometry":{"type":"LineString","coordinates":[[-104.72325,45.15278],[-105.08148,45.10729],[-105.51851,44.55346],[-106.39974,43.86016]]},"properties":{"commodity":"crude_oil","source":"EIA crude oil trunk pipelines"}},{"type":"Feature","geometry":{"type":"LineString","coordinates":[[-104.78057,44.68096],[-104.95968,44.6198],[-104.95968,44.51772],[-105.05282,44.44104],[-105.05998,44.29764],[-104.90953,43.42986],[-104.68112,42.27527],[-104.68565,42.22844],[-104.50605,42.20909]]},"properties":{"commodity":"crude_oil","source":"EIA crude oil trunk pipelines"}},{"type":"Feature","geometry":{"type":"LineString","coordinates":[[-105.51851,44.55857],[-105.36089,44.34377],[-105.06715,44.29251]]},"properties":{"commodity":"crude_oil","source":"EIA crude oil trunk pipelines"}},{"type":"Feature","geometry":{"type":"LineString","coordinates":[[-105.54,43.74123],[-105.23193,43.69462],[-104.91669,43.44026]]},"properties":{"commodity":"crude_oil","source":"EIA crude oil trunk pipelines"}},{"type":"Feature","geometry":{"type":"LineString","coordinates":[[-107.67562,40.31431],[-107.52971,40.55979],[-107.5182,40.69093],[-107.55659,40.8131],[-107.60267,40.91183],[-107.62955,41.03648]]},"properties":{"commodity":"crude_oil","source":"EIA crude oil trunk pipelines"}},{"type":"Feature","geometry":{"type":"LineString","coordinates":[[-93.98377,29.99226],[-93.96982,30.01094],[-94.0643,30.24068],[-94.35559,30.96254],[-94.81093,32.02418],[-94.90315,32.1848],[-94.83235,32.48284]]},"properties":{"commodity":"crude_oil","source":"EIA crude oil trunk pipelines"}},{"type":"Feature","geometry":{"type":"LineString","coordinates":[[-80.62966,40.61088],[-80.63756,40.62982],[-80.93089,40.64128],[-80.99006,40.63268],[-81.19904,40.64319],[-81.25695,40.64988],[-81.28923,40.64597],[-81.30795,40.6493]]},"properties":{"commodity":"crude_oil","source":"EIA crude oil trunk pipelines"}},{"type":"Feature","geometry":{"type":"LineString","coordinates":[[-102.90345,32.80142],[-96.41927,30.04031],[-94.8805,29.91022]]},"properties":{"commodity":"crude_oil","source":"EIA crude oil trunk pipelines"}},{"type":"Feature","geometry":{"type":"LineString","coordinates":[[-97.07922,36.67605],[-97.13609,36.63849],[-97.11577,36.38925],[-97.05814,36.28935],[-96.91982,36.15103],[-96.81608,35.97813],[-96.73155,35.94355]]},"properties":{"commodity":"crude_oil","source":"EIA crude oil trunk pipelines"}},{"type":"Feature","geometry":{"type":"LineString","coordinates":[[-96.73209,35.93512],[-96.73045,35.92557],[-96.59177,35.88375],[-96.51975,35.89167],[-96.36599,35.86691],[-95.89919,35.8046],[-95.60424,35.65496],[-95.51002,35.58693],[-95.52077,35.51251],[-95.48655,35.48537],[-95.38919,35.48671],[-95.06008,35.2467],[-95.02389,35.18356],[-94.98736,35.19117],[-94.90319,35.21756],[-94.79765,35.22415],[-94.7,35.12667],[-94.63293,35.13251],[-94.25157,35.13852],[-94.2089,35.12356],[-93.99294,35.145],[-93.92943,35.19469],[-93.91478,35.25182],[-93.91247,35.31412],[-93.81817,35.43692],[-93.77095,35.4239],[-93.66471,35.42145],[-93.48504,35.48799],[-93.13546,35.4748],[-92.81885,35.38905],[-92.68033,35.36267],[-92.08441,35.3601],[-92.03047,35.27867],[-91.90171,35.2147],[-91.75887,35.14342],[-91.60704,35.14056],[-91.55369,35.05855],[-91.34134,35.02627],[-91.24899,35.07244],[-91.17644,35.12521],[-90.93898,35.1516],[-90.48385,35.13181],[-90.14086,35.11862],[-90.10167,35.11051],[-90.0819,35.08445]]},"properties":{"commodity":"crude_oil","source":"EIA crude oil trunk pipelines"}},{"type":"Feature","geometry":{"type":"LineString","coordinates":[[-93.67748,32.35478],[-93.66989,32.40507],[-93.63345,32.44607],[-93.61793,32.53201],[-93.51065,32.59058],[-93.18948,32.78139],[-93.16722,32.88911],[-93.15189,32.90763],[-93.1538,32.98206],[-93.13962,32.98481],[-93.14698,33.24646]]},"properties":{"commodity":"crude_oil","source":"EIA crude oil trunk pipelines"}},{"type":"Feature","geometry":{"type":"LineString","coordinates":[[-93.14816,33.24589],[-93.0429,33.20808],[-92.92617,33.16912],[-92.89716,33.17081],[-92.86275,33.16799],[-92.80068,33.17533],[-92.74265,33.18211],[-92.71229,33.19058],[-92.70487,33.19001],[-92.68327,33.19735],[-92.67393,33.1997]]},"properties":{"commodity":"crude_oil","source":"EIA crude oil trunk pipelines"}},{"type":"Feature","geometry":{"type":"LineString","coordinates":[[-92.71263,33.36319],[-92.67372,33.19963]]},"properties":{"commodity":"crude_oil","source":"EIA crude oil trunk pipelines"}},{"type":"Feature","geometry":{"type":"LineString","coordinates":[[-94.0027,29.98737],[-94.05997,29.99196],[-94.10703,29.9765],[-94.38312,30.13265],[-94.48872,30.22223],[-95.42087,31.04118],[-96.50557,31.85812],[-97.08114,32.05728],[-98.09702,32.40082],[-98.72925,32.50473],[-99.81183,32.38349],[-100.27619,32.47237],[-100.42082,32.43749],[-100.83392,32.52893]]},"properties":{"commodity":"crude_oil","source":"EIA crude oil trunk pipelines"}},{"type":"Feature","geometry":{"type":"LineString","coordinates":[[-104.13797,32.13336],[-104.12103,31.88773],[-104.01939,31.65056],[-103.75681,31.45575],[-103.51118,31.28634],[-103.3333,31.31176],[-103.13849,31.30328],[-102.69804,31.39646],[-102.35924,31.43034],[-102.07972,31.50657],[-101.98655,31.51504],[-101.67315,31.19317],[-101.36823,30.97295],[-101.08871,30.87131],[-101.04636,30.74425],[-100.88543,30.67649],[-100.54662,30.46474],[-100.47886,30.38851],[-100.36875,30.12593],[-100.50427,29.93112],[-100.54662,29.75325],[-100.62285,29.60078],[-100.62285,29.49067],[-100.47039,29.27045],[-100.31793,29.19422],[-100.14852,28.84694],[-99.8436,28.35567],[-99.69114,28.33026],[-99.55561,28.33026],[-99.42009,28.32179],[-99.25069,28.33873],[-99.13211,28.37261],[-99.13211,28.36414],[-99.03893,28.2625],[-98.93729,28.20321],[-98.72554,28.0931],[-98.60696,27.92369],[-98.58155,27.83899],[-98.58155,27.66959],[-98.50531,27.59336],[-98.47143,27.57642],[-98.27662,27.6103],[-98.14957,27.66112],[-98.07334,27.695],[-97.92934,27.75429],[-97.74363,27.80846],[-97.59198,27.82123]]},"properties":{"commodity":"crude_oil","source":"EIA crude oil trunk pipelines"}},{"type":"Feature","geometry":{"type":"LineString","coordinates":[[-102.12581,31.1809],[-102.11733,31.16922],[-102.04468,31.14302],[-101.98679,31.13765],[-101.94002,31.0425],[-101.80734,30.9582],[-101.77889,30.89381],[-100.99639,30.25495],[-100.91452,30.25908],[-100.77125,29.94948],[-100.67257,29.3721],[-100.23239,29.13154],[-100.0534,29.12663],[-99.78802,28.92164],[-99.35747,28.86633],[-99.36422,28.83105],[-99.29944,28.75595],[-99.27371,28.68696],[-99.19751,28.58386],[-98.59765,28.48083],[-98.12246,28.32734],[-97.45694,27.78337]]},"properties":{"commodity":"crude_oil","source":"EIA crude oil trunk pipelines"}},{"type":"Feature","geometry":{"type":"LineString","coordinates":[[-105.40446,43.0733],[-105.34456,43.02427],[-105.30862,43.02427],[-105.32537,42.5937],[-104.97518,42.35723],[-104.687,42.22582]]},"properties":{"commodity":"crude_oil","source":"EIA crude oil trunk pipelines"}},{"type":"Feature","geometry":{"type":"MultiLineString","coordinates":[[[-103.05655,40.67067],[-103.13197,40.63345],[-103.23077,40.60442],[-103.42518,40.63828],[-103.54164,40.6078],[-103.97032,40.61249],[-103.99645,40.56944],[-104.0779,40.57247],[-104.22502,40.42306],[-104.40124,40.37522],[-104.60119,40.22679],[-104.64315,40.13399],[-104.81329,40.14537]],[[-103.97032,40.61249],[-103.97594,40.73853],[-103.94591,40.78046],[-103.86918,40.79104],[-103.86041,40.85492]]]},"properties":{"commodity":"crude_oil","source":"EIA crude oil trunk pipelines"}},{"type":"Feature","geometry":{"type":"LineString","coordinates":[[-93.98123,29.97886],[-93.97371,30.03313],[-93.9712,30.05266],[-93.77818,30.17409],[-93.69294,30.16542],[-93.6754,30.16976],[-93.62025,30.18059],[-93.59267,30.15675],[-93.42221,30.15675],[-93.33447,30.15892]]},"properties":{"commodity":"crude_oil","source":"EIA crude oil trunk pipelines"}},{"type":"Feature","geometry":{"type":"LineString","coordinates":[[-93.34199,30.16326],[-93.2743,30.15025],[-93.18406,30.15459],[-93.12891,30.13724],[-92.98852,30.16976],[-92.615,30.15892],[-92.26906,30.13941],[-92.04595,30.10472],[-92.01838,30.09388],[-91.9532,30.07218],[-91.9181,30.07218],[-91.71756,30.13724],[-91.63734,30.14808],[-91.57968,30.13941],[-91.46186,30.0852],[-91.38164,30.09388],[-91.10839,30.08737],[-91.08583,30.08303],[-91.01063,30.02445],[-90.94796,29.98971],[-90.88458,30.00126],[-90.85983,30.01008],[-90.84267,30.04181]]},"properties":{"commodity":"crude_oil","source":"EIA crude oil trunk pipelines"}},{"type":"Feature","geometry":{"type":"LineString","coordinates":[[-102.37018,31.42924],[-102.50977,31.40057],[-102.59174,31.38577],[-102.69508,31.37928],[-102.76789,31.36146],[-102.8012,31.3544],[-102.82548,31.3225],[-102.86647,31.32582],[-102.88396,31.32116],[-102.93326,31.31644],[-103.03713,31.3338],[-103.0914,31.36238],[-103.10262,31.36933],[-103.11488,31.37414],[-103.12424,31.38274],[-103.15584,31.40232],[-103.165,31.41572],[-103.25179,31.4786]]},"properties":{"commodity":"crude_oil","source":"EIA crude oil trunk pipelines"}},{"type":"Feature","geometry":{"type":"LineString","coordinates":[[-102.01557,32.02045],[-101.97066,31.98786],[-101.92306,32.00013],[-101.13553,31.9599],[-100.68724,31.91824],[-99.83854,31.57495],[-99.82859,31.49891],[-99.76587,31.48361],[-99.6766,31.48169],[-98.29491,30.89598],[-98.24064,30.83624],[-96.47381,30.07575],[-96.397,30.01221],[-96.23258,30.00994],[-96.13601,29.81444],[-96.13988,29.75967]]},"properties":{"commodity":"crude_oil","source":"EIA crude oil trunk pipelines"}},{"type":"Feature","geometry":{"type":"LineString","coordinates":[[-96.05631,29.77189],[-96.029,29.76184],[-95.95368,29.76615],[-95.92968,29.75321],[-95.8974,29.73525],[-95.88665,29.71584],[-95.84857,29.70147],[-95.84857,29.69572],[-95.87009,29.69212],[-95.83037,29.53023],[-95.74512,29.5115],[-95.70622,29.47837],[-95.67726,29.44738],[-95.65988,29.46468],[-95.54401,29.4481],[-95.52084,29.44882],[-95.50263,29.43873],[-95.43228,29.43945],[-95.39256,29.48917],[-95.34621,29.49422],[-95.31642,29.51799],[-95.32055,29.60005],[-95.19724,29.60077],[-95.18483,29.60725]]},"properties":{"commodity":"crude_oil","source":"EIA crude oil trunk pipelines"}},{"type":"Feature","geometry":{"type":"LineString","coordinates":[[-103.9033,31.82821],[-103.14979,31.75073],[-102.78604,31.51721],[-102.38006,31.34891],[-102.18064,31.38752],[-101.88471,31.33582],[-101.24154,30.66696],[-100.94086,30.51156],[-100.66026,30.38694],[-100.61287,30.15779],[-100.52602,30.11854],[-100.50772,29.97047],[-100.61593,29.62254],[-100.65754,29.48955],[-100.62625,29.36209],[-100.5683,29.25234],[-100.47319,29.17665],[-100.36056,29.11979],[-100.30306,29.0141],[-99.83546,28.78986],[-99.52934,28.82712],[-99.34227,28.81967],[-99.18071,28.7675],[-99.05317,28.70809],[-98.9167,28.67814],[-98.77787,28.60449],[-98.16496,28.58248],[-97.88961,28.55712],[-97.67147,28.65062],[-97.42,28.75687],[-97.02092,28.94624],[-96.68469,29.11894],[-96.52815,29.13952],[-96.37217,29.13478],[-96.20559,29.07607],[-96.00054,29.10238],[-95.86073,29.13318],[-95.74461,29.07445]]},"properties":{"commodity":"crude_oil","source":"EIA crude oil trunk pipelines"}},{"type":"Feature","geometry":{"type":"LineString","coordinates":[[-97.78233,28.93267],[-98.16081,28.64427],[-98.16496,28.58248],[-98.15328,28.52529],[-97.7951,28.1251],[-97.54759,27.8999],[-97.54422,27.84831],[-97.49301,27.82015]]},"properties":{"commodity":"crude_oil","source":"EIA crude oil trunk pipelines"}},{"type":"Feature","geometry":{"type":"LineString","coordinates":[[-97.54759,27.8999],[-97.41769,27.93349],[-97.25793,27.92743],[-97.18147,27.86439]]},"properties":{"commodity":"crude_oil","source":"EIA crude oil trunk pipelines"}},{"type":"Feature","geometry":{"type":"LineString","coordinates":[[-103.96283,31.94975],[-103.14979,31.75073]]},"properties":{"commodity":"crude_oil","source":"EIA crude oil trunk pipelines"}},{"type":"Feature","geometry":{"type":"LineString","coordinates":[[-104.85748,40.88932],[-104.84379,40.83754],[-104.81184,40.83582],[-104.77988,40.7304],[-104.68631,40.62309],[-104.61328,40.55896],[-104.60209,40.20375]]},"properties":{"commodity":"crude_oil","source":"EIA crude oil trunk pipelines"}},{"type":"Feature","geometry":{"type":"LineString","coordinates":[[-104.60209,40.20375],[-104.58545,40.18311],[-100.87145,38.6857],[-98.45615,37.67282],[-96.74676,35.9986],[-96.74868,35.95056]]},"properties":{"commodity":"crude_oil","source":"EIA crude oil trunk pipelines"}},{"type":"Feature","geometry":{"type":"LineString","coordinates":[[-89.04722,38.76602],[-88.57954,38.58018],[-88.60757,38.42352],[-88.63779,38.13544],[-88.70037,38.0986],[-88.77649,37.89934],[-88.89363,37.71289],[-88.91599,37.22525],[-88.99364,36.85148],[-89.08726,36.50504],[-89.19514,36.20872],[-89.44181,35.81207],[-89.53343,35.56204],[-89.6578,34.99132],[-89.78196,34.78467],[-90.13707,34.47949],[-90.21352,34.28125],[-90.46093,33.96378],[-90.7359,33.53007],[-90.85287,33.45187],[-90.88298,33.29812],[-91.12225,33.27285],[-91.2447,33.22053],[-91.61895,32.68283],[-91.71695,32.57279],[-91.765,32.45306],[-91.82845,32.36223],[-91.99881,32.21621],[-92.14013,32.0754],[-92.20067,31.93043],[-92.61263,31.41564],[-92.84663,31.16776],[-93.05265,30.88055],[-93.22353,30.50642],[-93.70944,30.43749],[-93.88457,30.42018],[-93.88941,30.26254],[-93.90536,30.25261],[-93.90614,30.24305],[-93.91519,30.23418],[-93.9178,30.21825],[-93.92658,30.18671],[-93.9103,30.1698],[-93.91024,30.16174],[-93.91694,30.14262],[-93.91777,30.12954],[-93.93472,30.10387],[-93.93553,30.08007],[-93.94648,30.074],[-93.94727,30.06881],[-93.97961,30.05387],[-93.99254,30.03703],[-93.99323,30.02491],[-94.00138,30.00894],[-94.00123,30.00113],[-93.99515,29.99262]]},"properties":{"commodity":"crude_oil","source":"EIA crude oil trunk pipelines"}},{"type":"Feature","geometry":{"type":"LineString","coordinates":[[-98.31014,38.33994],[-98.37911,38.31632],[-98.45965,38.27066],[-98.45965,38.21567],[-98.94276,37.79086],[-99.58012,37.13652],[-100.56949,37.14054]]},"properties":{"commodity":"crude_oil","source":"EIA crude oil trunk pipelines"}},{"type":"Feature","geometry":{"type":"LineString","coordinates":[[-100.56949,37.14054],[-100.62818,37.13653],[-100.9172,36.98422],[-101.26582,36.81977],[-101.3653,36.68161],[-101.3513,36.59734],[-101.40731,36.52423],[-101.47032,36.38908],[-101.51933,36.33833],[-101.51933,36.26498]]},"properties":{"commodity":"crude_oil","source":"EIA crude oil trunk pipelines"}},{"type":"Feature","geometry":{"type":"LineString","coordinates":[[-102.04445,37.06807],[-101.87641,37.04013],[-100.56949,37.14054]]},"properties":{"commodity":"crude_oil","source":"EIA crude oil trunk pipelines"}},{"type":"Feature","geometry":{"type":"LineString","coordinates":[[-100.97321,37.61913],[-100.88219,37.50258],[-100.88903,37.47059],[-100.85737,37.47201],[-100.57578,37.20989],[-100.56949,37.14054]]},"properties":{"commodity":"crude_oil","source":"EIA crude oil trunk pipelines"}},{"type":"Feature","geometry":{"type":"LineString","coordinates":[[-98.31034,38.34118],[-98.09498,38.26004],[-97.96622,38.22451],[-97.82355,38.17255],[-97.74003,38.15066],[-97.63563,38.04934],[-97.3816,37.80504]]},"properties":{"commodity":"crude_oil","source":"EIA crude oil trunk pipelines"}},{"type":"Feature","geometry":{"type":"LineString","coordinates":[[-97.37116,37.81054],[-97.13801,37.81054],[-97.10321,37.80779],[-97.06145,37.78854],[-96.90138,37.80229]]},"properties":{"commodity":"crude_oil","source":"EIA crude oil trunk pipelines"}},{"type":"Feature","geometry":{"type":"LineString","coordinates":[[-98.31014,38.33994],[-98.04974,38.32831],[-97.68087,38.33377]]},"properties":{"commodity":"crude_oil","source":"EIA crude oil trunk pipelines"}},{"type":"Feature","geometry":{"type":"LineString","coordinates":[[-97.68087,38.33104],[-97.60083,38.13971],[-97.51036,37.97531],[-97.24589,37.89846],[-96.90138,37.80229]]},"properties":{"commodity":"crude_oil","source":"EIA crude oil trunk pipelines"}},{"type":"Feature","geometry":{"type":"LineString","coordinates":[[-99.3225,40.40562],[-99.40341,40.18466],[-99.42429,40.04095],[-99.41733,40.0143],[-99.43125,39.87557],[-99.29901,39.79006],[-99.25029,39.64016],[-99.1111,39.40394],[-98.90927,39.11834],[-98.63784,38.76649],[-98.53344,38.62526],[-98.42168,38.47239],[-98.36498,38.40187],[-98.31014,38.33994]]},"properties":{"commodity":"crude_oil","source":"EIA crude oil trunk pipelines"}},{"type":"Feature","geometry":{"type":"LineString","coordinates":[[-98.31014,38.33994],[-98.33024,38.37634],[-98.81797,38.70119],[-98.96146,38.83632]]},"properties":{"commodity":"crude_oil","source":"EIA crude oil trunk pipelines"}},{"type":"Feature","geometry":{"type":"LineString","coordinates":[[-98.96146,38.83632],[-99.18417,38.82344],[-99.31989,38.75156],[-99.4319,38.82238],[-99.49301,38.84039],[-99.63221,38.79226],[-99.64004,38.75835],[-99.72355,38.72306],[-100.03674,38.61166]]},"properties":{"commodity":"crude_oil","source":"EIA crude oil trunk pipelines"}},{"type":"Feature","geometry":{"type":"LineString","coordinates":[[-98.96146,38.83632],[-99.08089,39.00846],[-99.17374,39.09944],[-99.24333,39.15073],[-99.51476,39.16692],[-99.57076,39.19775],[-99.6035,39.2532],[-99.69224,39.29092],[-99.81055,39.36898]]},"properties":{"commodity":"crude_oil","source":"EIA crude oil trunk pipelines"}}]}