{"type":"FeatureCollection","features":[{"type":"Feature","geometry":{"type":"Point","coordinates":[-158.12885300014,21.3563950003804]},"properties":{"Plant_Name":"Kahe","State":"Hawaii","PrimSource":"petroleum","Total_MW":582.1,"Install_MW":609.7,"City":"Kapolei","County":"Honolulu","Utility_Na":"Hawaiian Electric Co Inc","Longitude":-158.128853,"Latitude":21.356395}},{"type":"Feature","geometry":{"type":"Point","coordinates":[-157.961518000067,21.3889969999888]},"properties":{"Plant_Name":"Waiau","State":"Hawaii","PrimSource":"petroleum","Total_MW":456.6,"Install_MW":474.6,"City":"Pearl City","County":"Honolulu","Utility_Na":"Hawaiian Electric Co Inc","Longitude":-157.961518,"Latitude":21.388997}},{"type":"Feature","geometry":{"type":"Point","coordinates":[-155.695499999963,20.0252000000454]},"properties":{"Plant_Name":"Waimea","State":"Hawaii","PrimSource":"petroleum","Total_MW":7.5,"Install_MW":7.5,"City":"Kamuela","County":"Hawaii","Utility_Na":"Hawaii Electric Light Co Inc","Longitude":-155.6955,"Latitude":20.0252}},{"type":"Feature","geometry":{"type":"Point","coordinates":[-155.062499999713,19.7052000000869]},"properties":{"Plant_Name":"Kanoelehua","State":"Hawaii","PrimSource":"petroleum","Total_MW":20,"Install_MW":21,"City":"Hilo","County":"Hawaii","Utility_Na":"Hawaii Electric Light Co Inc","Longitude":-155.0625,"Latitude":19.7052}},{"type":"Feature","geometry":{"type":"Point","coordinates":[-155.090799999807,19.7263999996933]},"properties":{"Plant_Name":"Puueo","State":"Hawaii","PrimSource":"hydroelectric","Total_MW":3.1,"Install_MW":3.1,"City":"Hilo","County":"Hawaii","Utility_Na":"Hawaii Electric Light Co Inc","Longitude":-155.0908,"Latitude":19.7264}},{"type":"Feature","geometry":{"type":"Point","coordinates":[-155.060699999564,19.7041000000522]},"properties":{"Plant_Name":"W H Hill","State":"Hawaii","PrimSource":"petroleum","Total_MW":35.5,"Install_MW":37.1,"City":"Hilo","County":"Hawaii","Utility_Na":"Hawaii Electric Light Co Inc","Longitude":-155.0607,"Latitude":19.7041}},{"type":"Feature","geometry":{"type":"Point","coordinates":[-155.118899999886,19.7202999997726]},"properties":{"Plant_Name":"Waiau Hydro","State":"Hawaii","PrimSource":"hydroelectric","Total_MW":1,"Install_MW":1,"City":"Hilo","County":"Hawaii","Utility_Na":"Hawaii Electric Light Co Inc","Longitude":-155.1189,"Latitude":19.7203}},{"type":"Feature","geometry":{"type":"Point","coordinates":[-157.064700000015,21.1059999996929]},"properties":{"Plant_Name":"Palaau Power Hybrid","State":"Hawaii","PrimSource":"petroleum","Total_MW":16,"Install_MW":17.1,"City":"Kaunakakai","County":"Maui","Utility_Na":"Maui Electric Co Ltd","Longitude":-157.0647,"Latitude":21.106}},{"type":"Feature","geometry":{"type":"Point","coordinates":[-156.462696000334,20.8968840003058]},"properties":{"Plant_Name":"Kahului","State":"Hawaii","PrimSource":"petroleum","Total_MW":32.4,"Install_MW":34,"City":"Kahului","County":"Maui","Utility_Na":"Maui Electric Co Ltd","Longitude":-156.462696,"Latitude":20.896884}},{"type":"Feature","geometry":{"type":"Point","coordinates":[-159.585042000331,21.8995829998699]},"properties":{"Plant_Name":"Port Allen (HI)","State":"Hawaii","PrimSource":"petroleum","Total_MW":80.1,"Install_MW":89.5,"City":"Eleele","County":"Kauai","Utility_Na":"Kauai Island Utility Cooperative","Longitude":-159.585042,"Latitude":21.899583}},{"type":"Feature","geometry":{"type":"Point","coordinates":[-156.492980999628,20.8011699998284]},"properties":{"Plant_Name":"Maalaea","State":"Hawaii","PrimSource":"petroleum","Total_MW":197.9,"Install_MW":229.8,"City":"Kihei","County":"Maui","Utility_Na":"Maui Electric Co Ltd","Longitude":-156.492981,"Latitude":20.80117}},{"type":"Feature","geometry":{"type":"Point","coordinates":[-155.031299999827,19.6315999997687]},"properties":{"Plant_Name":"Puna","State":"Hawaii","PrimSource":"petroleum","Total_MW":34,"Install_MW":39.1,"City":"Keaau","County":"Hawaii","Utility_Na":"Hawaii Electric Light Co Inc","Longitude":-155.0313,"Latitude":19.6316}},{"type":"Feature","geometry":{"type":"Point","coordinates":[-156.934199999553,20.7900000001781]},"properties":{"Plant_Name":"Miki Basin","State":"Hawaii","PrimSource":"petroleum","Total_MW":10.2,"Install_MW":10.4,"City":"Lanai City","County":"Maui","Utility_Na":"Maui Electric Co Ltd","Longitude":-156.9342,"Latitude":20.79}},{"type":"Feature","geometry":{"type":"Point","coordinates":[-154.888361999603,19.478976000143]},"properties":{"Plant_Name":"Puna Geothermal Venture I","State":"Hawaii","PrimSource":"geothermal","Total_MW":43,"Install_MW":51,"City":"Pahoa","County":"Hawaii","Utility_Na":"Puna Geothermal Venture","Longitude":-154.888362,"Latitude":19.478976}},{"type":"Feature","geometry":{"type":"Point","coordinates":[-156.02829999964,19.7317000001735]},"properties":{"Plant_Name":"Keahole","State":"Hawaii","PrimSource":"petroleum","Total_MW":79,"Install_MW":89.1,"City":"Kailua Kona","County":"Hawaii","Utility_Na":"Hawaii Electric Light Co Inc","Longitude":-156.0283,"Latitude":19.7317}},{"type":"Feature","geometry":{"type":"Point","coordinates":[-158.091437999673,21.3032289997641]},"properties":{"Plant_Name":"Tesoro Hawaii","State":"Hawaii","PrimSource":"petroleum","Total_MW":20,"Install_MW":20,"City":"Kapolei","County":"Honolulu","Utility_Na":"PAR Petroleum","Longitude":-158.091438,"Latitude":21.303229}},{"type":"Feature","geometry":{"type":"Point","coordinates":[-158.113888999783,21.3116669996554]},"properties":{"Plant_Name":"Hawaii Cogen","State":"Hawaii","PrimSource":"petroleum","Total_MW":12.8,"Install_MW":12.2,"City":"Kapolei","County":"Honolulu","Utility_Na":"Island Energy Services","Longitude":-158.113889,"Latitude":21.311667}},{"type":"Feature","geometry":{"type":"Point","coordinates":[-158.098614999804,21.3000359996298]},"properties":{"Plant_Name":"H Power","State":"Hawaii","PrimSource":"biomass","Total_MW":88.7,"Install_MW":100.2,"City":"Kapolei","County":"Honolulu","Utility_Na":"Covanta Honolulu Resource Recovery","Longitude":-158.098615,"Latitude":21.300036}},{"type":"Feature","geometry":{"type":"Point","coordinates":[-159.528581000058,21.9360750003629]},"properties":{"Plant_Name":"Kalaheo Hydro","State":"Hawaii","PrimSource":"hydroelectric","Total_MW":2,"Install_MW":2,"City":"Kalaheo","County":"Kauai","Utility_Na":"BBCP Kauai Operating LLC","Longitude":-159.528581,"Latitude":21.936075}},{"type":"Feature","geometry":{"type":"Point","coordinates":[-159.556142000186,22.1962919999513]},"properties":{"Plant_Name":"Wainiha Hydro","State":"Hawaii","PrimSource":"hydroelectric","Total_MW":3.4,"Install_MW":3.6,"City":"Hanalei","County":"Kauai","Utility_Na":"BBCP Kauai Operating LLC","Longitude":-159.556142,"Latitude":22.196292}},{"type":"Feature","geometry":{"type":"Point","coordinates":[-159.629399999679,21.9178000001043]},"properties":{"Plant_Name":"Gay Robinson","State":"Hawaii","PrimSource":"hydroelectric","Total_MW":8.3,"Install_MW":8.7,"City":"Kaumakani","County":"Kauai","Utility_Na":"Gay & Robinson Inc","Longitude":-159.6294,"Latitude":21.9178}},{"type":"Feature","geometry":{"type":"Point","coordinates":[-158.096318000436,21.3021059998369]},"properties":{"Plant_Name":"Kalaeloa Cogen Plant","State":"Hawaii","PrimSource":"petroleum","Total_MW":220,"Install_MW":299.4,"City":"Kapolei","County":"Honolulu","Utility_Na":"Kalaeloa Partners LP","Longitude":-158.096318,"Latitude":21.302106}},{"type":"Feature","geometry":{"type":"Point","coordinates":[-155.148569999959,19.7129940002762]},"properties":{"Plant_Name":"Wailuku River Hydroelectric","State":"Hawaii","PrimSource":"hydroelectric","Total_MW":9.8,"Install_MW":10.4,"City":"Hilo","County":"Hawaii","Utility_Na":"Wailuku Holding Company LLC","Longitude":-155.14857,"Latitude":19.712994}},{"type":"Feature","geometry":{"type":"Point","coordinates":[-155.471100000268,20.0939000002497]},"properties":{"Plant_Name":"Hamakua Energy Plant","State":"Hawaii","PrimSource":"petroleum","Total_MW":60.8,"Install_MW":66,"City":"Honokaa","County":"Hawaii","Utility_Na":"Hamakua Energy, LLC","Longitude":-155.4711,"Latitude":20.0939}},{"type":"Feature","geometry":{"type":"Point","coordinates":[-156.356899999867,20.8885999995837]},"properties":{"Plant_Name":"Kaheka Hydro","State":"Hawaii","PrimSource":"hydroelectric","Total_MW":4.5,"Install_MW":4.5,"City":"Puunene","County":"Maui","Utility_Na":"Mahi Pono LLC","Longitude":-156.3569,"Latitude":20.8886}},{"type":"Feature","geometry":{"type":"Point","coordinates":[-155.99611100044,20.7658329996106]},"properties":{"Plant_Name":"Hana Substation","State":"Hawaii","PrimSource":"petroleum","Total_MW":2,"Install_MW":2,"City":"Hana","County":"Maui","Utility_Na":"Maui Electric Co Ltd","Longitude":-155.996111,"Latitude":20.765833}},{"type":"Feature","geometry":{"type":"Point","coordinates":[-159.375802999739,21.9964510003505]},"properties":{"Plant_Name":"Kapaia Power Station","State":"Hawaii","PrimSource":"petroleum","Total_MW":27.5,"Install_MW":39.1,"City":"Lihue","County":"Kauai","Utility_Na":"Kauai Island Utility Cooperative","Longitude":-159.375803,"Latitude":21.996451}},{"type":"Feature","geometry":{"type":"Point","coordinates":[-158.101666999931,21.3024999999176]},"properties":{"Plant_Name":"Campbell Industrial Park","State":"Hawaii","PrimSource":"petroleum","Total_MW":113,"Install_MW":113,"City":"Kapolei","County":"Honolulu","Utility_Na":"Hawaiian Electric Co Inc","Longitude":-158.101667,"Latitude":21.3025}},{"type":"Feature","geometry":{"type":"Point","coordinates":[-155.691400000073,18.9741999998858]},"properties":{"Plant_Name":"Pakini Nui Wind Farm","State":"Hawaii","PrimSource":"wind","Total_MW":21,"Install_MW":21,"City":"Naalehu","County":"Hawaii","Utility_Na":"Apollo Energy Corp","Longitude":-155.6914,"Latitude":18.9742}},{"type":"Feature","geometry":{"type":"Point","coordinates":[-155.850382000205,20.2572519999573]},"properties":{"Plant_Name":"Hawi Wind Farm","State":"Hawaii","PrimSource":"wind","Total_MW":10.6,"Install_MW":10.6,"City":"Hawi","County":"Hawaii","Utility_Na":"EDF Renewable Asset Holdings, Inc.","Longitude":-155.850382,"Latitude":20.257252}},{"type":"Feature","geometry":{"type":"Point","coordinates":[-156.5510000002,20.8142100001887]},"properties":{"Plant_Name":"Kaheawa Pastures Wind Farm Hybrid","State":"Hawaii","PrimSource":"wind","Total_MW":30,"Install_MW":30,"City":"Maalaea","County":"Maui","Utility_Na":"Evergreen Wind, LLC","Longitude":-156.551,"Latitude":20.81421}},{"type":"Feature","geometry":{"type":"Point","coordinates":[-156.923299999999,20.7667000003704]},"properties":{"Plant_Name":"Lanai Solar-Electric Plant","State":"Hawaii","PrimSource":"solar","Total_MW":1.2,"Install_MW":1.2,"City":"Lanai City","County":"Maui","Utility_Na":"Lanai Sustainability Research LLC","Longitude":-156.9233,"Latitude":20.7667}},{"type":"Feature","geometry":{"type":"Point","coordinates":[-159.331599000377,22.0804159996296]},"properties":{"Plant_Name":"Kapaa Photovoltaic Project","State":"Hawaii","PrimSource":"solar","Total_MW":1,"Install_MW":1,"City":"Kapaa","County":"Kauai","Utility_Na":"Kapaa Solar LLC","Longitude":-159.331599,"Latitude":22.080416}},{"type":"Feature","geometry":{"type":"Point","coordinates":[-158.040832999957,21.61027799977]},"properties":{"Plant_Name":"Kawailoa Wind","State":"Hawaii","PrimSource":"wind","Total_MW":69,"Install_MW":69,"City":"Haleiwa","County":"Honolulu","Utility_Na":"Kawailoa Wind LLC","Longitude":-158.040833,"Latitude":21.610278}},{"type":"Feature","geometry":{"type":"Point","coordinates":[-156.317999999794,20.5959999995945]},"properties":{"Plant_Name":"Auwahi Wind Energy Hybrid","State":"Hawaii","PrimSource":"wind","Total_MW":35,"Install_MW":35,"City":"Kula","County":"Maui","Utility_Na":"Auwahi Wind Energy LLC","Longitude":-156.318,"Latitude":20.596}},{"type":"Feature","geometry":{"type":"Point","coordinates":[-158.086943999598,21.320000000387]},"properties":{"Plant_Name":"Kalaeloa Solar Two","State":"Hawaii","PrimSource":"solar","Total_MW":5,"Install_MW":5,"City":"Honolulu","County":"Honolulu","Utility_Na":"Altus Power America Management, LLC","Longitude":-158.086944,"Latitude":21.32}},{"type":"Feature","geometry":{"type":"Point","coordinates":[-156.337799999635,20.8866999998541]},"properties":{"Plant_Name":"Paia Hydroelectric Plant","State":"Hawaii","PrimSource":"hydroelectric","Total_MW":1.3,"Install_MW":1.3,"City":"Paia","County":"Maui","Utility_Na":"Mahi Pono LLC","Longitude":-156.3378,"Latitude":20.8867}},{"type":"Feature","geometry":{"type":"Point","coordinates":[-158.023609999867,21.4287000002262]},"properties":{"Plant_Name":"Lanikuhana Solar LLC","State":"Hawaii","PrimSource":"solar","Total_MW":14.7,"Install_MW":14.7,"City":"Mililani","County":"Honolulu","Utility_Na":"Lanikuhana Solar LLC","Longitude":-158.02361,"Latitude":21.4287}},{"type":"Feature","geometry":{"type":"Point","coordinates":[-157.919443999669,21.336389000213]},"properties":{"Plant_Name":"HNL Emergency Power Facility","State":"Hawaii","PrimSource":"biomass","Total_MW":10,"Install_MW":10,"City":"Honolulu","County":"Honolulu","Utility_Na":"Hawaiian Electric Co Inc","Longitude":-157.919444,"Latitude":21.336389}},{"type":"Feature","geometry":{"type":"Point","coordinates":[-159.581667000164,21.9019440003923]},"properties":{"Plant_Name":"Port Allen Solar","State":"Hawaii","PrimSource":"solar","Total_MW":6,"Install_MW":6,"City":"Eleele","County":"Kauai","Utility_Na":"Kaieie Waho Company LLC","Longitude":-159.581667,"Latitude":21.901944}},{"type":"Feature","geometry":{"type":"Point","coordinates":[-156.535999999857,20.7946700002566]},"properties":{"Plant_Name":"Kaheawa Wind Power II LLC","State":"Hawaii","PrimSource":"wind","Total_MW":31,"Install_MW":31,"City":"Wailuku","County":"Maui","Utility_Na":"Evergreen Wind, LLC","Longitude":-156.536,"Latitude":20.79467}},{"type":"Feature","geometry":{"type":"Point","coordinates":[-157.975000000293,21.6809700000551]},"properties":{"Plant_Name":"Kahuku Wind Power LLC","State":"Hawaii","PrimSource":"wind","Total_MW":30,"Install_MW":30,"City":"Honolulu","County":"Honolulu","Utility_Na":"Evergreen Wind, LLC","Longitude":-157.975,"Latitude":21.68097}},{"type":"Feature","geometry":{"type":"Point","coordinates":[-158.019849999735,21.4279160000082]},"properties":{"Plant_Name":"Mililani South Solar Farm","State":"Hawaii","PrimSource":"solar","Total_MW":78,"Install_MW":78,"City":"Mililani","County":"Honolulu","Utility_Na":"Mililani I Solar LLC","Longitude":-158.01985,"Latitude":21.427916}},{"type":"Feature","geometry":{"type":"Point","coordinates":[-159.303055999709,22.1316669999286]},"properties":{"Plant_Name":"KRS I Anahola Solar Hybrid","State":"Hawaii","PrimSource":"solar","Total_MW":12,"Install_MW":12,"City":"Anahola","County":"Kauai","Utility_Na":"Kauai Island Utility Cooperative","Longitude":-159.303056,"Latitude":22.131667}},{"type":"Feature","geometry":{"type":"Point","coordinates":[-159.450000000113,21.9008329997341]},"properties":{"Plant_Name":"KRS II Koloa Solar","State":"Hawaii","PrimSource":"solar","Total_MW":12,"Install_MW":12,"City":"Koloa","County":"Kauai","Utility_Na":"Kauai Island Utility Cooperative","Longitude":-159.45,"Latitude":21.900833}},{"type":"Feature","geometry":{"type":"Point","coordinates":[-158.040000000279,21.3280560002533]},"properties":{"Plant_Name":"Kalaeloa Renewable Energy Park","State":"Hawaii","PrimSource":"solar","Total_MW":5,"Install_MW":5,"City":"Ewa Beach","County":"Honolulu","Utility_Na":"Hanwha Q CELLS USA","Longitude":-158.04,"Latitude":21.328056}},{"type":"Feature","geometry":{"type":"Point","coordinates":[-158.013332999928,21.4705560003912]},"properties":{"Plant_Name":"Waihonu North Solar","State":"Hawaii","PrimSource":"solar","Total_MW":5,"Install_MW":5,"City":"Mililani","County":"Honolulu","Utility_Na":"Waihonu North LLC","Longitude":-158.013333,"Latitude":21.470556}},{"type":"Feature","geometry":{"type":"Point","coordinates":[-158.016389000253,21.4688890000813]},"properties":{"Plant_Name":"Waihonu South Solar","State":"Hawaii","PrimSource":"solar","Total_MW":1.5,"Install_MW":1.5,"City":"Mililani","County":"Honolulu","Utility_Na":"Waihonu South LLC","Longitude":-158.016389,"Latitude":21.468889}},{"type":"Feature","geometry":{"type":"Point","coordinates":[-158.15138899974,21.4069439998542]},"properties":{"Plant_Name":"Aloha Solar Energy Fund 1 PK1","State":"Hawaii","PrimSource":"solar","Total_MW":5,"Install_MW":5,"City":"Waianae","County":"Honolulu","Utility_Na":"Altus Power America Management, LLC","Longitude":-158.151389,"Latitude":21.406944}},{"type":"Feature","geometry":{"type":"Point","coordinates":[-157.984443999655,21.679722000375]},"properties":{"Plant_Name":"Mauka FIT One","State":"Hawaii","PrimSource":"solar","Total_MW":3.5,"Install_MW":3.5,"City":"Kahuku","County":"Honolulu","Utility_Na":"Valta Energy","Longitude":-157.984444,"Latitude":21.679722}},{"type":"Feature","geometry":{"type":"Point","coordinates":[-157.96805599979,21.375556000205]},"properties":{"Plant_Name":"Pearl City Peninsula Solar Park","State":"Hawaii","PrimSource":"solar","Total_MW":1,"Install_MW":1,"City":"Honolulu","County":"Honolulu","Utility_Na":"Altus Power America Management, LLC","Longitude":-157.968056,"Latitude":21.375556}},{"type":"Feature","geometry":{"type":"Point","coordinates":[-158.117499999951,21.3211109997305]},"properties":{"Plant_Name":"Kapolei Solar Energy Park","State":"Hawaii","PrimSource":"solar","Total_MW":1,"Install_MW":1,"City":"Kapolei","County":"Honolulu","Utility_Na":"Altus Power America Management, LLC","Longitude":-158.1175,"Latitude":21.321111}},{"type":"Feature","geometry":{"type":"Point","coordinates":[-157.969999999879,21.6669440000722]},"properties":{"Plant_Name":"Na Pua Makani Wind Project","State":"Hawaii","PrimSource":"wind","Total_MW":27.6,"Install_MW":27.6,"City":"Kahuku","County":"Honolulu","Utility_Na":"Na Pua Makani Power Partners LLC","Longitude":-157.97,"Latitude":21.666944}},{"type":"Feature","geometry":{"type":"Point","coordinates":[-159.46055599971,21.9652779996839]},"properties":{"Plant_Name":"Biomass to Energy Facility, Kauai","State":"Hawaii","PrimSource":"biomass","Total_MW":8.5,"Install_MW":10.3,"City":"Koloa","County":"Kauai","Utility_Na":"Mahipapa LLC","Longitude":-159.460556,"Latitude":21.965278}},{"type":"Feature","geometry":{"type":"Point","coordinates":[-157.981999999974,21.4559999997404]},"properties":{"Plant_Name":"Waipio Solar","State":"Hawaii","PrimSource":"solar","Total_MW":45.9,"Install_MW":45.9,"City":"Waipio","County":"Honolulu","Utility_Na":"Waipio PV, LLC","Longitude":-157.982,"Latitude":21.456}},{"type":"Feature","geometry":{"type":"Point","coordinates":[-158.054999999723,21.6240000001082]},"properties":{"Plant_Name":"Kawailoa Solar","State":"Hawaii","PrimSource":"solar","Total_MW":49,"Install_MW":49,"City":"Haleiwa","County":"Honolulu","Utility_Na":"Kawailoa Solar, LLC","Longitude":-158.055,"Latitude":21.624}},{"type":"Feature","geometry":{"type":"Point","coordinates":[-158.058100000428,21.4785000001037]},"properties":{"Plant_Name":"Schofield Generating Station","State":"Hawaii","PrimSource":"biomass","Total_MW":50.4,"Install_MW":50.4,"City":"Schofield Barracks","County":"Honolulu","Utility_Na":"Hawaiian Electric Co Inc","Longitude":-158.0581,"Latitude":21.4785}},{"type":"Feature","geometry":{"type":"Point","coordinates":[-159.379193999799,21.9972719997668]},"properties":{"Plant_Name":"KIUC Kapaia PV and BA Storage Project Hy","State":"Hawaii","PrimSource":"solar","Total_MW":26,"Install_MW":28,"City":"Lihue","County":"Kauai","Utility_Na":"Tesla Inc.","Longitude":-159.379194,"Latitude":21.997272}},{"type":"Feature","geometry":{"type":"Point","coordinates":[-159.491974000054,21.908230000394]},"properties":{"Plant_Name":"AES Lawai Solar Hybrid","State":"Hawaii","PrimSource":"solar","Total_MW":40,"Install_MW":40,"City":"Lawai","County":"Kauai","Utility_Na":"AES Distributed Energy","Longitude":-159.491974,"Latitude":21.90823}},{"type":"Feature","geometry":{"type":"Point","coordinates":[-156.433899999947,20.7937000003722]},"properties":{"Plant_Name":"Kihei Solar Farm","State":"Hawaii","PrimSource":"solar","Total_MW":2.9,"Install_MW":2.9,"City":"Kihei","County":"Maui","Utility_Na":"South Maui Renewable Resources LLC","Longitude":-156.4339,"Latitude":20.7937}},{"type":"Feature","geometry":{"type":"Point","coordinates":[-156.657888999738,20.8860130002568]},"properties":{"Plant_Name":"Ku'ia Solar","State":"Hawaii","PrimSource":"solar","Total_MW":2.9,"Install_MW":2.9,"City":"Lahaina","County":"Maui","Utility_Na":"Ku'ia Solar LLC","Longitude":-156.657889,"Latitude":20.886013}},{"type":"Feature","geometry":{"type":"Point","coordinates":[-158.18788799979,21.4520020003127]},"properties":{"Plant_Name":"EE Waianae Solar Project","State":"Hawaii","PrimSource":"solar","Total_MW":27.6,"Install_MW":28.3,"City":"Waianae","County":"Honolulu","Utility_Na":"EE Waianae Solar Project LLC","Longitude":-158.187888,"Latitude":21.452002}},{"type":"Feature","geometry":{"type":"Point","coordinates":[-159.762100000323,22.0006000003238]},"properties":{"Plant_Name":"AES Kekaha Solar, LLC Hybrid","State":"Hawaii","PrimSource":"solar","Total_MW":28,"Install_MW":28,"City":"Kekaha","County":"Kauai","Utility_Na":"AES Distributed Energy","Longitude":-159.7621,"Latitude":22.0006}},{"type":"Feature","geometry":{"type":"Point","coordinates":[-158.015083999673,21.3403390003708]},"properties":{"Plant_Name":"West Loch Solar One","State":"Hawaii","PrimSource":"solar","Total_MW":20,"Install_MW":20,"City":"Ewa Beach","County":"Honolulu","Utility_Na":"Hawaiian Electric Co Inc","Longitude":-158.015084,"Latitude":21.340339}},{"type":"Feature","geometry":{"type":"Point","coordinates":[-157.985594000424,21.3635139998552]},"properties":{"Plant_Name":"Waipio Peninsula","State":"Hawaii","PrimSource":"solar","Total_MW":10.2,"Install_MW":11,"City":"Waipio","County":"Honolulu","Utility_Na":"Pacific Energy Solutions, LLC","Longitude":-157.985594,"Latitude":21.363514}},{"type":"Feature","geometry":{"type":"Point","coordinates":[-156.485000000131,20.8438999997451]},"properties":{"Plant_Name":"AES Maui Kuihelani Solar Hybrid","State":"Hawaii","PrimSource":"solar","Total_MW":120,"Install_MW":120,"City":"Waikapu","County":"Maui","Utility_Na":"AES Distributed Energy","Longitude":-156.485,"Latitude":20.8439}},{"type":"Feature","geometry":{"type":"Point","coordinates":[-157.925055999827,21.6407739997421]},"properties":{"Plant_Name":"BYU - Hawaii","State":"Hawaii","PrimSource":"solar","Total_MW":5,"Install_MW":5,"City":"Laie","County":"Honolulu","Utility_Na":"SkyHigh 2 Solar","Longitude":-157.925056,"Latitude":21.640774}},{"type":"Feature","geometry":{"type":"Point","coordinates":[-158.105210000327,21.3284030001547]},"properties":{"Plant_Name":"Kapolei Energy Storage","State":"Hawaii","PrimSource":"batteries","Total_MW":185,"Install_MW":185,"City":"Kapolei","County":"Honolulu","Utility_Na":"Kapolei Energy Storage I, LLC","Longitude":-158.10521,"Latitude":21.328403}},{"type":"Feature","geometry":{"type":"Point","coordinates":[-155.763999999789,19.9019999999799]},"properties":{"Plant_Name":"AES Waikoloa Solar Hybrid","State":"Hawaii","PrimSource":"solar","Total_MW":60,"Install_MW":60,"City":"Waikoloa Village","County":"Hawaii","Utility_Na":"AES Distributed Energy","Longitude":-155.764,"Latitude":19.902}},{"type":"Feature","geometry":{"type":"Point","coordinates":[-158.062000000302,21.371999999775]},"properties":{"Plant_Name":"AES West Oahu Solar Hybrid","State":"Hawaii","PrimSource":"solar","Total_MW":25,"Install_MW":25,"City":"Waipahu","County":"Honolulu","Utility_Na":"AES Distributed Energy","Longitude":-158.062,"Latitude":21.372}},{"type":"Feature","geometry":{"type":"Point","coordinates":[-157.97069399964,21.420069000052]},"properties":{"Plant_Name":"Waiawa Solar Power Hybrid","State":"Hawaii","PrimSource":"solar","Total_MW":72,"Install_MW":72,"City":"Waipahu","County":"Honolulu","Utility_Na":"Waiawa Solar Power LLC","Longitude":-157.970694,"Latitude":21.420069}},{"type":"Feature","geometry":{"type":"Point","coordinates":[-156.474816000079,20.8619900002119]},"properties":{"Plant_Name":"Kuihelani Substation","State":"Hawaii","PrimSource":"petroleum","Total_MW":1,"Install_MW":1,"City":" ","County":" ","Utility_Na":"Maui Electric Co Ltd","Longitude":-156.474816,"Latitude":20.86199}},{"type":"Feature","geometry":{"type":"Point","coordinates":[-155.008718000196,19.6568510000464]},"properties":{"Plant_Name":"Mauna Loa Macadamia Nut","State":"Hawaii","PrimSource":"solar","Total_MW":1.3,"Install_MW":1.3,"City":" ","County":" ","Utility_Na":"Macadamia Nut Road Solar Project 2019","Longitude":-155.008718,"Latitude":19.656851}}]}