{"type":"FeatureCollection","features":[{"type":"Feature","geometry":{"type":"Point","coordinates":[-160.4972,55.3397]},"properties":{"Plant_Name":"Sand Point","State":"Alaska","PrimSource":"petroleum","Total_MW":1.7,"Utility_Na":"Sand Point Generating, LLC","City":"Sand Point"}},{"type":"Feature","geometry":{"type":"Point","coordinates":[-134.101,58.3176]},"properties":{"Plant_Name":"Annex Creek","State":"Alaska","PrimSource":"hydroelectric","Total_MW":3.6,"Utility_Na":"Alaska Electric Light & Power Co.","City":"Juneau"}},{"type":"Feature","geometry":{"type":"Point","coordinates":[-134.4174,58.3107]},"properties":{"Plant_Name":"Gold Creek","State":"Alaska","PrimSource":"petroleum","Total_MW":9.7,"Utility_Na":"Alaska Electric Light & Power Co.","City":"Juneau"}},{"type":"Feature","geometry":{"type":"Point","coordinates":[-134.4953,58.3536]},"properties":{"Plant_Name":"Lemon Creek","State":"Alaska","PrimSource":"petroleum","Total_MW":57.5,"Utility_Na":"Alaska Electric Light & Power Co.","City":"Juneau"}},{"type":"Feature","geometry":{"type":"Point","coordinates":[-134.4631,58.3269]},"properties":{"Plant_Name":"Salmon Creek 1","State":"Alaska","PrimSource":"hydroelectric","Total_MW":5.2,"Utility_Na":"Alaska Electric Light & Power Co.","City":"Juneau"}},{"type":"Feature","geometry":{"type":"Point","coordinates":[-135.3131,59.4545]},"properties":{"Plant_Name":"Skagway","State":"Alaska","PrimSource":"petroleum","Total_MW":5.1,"Utility_Na":"Alaska Power and Telephone Co","City":"Skagway"}},{"type":"Feature","geometry":{"type":"Point","coordinates":[-135.4462,59.2359]},"properties":{"Plant_Name":"Haines","State":"Alaska","PrimSource":"petroleum","Total_MW":8.4,"Utility_Na":"Alaska Power and Telephone Co","City":"Haines"}},{"type":"Feature","geometry":{"type":"Point","coordinates":[-131.3561,55.6152]},"properties":{"Plant_Name":"Swan Lake","State":"Alaska","PrimSource":"hydroelectric","Total_MW":22.6,"Utility_Na":"Southeast Alaska Power Agency","City":"Ketchikan"}},{"type":"Feature","geometry":{"type":"Point","coordinates":[-152.895,57.6861]},"properties":{"Plant_Name":"Terror Lake Microgrid","State":"Alaska","PrimSource":"hydroelectric","Total_MW":33.6,"Utility_Na":"Kodiak Electric Assn Inc","City":"Kodiak"}},{"type":"Feature","geometry":{"type":"Point","coordinates":[-149.8661,61.2221]},"properties":{"Plant_Name":"Hank Nikkels Plant 1","State":"Alaska","PrimSource":"natural gas","Total_MW":62.4,"Utility_Na":"Chugach Electric Assn Inc","City":"Anchorage"}},{"type":"Feature","geometry":{"type":"Point","coordinates":[-149.1501,61.4752]},"properties":{"Plant_Name":"Eklutna Hydro Project","State":"Alaska","PrimSource":"hydroelectric","Total_MW":44.4,"Utility_Na":"Chugach Electric Assn Inc","City":"Palmer"}},{"type":"Feature","geometry":{"type":"Point","coordinates":[-133.737,58.1415]},"properties":{"Plant_Name":"Snettisham","State":"Alaska","PrimSource":"hydroelectric","Total_MW":78,"Utility_Na":"Alaska Electric Light & Power Co.","City":"Juneau"}},{"type":"Feature","geometry":{"type":"Point","coordinates":[-147.7351,64.8477]},"properties":{"Plant_Name":"Chena Power Plant","State":"Alaska","PrimSource":"coal","Total_MW":25.7,"Utility_Na":"Aurora Energy LLC","City":"Fairbanks"}},{"type":"Feature","geometry":{"type":"Point","coordinates":[-131.6334,55.3446]},"properties":{"Plant_Name":"Ketchikan","State":"Alaska","PrimSource":"hydroelectric","Total_MW":4.2,"Utility_Na":"Ketchikan Public Utilities","City":"Ketchikan"}},{"type":"Feature","geometry":{"type":"Point","coordinates":[-131.697,55.3574]},"properties":{"Plant_Name":"S W Bailey","State":"Alaska","PrimSource":"petroleum","Total_MW":23,"Utility_Na":"Ketchikan Public Utilities","City":"Ketchikan"}},{"type":"Feature","geometry":{"type":"Point","coordinates":[-165.4298,64.5053]},"properties":{"Plant_Name":"Snake River","State":"Alaska","PrimSource":"petroleum","Total_MW":18.2,"Utility_Na":"Nome Joint Utility Systems","City":"Nome"}},{"type":"Feature","geometry":{"type":"Point","coordinates":[-132.9571,56.811]},"properties":{"Plant_Name":"Petersburg","State":"Alaska","PrimSource":"petroleum","Total_MW":12.6,"Utility_Na":"Petersburg Borough - (AK)","City":"Petersburg"}},{"type":"Feature","geometry":{"type":"Point","coordinates":[-149.435,60.1309]},"properties":{"Plant_Name":"Seward (AK)","State":"Alaska","PrimSource":"petroleum","Total_MW":15.6,"Utility_Na":"City of Seward - (AK)","City":"Seward"}},{"type":"Feature","geometry":{"type":"Point","coordinates":[-135.2297,57.0516]},"properties":{"Plant_Name":"Blue Lake Hydro","State":"Alaska","PrimSource":"hydroelectric","Total_MW":15.9,"Utility_Na":"City & Borough of Sitka - (AK)","City":"Sitka"}},{"type":"Feature","geometry":{"type":"Point","coordinates":[-132.3794,56.461]},"properties":{"Plant_Name":"Wrangell","State":"Alaska","PrimSource":"petroleum","Total_MW":12,"Utility_Na":"City of Wrangell - (AK)","City":"Wrangell"}},{"type":"Feature","geometry":{"type":"Point","coordinates":[-151.0356,61.1861]},"properties":{"Plant_Name":"Beluga","State":"Alaska","PrimSource":"natural gas","Total_MW":300.4,"Utility_Na":"Chugach Electric Assn Inc","City":"Beluga"}},{"type":"Feature","geometry":{"type":"Point","coordinates":[-158.4686,59.0429]},"properties":{"Plant_Name":"Dillingham","State":"Alaska","PrimSource":"petroleum","Total_MW":11,"Utility_Na":"Nushagak Electric Coop, Inc","City":"Dillingham"}},{"type":"Feature","geometry":{"type":"Point","coordinates":[-135.1228,56.9863]},"properties":{"Plant_Name":"Green Lake","State":"Alaska","PrimSource":"hydroelectric","Total_MW":18.6,"Utility_Na":"City & Borough of Sitka - (AK)","City":"Sitka"}},{"type":"Feature","geometry":{"type":"Point","coordinates":[-146.3033,61.0828]},"properties":{"Plant_Name":"Solomon Gulch","State":"Alaska","PrimSource":"hydroelectric","Total_MW":12,"Utility_Na":"Copper Valley Elec Assn, Inc","City":"Valdez"}},{"type":"Feature","geometry":{"type":"Point","coordinates":[-143.0,63.3355]},"properties":{"Plant_Name":"Tok","State":"Alaska","PrimSource":"petroleum","Total_MW":7.9,"Utility_Na":"Alaska Power and Telephone Co","City":"Tok"}},{"type":"Feature","geometry":{"type":"Point","coordinates":[-133.1487,55.4769]},"properties":{"Plant_Name":"Craig (AK)","State":"Alaska","PrimSource":"petroleum","Total_MW":2.8,"Utility_Na":"Alaska Power and Telephone Co","City":"Craig"}},{"type":"Feature","geometry":{"type":"Point","coordinates":[-132.8214,55.2049]},"properties":{"Plant_Name":"Hydaburg","State":"Alaska","PrimSource":"petroleum","Total_MW":0.7,"Utility_Na":"Alaska Power and Telephone Co","City":"Prince of Wales"}},{"type":"Feature","geometry":{"type":"Point","coordinates":[-145.753,60.5559]},"properties":{"Plant_Name":"Orca","State":"Alaska","PrimSource":"petroleum","Total_MW":8.7,"Utility_Na":"Cordova Electric Coop, Inc","City":"Cordova"}},{"type":"Feature","geometry":{"type":"Point","coordinates":[-152.397,57.79]},"properties":{"Plant_Name":"Kodiak Microgrid","State":"Alaska","PrimSource":"petroleum","Total_MW":18.3,"Utility_Na":"Kodiak Electric Assn Inc","City":"Kodiak"}},{"type":"Feature","geometry":{"type":"Point","coordinates":[-152.8554,57.8648]},"properties":{"Plant_Name":"Port Lions Microgrid","State":"Alaska","PrimSource":"petroleum","Total_MW":0.5,"Utility_Na":"Kodiak Electric Assn Inc","City":"Port Lions"}},{"type":"Feature","geometry":{"type":"Point","coordinates":[-151.7134,59.4395]},"properties":{"Plant_Name":"Seldovia","State":"Alaska","PrimSource":"petroleum","Total_MW":2.2,"Utility_Na":"Homer Electric Assn Inc","City":"Seldovia"}},{"type":"Feature","geometry":{"type":"Point","coordinates":[-147.3481,64.7356]},"properties":{"Plant_Name":"North Pole","State":"Alaska","PrimSource":"petroleum","Total_MW":145,"Utility_Na":"Golden Valley Elec Assn Inc","City":"North Pole"}},{"type":"Feature","geometry":{"type":"Point","coordinates":[-147.7194,64.8542]},"properties":{"Plant_Name":"Fairbanks","State":"Alaska","PrimSource":"petroleum","Total_MW":36.1,"Utility_Na":"Golden Valley Elec Assn Inc","City":"Fairbanks"}},{"type":"Feature","geometry":{"type":"Point","coordinates":[-148.95,63.8542]},"properties":{"Plant_Name":"Healy","State":"Alaska","PrimSource":"coal","Total_MW":77.8,"Utility_Na":"Golden Valley Elec Assn Inc","City":"Healy"}},{"type":"Feature","geometry":{"type":"Point","coordinates":[-149.6656,60.3923]},"properties":{"Plant_Name":"Cooper Lake","State":"Alaska","PrimSource":"hydroelectric","Total_MW":19.4,"Utility_Na":"Chugach Electric Assn Inc","City":"Cooper Landing"}},{"type":"Feature","geometry":{"type":"Point","coordinates":[-151.3874,60.6935]},"properties":{"Plant_Name":"Bernice Lake","State":"Alaska","PrimSource":"natural gas","Total_MW":62.4,"Utility_Na":"Homer Electric Assn Inc","City":"Nikiski"}},{"type":"Feature","geometry":{"type":"Point","coordinates":[-160.7904,63.8768]},"properties":{"Plant_Name":"Unalakleet","State":"Alaska","PrimSource":"petroleum","Total_MW":1.6,"Utility_Na":"Unalakleet Valley Elec Coop","City":"Unalakleet"}},{"type":"Feature","geometry":{"type":"Point","coordinates":[-157.0072,58.7304]},"properties":{"Plant_Name":"Naknek","State":"Alaska","PrimSource":"petroleum","Total_MW":15.9,"Utility_Na":"Naknek Electric Assn, Inc","City":"Naknek"}},{"type":"Feature","geometry":{"type":"Point","coordinates":[-131.545,55.0913]},"properties":{"Plant_Name":"Purple Lake","State":"Alaska","PrimSource":"hydroelectric","Total_MW":3.9,"Utility_Na":"Metlakatla Power & Light","City":"Metlakatla"}},{"type":"Feature","geometry":{"type":"Point","coordinates":[-162.5569,66.8378]},"properties":{"Plant_Name":"Kotzebue Hybrid","State":"Alaska","PrimSource":"petroleum","Total_MW":18,"Utility_Na":"Kotzebue Electric Assn Inc","City":"Kotzebue"}},{"type":"Feature","geometry":{"type":"Point","coordinates":[-145.5325,62.1104]},"properties":{"Plant_Name":"Glennallen","State":"Alaska","PrimSource":"petroleum","Total_MW":9,"Utility_Na":"Copper Valley Elec Assn, Inc","City":"Glennallen"}},{"type":"Feature","geometry":{"type":"Point","coordinates":[-146.3647,61.1303]},"properties":{"Plant_Name":"Valdez","State":"Alaska","PrimSource":"petroleum","Total_MW":7.5,"Utility_Na":"Copper Valley Elec Assn, Inc","City":"Valdez"}},{"type":"Feature","geometry":{"type":"Point","coordinates":[-165.5902,61.5253]},"properties":{"Plant_Name":"Chevak","State":"Alaska","PrimSource":"petroleum","Total_MW":1.8,"Utility_Na":"Alaska Village Elec Coop, Inc","City":"Chevak"}},{"type":"Feature","geometry":{"type":"Point","coordinates":[-164.5315,62.7777]},"properties":{"Plant_Name":"Emmonak","State":"Alaska","PrimSource":"petroleum","Total_MW":1.4,"Utility_Na":"Alaska Village Elec Coop, Inc","City":"Emmonak"}},{"type":"Feature","geometry":{"type":"Point","coordinates":[-166.1019,61.5309]},"properties":{"Plant_Name":"Hooper Bay","State":"Alaska","PrimSource":"petroleum","Total_MW":2.2,"Utility_Na":"Alaska Village Elec Coop, Inc","City":"Hooper Bay"}},{"type":"Feature","geometry":{"type":"Point","coordinates":[-160.4286,66.9739]},"properties":{"Plant_Name":"Kiana","State":"Alaska","PrimSource":"petroleum","Total_MW":1.3,"Utility_Na":"Alaska Village Elec Coop, Inc","City":"Kiana"}},{"type":"Feature","geometry":{"type":"Point","coordinates":[-163.7291,62.0856]},"properties":{"Plant_Name":"Mountain Village","State":"Alaska","PrimSource":"petroleum","Total_MW":1.8,"Utility_Na":"Alaska Village Elec Coop, Inc","City":"Mountain Village"}},{"type":"Feature","geometry":{"type":"Point","coordinates":[-161.0387,66.8345]},"properties":{"Plant_Name":"Noorvik","State":"Alaska","PrimSource":"petroleum","Total_MW":1.9,"Utility_Na":"Alaska Village Elec Coop, Inc","City":"Noorvik"}},{"type":"Feature","geometry":{"type":"Point","coordinates":[-162.4598,60.8959]},"properties":{"Plant_Name":"Nunapitchuk","State":"Alaska","PrimSource":"petroleum","Total_MW":0.5,"Utility_Na":"Alaska Village Elec Coop, Inc","City":"Nunapitchuk"}},{"type":"Feature","geometry":{"type":"Point","coordinates":[-163.1726,62.0515]},"properties":{"Plant_Name":"St Marys IC","State":"Alaska","PrimSource":"petroleum","Total_MW":4.6,"Utility_Na":"Alaska Village Elec Coop, Inc","City":"St. Mary's"}},{"type":"Feature","geometry":{"type":"Point","coordinates":[-160.0148,66.6068]},"properties":{"Plant_Name":"Selawik","State":"Alaska","PrimSource":"petroleum","Total_MW":1.8,"Utility_Na":"Alaska Village Elec Coop, Inc","City":"Selawik"}},{"type":"Feature","geometry":{"type":"Point","coordinates":[-166.0736,66.2551]},"properties":{"Plant_Name":"Shishmaref","State":"Alaska","PrimSource":"petroleum","Total_MW":1.5,"Utility_Na":"Alaska Village Elec Coop, Inc","City":"Shishmaref"}},{"type":"Feature","geometry":{"type":"Point","coordinates":[-160.3803,59.0597]},"properties":{"Plant_Name":"Togiak","State":"Alaska","PrimSource":"petroleum","Total_MW":2.8,"Utility_Na":"Alaska Village Elec Coop, Inc","City":"Togiak"}},{"type":"Feature","geometry":{"type":"Point","coordinates":[-155.595,62.957]},"properties":{"Plant_Name":"McGrath","State":"Alaska","PrimSource":"petroleum","Total_MW":1.6,"Utility_Na":"McGrath Light & Power Co","City":"McGrath"}},{"type":"Feature","geometry":{"type":"Point","coordinates":[-149.7167,61.2297]},"properties":{"Plant_Name":"George M Sullivan Generation Plant 2","State":"Alaska","PrimSource":"natural gas","Total_MW":309.3,"Utility_Na":"Chugach Electric Assn Inc","City":"Anchorage"}},{"type":"Feature","geometry":{"type":"Point","coordinates":[-161.7878,60.7897]},"properties":{"Plant_Name":"Bethel","State":"Alaska","PrimSource":"petroleum","Total_MW":10.8,"Utility_Na":"Alaska Village Elec Coop, Inc","City":"Bethel"}},{"type":"Feature","geometry":{"type":"Point","coordinates":[-131.4703,55.3798]},"properties":{"Plant_Name":"Beaver Falls","State":"Alaska","PrimSource":"hydroelectric","Total_MW":5.4,"Utility_Na":"Ketchikan Public Utilities","City":"Ketchikan"}},{"type":"Feature","geometry":{"type":"Point","coordinates":[-131.5178,55.3814]},"properties":{"Plant_Name":"Silvis","State":"Alaska","PrimSource":"hydroelectric","Total_MW":2.1,"Utility_Na":"Ketchikan Public Utilities","City":"Ketchikan"}},{"type":"Feature","geometry":{"type":"Point","coordinates":[-139.7243,59.5446]},"properties":{"Plant_Name":"Yakutat","State":"Alaska","PrimSource":"petroleum","Total_MW":3.8,"Utility_Na":"Alaska Village Elec Coop, Inc","City":"Yakutat"}},{"type":"Feature","geometry":{"type":"Point","coordinates":[-136.2201,57.9572]},"properties":{"Plant_Name":"Pelican","State":"Alaska","PrimSource":"hydroelectric","Total_MW":1.6,"Utility_Na":"Pelican Utility","City":"Pelican"}},{"type":"Feature","geometry":{"type":"Point","coordinates":[-135.3128,57.0497]},"properties":{"Plant_Name":"Jarvis Street","State":"Alaska","PrimSource":"petroleum","Total_MW":25.1,"Utility_Na":"City & Borough of Sitka - (AK)","City":"Sitka"}},{"type":"Feature","geometry":{"type":"Point","coordinates":[-145.6794,60.6128]},"properties":{"Plant_Name":"Humpback Creek","State":"Alaska","PrimSource":"hydroelectric","Total_MW":1,"Utility_Na":"Cordova Electric Coop, Inc","City":"Cordova"}},{"type":"Feature","geometry":{"type":"Point","coordinates":[-131.5603,55.1214]},"properties":{"Plant_Name":"Centennial","State":"Alaska","PrimSource":"petroleum","Total_MW":1.8,"Utility_Na":"Metlakatla Power & Light","City":"Metlakatla"}},{"type":"Feature","geometry":{"type":"Point","coordinates":[-131.5459,55.1169]},"properties":{"Plant_Name":"Chester Lake","State":"Alaska","PrimSource":"hydroelectric","Total_MW":1.2,"Utility_Na":"Metlakatla Power & Light","City":"Metlakatla"}},{"type":"Feature","geometry":{"type":"Point","coordinates":[-141.9372,62.9617]},"properties":{"Plant_Name":"Northway","State":"Alaska","PrimSource":"petroleum","Total_MW":0.9,"Utility_Na":"Alaska Power and Telephone Co","City":"Tok"}},{"type":"Feature","geometry":{"type":"Point","coordinates":[-156.7786,71.292]},"properties":{"Plant_Name":"Barrow","State":"Alaska","PrimSource":"natural gas","Total_MW":17.3,"Utility_Na":"Barrow Utils & Elec Coop, Inc","City":"Barrow"}},{"type":"Feature","geometry":{"type":"Point","coordinates":[-145.2531,66.5663]},"properties":{"Plant_Name":"Gwitchyaa Zhee","State":"Alaska","PrimSource":"petroleum","Total_MW":1.2,"Utility_Na":"Gwitchyaa Zhee Utility Co","City":"Fort Yukon"}},{"type":"Feature","geometry":{"type":"Point","coordinates":[-159.5356,61.5807]},"properties":{"Plant_Name":"Aniak","State":"Alaska","PrimSource":"petroleum","Total_MW":1.7,"Utility_Na":"Aniak Light & Power Co Inc","City":"Aniak"}},{"type":"Feature","geometry":{"type":"Point","coordinates":[-154.6987,59.8991]},"properties":{"Plant_Name":"Newhalen","State":"Alaska","PrimSource":"petroleum","Total_MW":1.7,"Utility_Na":"I-N-N Electric Coop, Inc","City":"Iliamna"}},{"type":"Feature","geometry":{"type":"Point","coordinates":[-134.6446,58.3875]},"properties":{"Plant_Name":"Auke Bay","State":"Alaska","PrimSource":"petroleum","Total_MW":28.3,"Utility_Na":"Alaska Electric Light & Power Co.","City":"Juneau"}},{"type":"Feature","geometry":{"type":"Point","coordinates":[-147.076,64.6714]},"properties":{"Plant_Name":"Eielson AFB Central Heat & Power Plant","State":"Alaska","PrimSource":"coal","Total_MW":24.6,"Utility_Na":"U S Air Force-Eielson AFB","City":"Eielson AFB"}},{"type":"Feature","geometry":{"type":"Point","coordinates":[-147.8221,64.8542]},"properties":{"Plant_Name":"University of Alaska Fairbanks","State":"Alaska","PrimSource":"coal","Total_MW":35.7,"Utility_Na":"University of Alaska","City":"Fairbanks"}},{"type":"Feature","geometry":{"type":"Point","coordinates":[-151.3815,60.677]},"properties":{"Plant_Name":"Tesoro Kenai Cogeneration Plant","State":"Alaska","PrimSource":"natural gas","Total_MW":8.4,"Utility_Na":"Tesoro Alaska Company LLC","City":"Kenai"}},{"type":"Feature","geometry":{"type":"Point","coordinates":[-166.5529,53.8585]},"properties":{"Plant_Name":"Westward Seafoods","State":"Alaska","PrimSource":"petroleum","Total_MW":6.6,"Utility_Na":"Westward Seafoods Inc","City":"Dutch Harbor"}},{"type":"Feature","geometry":{"type":"Point","coordinates":[-150.9402,59.7786]},"properties":{"Plant_Name":"Bradley Lake","State":"Alaska","PrimSource":"hydroelectric","Total_MW":126,"Utility_Na":"Homer Electric Assn Inc","City":"Homer"}},{"type":"Feature","geometry":{"type":"Point","coordinates":[-132.5289,55.6859]},"properties":{"Plant_Name":"Thorne Bay Plant","State":"Alaska","PrimSource":"petroleum","Total_MW":1,"Utility_Na":"Alaska Power and Telephone Co","City":"Craig"}},{"type":"Feature","geometry":{"type":"Point","coordinates":[-156.8736,64.7442]},"properties":{"Plant_Name":"Galena Electric Utility","State":"Alaska","PrimSource":"petroleum","Total_MW":3.1,"Utility_Na":"Galena Electric Utility","City":"Galena"}},{"type":"Feature","geometry":{"type":"Point","coordinates":[-134.5861,57.4992]},"properties":{"Plant_Name":"Angoon","State":"Alaska","PrimSource":"petroleum","Total_MW":1.5,"Utility_Na":"Inside Passage Elec Coop, Inc","City":"Angoon"}},{"type":"Feature","geometry":{"type":"Point","coordinates":[-135.4307,58.1064]},"properties":{"Plant_Name":"Hoonah","State":"Alaska","PrimSource":"petroleum","Total_MW":2,"Utility_Na":"Inside Passage Elec Coop, Inc","City":"Hoonah"}},{"type":"Feature","geometry":{"type":"Point","coordinates":[-133.9226,56.963]},"properties":{"Plant_Name":"Kake","State":"Alaska","PrimSource":"petroleum","Total_MW":3.1,"Utility_Na":"Inside Passage Elec Coop, Inc","City":"Kake"}},{"type":"Feature","geometry":{"type":"Point","coordinates":[-157.4252,70.4826]},"properties":{"Plant_Name":"NSB Atqasuk Utility","State":"Alaska","PrimSource":"petroleum","Total_MW":3.2,"Utility_Na":"North Slope Borough Power & Light","City":"Atqasuk"}},{"type":"Feature","geometry":{"type":"Point","coordinates":[-143.619,70.1256]},"properties":{"Plant_Name":"NSB Kaktovik Utility","State":"Alaska","PrimSource":"petroleum","Total_MW":2.6,"Utility_Na":"North Slope Borough Power & Light","City":"Kaktovik"}},{"type":"Feature","geometry":{"type":"Point","coordinates":[-150.9935,70.2206]},"properties":{"Plant_Name":"NSB Nuiqsut Utility","State":"Alaska","PrimSource":"natural gas","Total_MW":4.4,"Utility_Na":"North Slope Borough Power & Light","City":"Nuiqsut"}},{"type":"Feature","geometry":{"type":"Point","coordinates":[-166.7372,68.3484]},"properties":{"Plant_Name":"NSB Point Hope Utility","State":"Alaska","PrimSource":"petroleum","Total_MW":3.1,"Utility_Na":"North Slope Borough Power & Light","City":"Pt Hope"}},{"type":"Feature","geometry":{"type":"Point","coordinates":[-163.0058,69.7408]},"properties":{"Plant_Name":"NSB Point Lay Utility","State":"Alaska","PrimSource":"petroleum","Total_MW":2.4,"Utility_Na":"North Slope Borough Power & Light","City":"PT Lay"}},{"type":"Feature","geometry":{"type":"Point","coordinates":[-151.741,68.138]},"properties":{"Plant_Name":"NSB Anaktuvuk Pass","State":"Alaska","PrimSource":"petroleum","Total_MW":2.7,"Utility_Na":"North Slope Borough Power & Light","City":"Anaktuvuk Pass"}},{"type":"Feature","geometry":{"type":"Point","coordinates":[-160.0205,70.6429]},"properties":{"Plant_Name":"NSB Wainwright Utility","State":"Alaska","PrimSource":"petroleum","Total_MW":3,"Utility_Na":"North Slope Borough Power & Light","City":"Wainwright"}},{"type":"Feature","geometry":{"type":"Point","coordinates":[-162.3103,55.0617]},"properties":{"Plant_Name":"King Cove","State":"Alaska","PrimSource":"hydroelectric","Total_MW":2.7,"Utility_Na":"City of King Cove","City":"King Cove"}},{"type":"Feature","geometry":{"type":"Point","coordinates":[-166.5382,53.8925]},"properties":{"Plant_Name":"Dutch Harbor","State":"Alaska","PrimSource":"petroleum","Total_MW":18.4,"Utility_Na":"City of Unalaska - (AK)","City":"Dutch Harbor"}},{"type":"Feature","geometry":{"type":"Point","coordinates":[-166.5126,53.864]},"properties":{"Plant_Name":"Unalaska Power Module","State":"Alaska","PrimSource":"petroleum","Total_MW":0.8,"Utility_Na":"City of Unalaska - (AK)","City":"Unalaska"}},{"type":"Feature","geometry":{"type":"Point","coordinates":[-152.507,57.7316]},"properties":{"Plant_Name":"Nymans Plant Microgrid","State":"Alaska","PrimSource":"petroleum","Total_MW":9.8,"Utility_Na":"Kodiak Electric Assn Inc","City":"Kodiak"}},{"type":"Feature","geometry":{"type":"Point","coordinates":[-135.2123,59.5357]},"properties":{"Plant_Name":"Goat Lake Hydro","State":"Alaska","PrimSource":"hydroelectric","Total_MW":4,"Utility_Na":"Alaska Power and Telephone Co","City":"Skagway"}},{"type":"Feature","geometry":{"type":"Point","coordinates":[-133.1477,55.4765]},"properties":{"Plant_Name":"Black Bear Lake","State":"Alaska","PrimSource":"hydroelectric","Total_MW":4.5,"Utility_Na":"Alaska Power and Telephone Co","City":"Craig"}},{"type":"Feature","geometry":{"type":"Point","coordinates":[-146.2529,61.0839]},"properties":{"Plant_Name":"Valdez Cogen","State":"Alaska","PrimSource":"petroleum","Total_MW":5.1,"Utility_Na":"Copper Valley Elec Assn, Inc","City":"Valdez"}},{"type":"Feature","geometry":{"type":"Point","coordinates":[-145.6045,60.5887]},"properties":{"Plant_Name":"Power Creek","State":"Alaska","PrimSource":"hydroelectric","Total_MW":5.6,"Utility_Na":"Cordova Electric Coop, Inc","City":"Cordova"}},{"type":"Feature","geometry":{"type":"Point","coordinates":[-147.6486,64.8256]},"properties":{"Plant_Name":"Utility Plants Section","State":"Alaska","PrimSource":"coal","Total_MW":22.1,"Utility_Na":"Doyon Utilities - Ft. Wainwright","City":"Fort Wainwright"}},{"type":"Feature","geometry":{"type":"Point","coordinates":[-166.5532,53.8796]},"properties":{"Plant_Name":"Unisea G 2","State":"Alaska","PrimSource":"petroleum","Total_MW":15.5,"Utility_Na":"Unisea Inc","City":"Dutch Harbor"}},{"type":"Feature","geometry":{"type":"Point","coordinates":[-151.3784,60.6732]},"properties":{"Plant_Name":"Nutrien Kenai Nitrogen Operations","State":"Alaska","PrimSource":"natural gas","Total_MW":12.5,"Utility_Na":"Nutrien US LLC","City":"Kenai"}},{"type":"Feature","geometry":{"type":"Point","coordinates":[-145.7166,63.9736]},"properties":{"Plant_Name":"Fort Greely Power Plant","State":"Alaska","PrimSource":"petroleum","Total_MW":7.4,"Utility_Na":"Doyon Utilities - Fort Greely","City":"Delta Jct"}},{"type":"Feature","geometry":{"type":"Point","coordinates":[-151.3777,60.6765]},"properties":{"Plant_Name":"Nikiski Combined Cycle","State":"Alaska","PrimSource":"natural gas","Total_MW":75.9,"Utility_Na":"Homer Electric Assn Inc","City":"Nikiski"}},{"type":"Feature","geometry":{"type":"Point","coordinates":[-133.1345,55.4892]},"properties":{"Plant_Name":"False Island","State":"Alaska","PrimSource":"petroleum","Total_MW":3.8,"Utility_Na":"Alaska Power and Telephone Co","City":"Thorne Bay"}},{"type":"Feature","geometry":{"type":"Point","coordinates":[-133.1023,55.5407]},"properties":{"Plant_Name":"Viking","State":"Alaska","PrimSource":"petroleum","Total_MW":1,"Utility_Na":"Alaska Power and Telephone Co","City":"Craig"}},{"type":"Feature","geometry":{"type":"Point","coordinates":[-132.8911,55.5633]},"properties":{"Plant_Name":"South Fork","State":"Alaska","PrimSource":"hydroelectric","Total_MW":1.9,"Utility_Na":"Alaska Power and Telephone Co","City":"Klawock"}},{"type":"Feature","geometry":{"type":"Point","coordinates":[-145.7194,64.0281]},"properties":{"Plant_Name":"Delta Power","State":"Alaska","PrimSource":"petroleum","Total_MW":23.1,"Utility_Na":"Golden Valley Elec Assn Inc","City":"Delta Junction"}},{"type":"Feature","geometry":{"type":"Point","coordinates":[-135.3408,59.4072]},"properties":{"Plant_Name":"Kasidaya Creek Hydro","State":"Alaska","PrimSource":"hydroelectric","Total_MW":3,"Utility_Na":"Alaska Power and Telephone Co","City":"Skagway"}},{"type":"Feature","geometry":{"type":"Point","coordinates":[-147.725,64.8167]},"properties":{"Plant_Name":"Battery Energy Storage System","State":"Alaska","PrimSource":"batteries","Total_MW":40,"Utility_Na":"Golden Valley Elec Assn Inc","City":"Fairbanks"}},{"type":"Feature","geometry":{"type":"Point","coordinates":[-148.9,64.0583]},"properties":{"Plant_Name":"Eva Creek Wind","State":"Alaska","PrimSource":"wind","Total_MW":24.6,"Utility_Na":"Golden Valley Elec Assn Inc","City":"Healy"}},{"type":"Feature","geometry":{"type":"Point","coordinates":[-148.4667,70.2]},"properties":{"Plant_Name":"TNSG South Plant","State":"Alaska","PrimSource":"natural gas","Total_MW":7.2,"Utility_Na":"TDX North Slope Generating Inc.","City":"Deadhorse"}},{"type":"Feature","geometry":{"type":"Point","coordinates":[-148.3836,70.2353]},"properties":{"Plant_Name":"TNSG North Plant","State":"Alaska","PrimSource":"natural gas","Total_MW":23.1,"Utility_Na":"TDX North Slope Generating Inc.","City":"Deadhorse"}},{"type":"Feature","geometry":{"type":"Point","coordinates":[-149.61,61.286]},"properties":{"Plant_Name":"JBER Landfill Gas Power Plant","State":"Alaska","PrimSource":"biomass","Total_MW":7,"Utility_Na":"Doyon Utilities, LLC","City":"Anchorage"}},{"type":"Feature","geometry":{"type":"Point","coordinates":[-152.4042,57.7992]},"properties":{"Plant_Name":"ESS Battery Microgrid","State":"Alaska","PrimSource":"batteries","Total_MW":3,"Utility_Na":"Kodiak Electric Assn Inc","City":"Kodiak"}},{"type":"Feature","geometry":{"type":"Point","coordinates":[-150.2436,61.13]},"properties":{"Plant_Name":"Fire Island Wind","State":"Alaska","PrimSource":"wind","Total_MW":18,"Utility_Na":"Fire Island Wind LLC","City":"Anchorage"}},{"type":"Feature","geometry":{"type":"Point","coordinates":[-145.5967,64.0139]},"properties":{"Plant_Name":"Delta Wind Farm","State":"Alaska","PrimSource":"wind","Total_MW":1.9,"Utility_Na":"Alaska Environmental Power","City":"Delta Junction"}},{"type":"Feature","geometry":{"type":"Point","coordinates":[-149.9053,61.1674]},"properties":{"Plant_Name":"Southcentral Power Project","State":"Alaska","PrimSource":"natural gas","Total_MW":169.7,"Utility_Na":"Chugach Electric Assn Inc","City":"Anchorage"}},{"type":"Feature","geometry":{"type":"Point","coordinates":[-162.9657,67.5709]},"properties":{"Plant_Name":"Noatak","State":"Alaska","PrimSource":"petroleum","Total_MW":1.3,"Utility_Na":"Alaska Village Elec Coop, Inc","City":"Noatak"}},{"type":"Feature","geometry":{"type":"Point","coordinates":[-170.4757,63.6953]},"properties":{"Plant_Name":"Savoonga","State":"Alaska","PrimSource":"petroleum","Total_MW":1.7,"Utility_Na":"Alaska Village Elec Coop, Inc","City":"Savoonga"}},{"type":"Feature","geometry":{"type":"Point","coordinates":[-164.6544,62.6833]},"properties":{"Plant_Name":"Alakanuk","State":"Alaska","PrimSource":"petroleum","Total_MW":0.8,"Utility_Na":"Alaska Village Elec Coop, Inc","City":"Alakanuk"}},{"type":"Feature","geometry":{"type":"Point","coordinates":[-160.3481,61.5269]},"properties":{"Plant_Name":"Upper Kalskag","State":"Alaska","PrimSource":"petroleum","Total_MW":1.1,"Utility_Na":"Alaska Village Elec Coop, Inc","City":"Upper Kalskag"}},{"type":"Feature","geometry":{"type":"Point","coordinates":[-162.2863,63.521]},"properties":{"Plant_Name":"Stebbins","State":"Alaska","PrimSource":"petroleum","Total_MW":2,"Utility_Na":"Alaska Village Elec Coop, Inc","City":"Stebbins"}},{"type":"Feature","geometry":{"type":"Point","coordinates":[-165.5815,61.843]},"properties":{"Plant_Name":"Scammon Bay","State":"Alaska","PrimSource":"petroleum","Total_MW":1.3,"Utility_Na":"Alaska Village Elec Coop, Inc","City":"Scammon Bay"}},{"type":"Feature","geometry":{"type":"Point","coordinates":[-161.9106,59.7474]},"properties":{"Plant_Name":"Quinhagak","State":"Alaska","PrimSource":"petroleum","Total_MW":1.3,"Utility_Na":"Alaska Village Elec Coop, Inc","City":"Quinhagak"}},{"type":"Feature","geometry":{"type":"Point","coordinates":[-162.8807,61.9365]},"properties":{"Plant_Name":"Pilot Station","State":"Alaska","PrimSource":"petroleum","Total_MW":1.3,"Utility_Na":"Alaska Village Elec Coop, Inc","City":"Pilot Station"}},{"type":"Feature","geometry":{"type":"Point","coordinates":[-161.1671,64.9321]},"properties":{"Plant_Name":"Koyuk","State":"Alaska","PrimSource":"petroleum","Total_MW":1.1,"Utility_Na":"Alaska Village Elec Coop, Inc","City":"Koyuk"}},{"type":"Feature","geometry":{"type":"Point","coordinates":[-162.2637,64.6166]},"properties":{"Plant_Name":"Elim","State":"Alaska","PrimSource":"petroleum","Total_MW":1.1,"Utility_Na":"Alaska Village Elec Coop, Inc","City":"Elim"}},{"type":"Feature","geometry":{"type":"Point","coordinates":[-162.0383,63.4775]},"properties":{"Plant_Name":"St. Michael","State":"Alaska","PrimSource":"petroleum","Total_MW":0.7,"Utility_Na":"Alaska Village Elec Coop, Inc","City":"St. Michael"}},{"type":"Feature","geometry":{"type":"Point","coordinates":[-171.7124,63.7771]},"properties":{"Plant_Name":"Gambell","State":"Alaska","PrimSource":"petroleum","Total_MW":1.8,"Utility_Na":"Alaska Village Elec Coop, Inc","City":"Gambell"}},{"type":"Feature","geometry":{"type":"Point","coordinates":[-157.1402,66.8881]},"properties":{"Plant_Name":"Shungnak","State":"Alaska","PrimSource":"petroleum","Total_MW":1.2,"Utility_Na":"Alaska Village Elec Coop, Inc","City":"Shungnak"}},{"type":"Feature","geometry":{"type":"Point","coordinates":[-163.5531,63.0322]},"properties":{"Plant_Name":"Kotlik","State":"Alaska","PrimSource":"petroleum","Total_MW":1.6,"Utility_Na":"Alaska Village Elec Coop, Inc","City":"Kotlik"}},{"type":"Feature","geometry":{"type":"Point","coordinates":[-164.5384,67.7266]},"properties":{"Plant_Name":"Kivalina","State":"Alaska","PrimSource":"petroleum","Total_MW":1.1,"Utility_Na":"Alaska Village Elec Coop, Inc","City":"Kivalina"}},{"type":"Feature","geometry":{"type":"Point","coordinates":[-162.5197,60.8731]},"properties":{"Plant_Name":"Kasigluk","State":"Alaska","PrimSource":"petroleum","Total_MW":2,"Utility_Na":"Alaska Village Elec Coop, Inc","City":"Kasigluk"}},{"type":"Feature","geometry":{"type":"Point","coordinates":[-165.1086,60.5301]},"properties":{"Plant_Name":"Toksook Bay","State":"Alaska","PrimSource":"petroleum","Total_MW":2.1,"Utility_Na":"Alaska Village Elec Coop, Inc","City":"Toksook Bay"}},{"type":"Feature","geometry":{"type":"Point","coordinates":[-134.0533,58.2325]},"properties":{"Plant_Name":"Lake Dorothy Hydroelectric Project","State":"Alaska","PrimSource":"hydroelectric","Total_MW":14.3,"Utility_Na":"Alaska Electric Light & Power Co.","City":"Juneau"}},{"type":"Feature","geometry":{"type":"Point","coordinates":[-152.4406,57.7869]},"properties":{"Plant_Name":"Pillar Mountain Wind Project Microgrid","State":"Alaska","PrimSource":"wind","Total_MW":9,"Utility_Na":"Kodiak Electric Assn Inc","City":"Kodiak"}},{"type":"Feature","geometry":{"type":"Point","coordinates":[-150.9972,60.4994]},"properties":{"Plant_Name":"Soldotna","State":"Alaska","PrimSource":"natural gas","Total_MW":90.5,"Utility_Na":"Homer Electric Assn Inc","City":"Soldotna"}},{"type":"Feature","geometry":{"type":"Point","coordinates":[-131.5308,55.3281]},"properties":{"Plant_Name":"Whitman","State":"Alaska","PrimSource":"hydroelectric","Total_MW":4.8,"Utility_Na":"Ketchikan Public Utilities","City":"Ketchikan"}},{"type":"Feature","geometry":{"type":"Point","coordinates":[-146.3533,61.0844]},"properties":{"Plant_Name":"Allison Creek Hydro","State":"Alaska","PrimSource":"hydroelectric","Total_MW":6.5,"Utility_Na":"Copper Valley Elec Assn, Inc","City":"Valdez"}},{"type":"Feature","geometry":{"type":"Point","coordinates":[-149.3514,61.4578]},"properties":{"Plant_Name":"Eklutna Generation Station","State":"Alaska","PrimSource":"natural gas","Total_MW":165,"Utility_Na":"Matanuska Electric Assn Inc","City":"Chugiak"}},{"type":"Feature","geometry":{"type":"Point","coordinates":[-132.61,55.2173]},"properties":{"Plant_Name":"Hiilangaay Hydro","State":"Alaska","PrimSource":"hydroelectric","Total_MW":5,"Utility_Na":"Haida Energy, Inc.","City":"Hydaburg"}},{"type":"Feature","geometry":{"type":"Point","coordinates":[-134.608,58.3676]},"properties":{"Plant_Name":"Industrial Plant","State":"Alaska","PrimSource":"petroleum","Total_MW":23.5,"Utility_Na":"Alaska Electric Light & Power Co.","City":"Juneau"}},{"type":"Feature","geometry":{"type":"Point","coordinates":[-157.8567,67.088]},"properties":{"Plant_Name":"Ambler","State":"Alaska","PrimSource":"petroleum","Total_MW":1.1,"Utility_Na":"Alaska Village Elec Coop, Inc","City":"Ambler"}},{"type":"Feature","geometry":{"type":"Point","coordinates":[-162.0851,61.8782]},"properties":{"Plant_Name":"Marshall","State":"Alaska","PrimSource":"petroleum","Total_MW":1.1,"Utility_Na":"Alaska Village Elec Coop, Inc","City":"Marshall"}},{"type":"Feature","geometry":{"type":"Point","coordinates":[-157.3255,59.4484]},"properties":{"Plant_Name":"New Stuyahok","State":"Alaska","PrimSource":"petroleum","Total_MW":1.3,"Utility_Na":"Alaska Village Elec Coop, Inc","City":"New Stuyahok"}},{"type":"Feature","geometry":{"type":"Point","coordinates":[-152.4803,57.7756]},"properties":{"Plant_Name":"Swampy Acres Microgrid","State":"Alaska","PrimSource":"petroleum","Total_MW":8.4,"Utility_Na":"Kodiak Electric Assn Inc","City":"Kodiak"}},{"type":"Feature","geometry":{"type":"Point","coordinates":[-166.4795,65.3317]},"properties":{"Plant_Name":"Brevig Mission","State":"Alaska","PrimSource":"petroleum","Total_MW":1,"Utility_Na":"Alaska Village Elec Coop, Inc","City":"Brevig Mission"}},{"type":"Feature","geometry":{"type":"Point","coordinates":[-152.4438,57.7801]},"properties":{"Plant_Name":"Flywheel Energy Storage System Microgrid","State":"Alaska","PrimSource":"other","Total_MW":2,"Utility_Na":"Kodiak Electric Assn Inc","City":"Kodiak"}},{"type":"Feature","geometry":{"type":"Point","coordinates":[-131.5043,56.2164]},"properties":{"Plant_Name":"Tyee Lake Hydroelectric Facility","State":"Alaska","PrimSource":"hydroelectric","Total_MW":22.6,"Utility_Na":"Southeast Alaska Power Agency","City":"Wrangell"}},{"type":"Feature","geometry":{"type":"Point","coordinates":[-133.0853,55.5532]},"properties":{"Plant_Name":"Klawock Power Generation Station","State":"Alaska","PrimSource":"petroleum","Total_MW":2.5,"Utility_Na":"Alaska Power and Telephone Co","City":"Klawock"}},{"type":"Feature","geometry":{"type":"Point","coordinates":[-143.5889,62.5928]},"properties":{"Plant_Name":"Slana Generating Station\t","State":"Alaska","PrimSource":"petroleum","Total_MW":1.2,"Utility_Na":"Alaska Power and Telephone Co","City":"Slana"}},{"type":"Feature","geometry":{"type":"Point","coordinates":[-145.7408,60.5405]},"properties":{"Plant_Name":"Eyak Service Center BESS","State":"Alaska","PrimSource":"batteries","Total_MW":1,"Utility_Na":"Cordova Electric Coop, Inc","City":"Cordova"}},{"type":"Feature","geometry":{"type":"Point","coordinates":[-135.7074,58.4195]},"properties":{"Plant_Name":"Gustavus","State":"Alaska","PrimSource":"petroleum","Total_MW":1.4,"Utility_Na":"Alaska Power and Telephone Co","City":"Gustavus"}},{"type":"Feature","geometry":{"type":"Point","coordinates":[-149.79,61.59]},"properties":{"Plant_Name":"Houston Solar","State":"Alaska","PrimSource":"solar","Total_MW":6,"Utility_Na":"Energy 49, LLC","City":"Houston"}},{"type":"Feature","geometry":{"type":"Point","coordinates":[-149.9131,61.1699]},"properties":{"Plant_Name":"International Battery Substation (IBSS)","State":"Alaska","PrimSource":"batteries","Total_MW":40,"Utility_Na":"Chugach Electric Assn Inc","City":" "}}]}