{"type":"FeatureCollection","features":[{"type":"Feature","geometry":{"type":"Point","coordinates":[-95.6530727,29.5596159]},"properties":{"NAME":"OSM-1743496119","STATE":"","TYPE":"MINOR_DISTRIBUTION","STATUS":"IN SERVICE","MAX_VOLT":null,"CITY":"","COUNTY":"","ZIP":"","LINES":null,"SOURCE":"OpenStreetMap"}},{"type":"Feature","geometry":{"type":"Point","coordinates":[-100.295847,25.9989472]},"properties":{"NAME":"OSM-6511901206","STATE":"","TYPE":"SUBSTATION","STATUS":"IN SERVICE","MAX_VOLT":null,"CITY":"","COUNTY":"","ZIP":"","LINES":null,"SOURCE":"OpenStreetMap"}},{"type":"Feature","geometry":{"type":"Point","coordinates":[-100.0555948,25.7979659]},"properties":{"NAME":"OSM-9210457524","STATE":"","TYPE":"TRANSMISSION","STATUS":"IN SERVICE","MAX_VOLT":null,"CITY":"","COUNTY":"","ZIP":"","LINES":null,"SOURCE":"OpenStreetMap"}},{"type":"Feature","geometry":{"type":"Point","coordinates":[-103.5529299,32.0507618]},"properties":{"NAME":"OSM-9645264070","STATE":"","TYPE":"SUBSTATION","STATUS":"IN SERVICE","MAX_VOLT":null,"CITY":"","COUNTY":"","ZIP":"","LINES":null,"SOURCE":"OpenStreetMap"}},{"type":"Feature","geometry":{"type":"Point","coordinates":[-89.7705592,30.2829717]},"properties":{"NAME":"OSM-10909366190","STATE":"","TYPE":"INDUSTRIAL","STATUS":"IN SERVICE","MAX_VOLT":34,"CITY":"","COUNTY":"","ZIP":"","LINES":null,"SOURCE":"OpenStreetMap"}},{"type":"Feature","geometry":{"type":"Point","coordinates":[-89.8295283,30.3083573]},"properties":{"NAME":"OSM-10909366609","STATE":"","TYPE":"INDUSTRIAL","STATUS":"IN SERVICE","MAX_VOLT":34,"CITY":"","COUNTY":"","ZIP":"","LINES":null,"SOURCE":"OpenStreetMap"}},{"type":"Feature","geometry":{"type":"Point","coordinates":[-89.8287066,30.3059119]},"properties":{"NAME":"OSM-10909366616","STATE":"","TYPE":"INDUSTRIAL","STATUS":"IN SERVICE","MAX_VOLT":34,"CITY":"","COUNTY":"","ZIP":"","LINES":null,"SOURCE":"OpenStreetMap"}},{"type":"Feature","geometry":{"type":"Point","coordinates":[-89.82746,30.3024622]},"properties":{"NAME":"OSM-10909366624","STATE":"","TYPE":"INDUSTRIAL","STATUS":"IN SERVICE","MAX_VOLT":34,"CITY":"","COUNTY":"","ZIP":"","LINES":null,"SOURCE":"OpenStreetMap"}},{"type":"Feature","geometry":{"type":"Point","coordinates":[-89.8444264,30.2723067]},"properties":{"NAME":"OSM-10909366810","STATE":"","TYPE":"DISTRIBUTION","STATUS":"IN SERVICE","MAX_VOLT":34,"CITY":"","COUNTY":"","ZIP":"","LINES":null,"SOURCE":"OpenStreetMap"}},{"type":"Feature","geometry":{"type":"Point","coordinates":[-90.0321703,30.3780234]},"properties":{"NAME":"OSM-10909367233","STATE":"","TYPE":"DISTRIBUTION","STATUS":"IN SERVICE","MAX_VOLT":34,"CITY":"","COUNTY":"","ZIP":"","LINES":null,"SOURCE":"OpenStreetMap"}},{"type":"Feature","geometry":{"type":"Point","coordinates":[-89.6937798,30.4584]},"properties":{"NAME":"OSM-10911912615","STATE":"","TYPE":"INDUSTRIAL","STATUS":"IN SERVICE","MAX_VOLT":34,"CITY":"","COUNTY":"","ZIP":"","LINES":null,"SOURCE":"OpenStreetMap"}},{"type":"Feature","geometry":{"type":"Point","coordinates":[-89.7543511,30.3178877]},"properties":{"NAME":"OSM-10911912647","STATE":"","TYPE":"DISTRIBUTION","STATUS":"IN SERVICE","MAX_VOLT":34,"CITY":"","COUNTY":"","ZIP":"","LINES":null,"SOURCE":"OpenStreetMap"}},{"type":"Feature","geometry":{"type":"Point","coordinates":[-89.9645381,30.4065852]},"properties":{"NAME":"OSM-10913753517","STATE":"","TYPE":"DISTRIBUTION","STATUS":"IN SERVICE","MAX_VOLT":34,"CITY":"","COUNTY":"","ZIP":"","LINES":null,"SOURCE":"OpenStreetMap"}},{"type":"Feature","geometry":{"type":"Point","coordinates":[-90.1839177,30.4693606]},"properties":{"NAME":"OSM-10913754859","STATE":"","TYPE":"DISTRIBUTION","STATUS":"IN SERVICE","MAX_VOLT":34,"CITY":"","COUNTY":"","ZIP":"","LINES":null,"SOURCE":"OpenStreetMap"}},{"type":"Feature","geometry":{"type":"Point","coordinates":[-90.1847174,30.4774283]},"properties":{"NAME":"OSM-10913754877","STATE":"","TYPE":"INDUSTRIAL","STATUS":"IN SERVICE","MAX_VOLT":34,"CITY":"","COUNTY":"","ZIP":"","LINES":null,"SOURCE":"OpenStreetMap"}},{"type":"Feature","geometry":{"type":"Point","coordinates":[-90.116022,30.5127602]},"properties":{"NAME":"OSM-10915550811","STATE":"","TYPE":"DISTRIBUTION","STATUS":"IN SERVICE","MAX_VOLT":34,"CITY":"","COUNTY":"","ZIP":"","LINES":null,"SOURCE":"OpenStreetMap"}},{"type":"Feature","geometry":{"type":"Point","coordinates":[-92.0321678,30.5819159]},"properties":{"NAME":"OSM-10936376366","STATE":"","TYPE":"INDUSTRIAL","STATUS":"IN SERVICE","MAX_VOLT":34,"CITY":"","COUNTY":"","ZIP":"","LINES":null,"SOURCE":"OpenStreetMap"}},{"type":"Feature","geometry":{"type":"Point","coordinates":[-92.8753984,30.4356471]},"properties":{"NAME":"OSM-10937048263","STATE":"","TYPE":"INDUSTRIAL","STATUS":"IN SERVICE","MAX_VOLT":34,"CITY":"","COUNTY":"","ZIP":"","LINES":null,"SOURCE":"OpenStreetMap"}},{"type":"Feature","geometry":{"type":"Point","coordinates":[-91.5238435,29.8037764]},"properties":{"NAME":"OSM-10943884641","STATE":"","TYPE":"DISTRIBUTION","STATUS":"IN SERVICE","MAX_VOLT":34,"CITY":"","COUNTY":"","ZIP":"","LINES":null,"SOURCE":"OpenStreetMap"}},{"type":"Feature","geometry":{"type":"Point","coordinates":[-91.499354,29.791104]},"properties":{"NAME":"OSM-10943887256","STATE":"","TYPE":"DISTRIBUTION","STATUS":"IN SERVICE","MAX_VOLT":34,"CITY":"","COUNTY":"","ZIP":"","LINES":null,"SOURCE":"OpenStreetMap"}},{"type":"Feature","geometry":{"type":"Point","coordinates":[-91.4458901,29.7344542]},"properties":{"NAME":"OSM-10944133321","STATE":"","TYPE":"INDUSTRIAL","STATUS":"IN SERVICE","MAX_VOLT":34,"CITY":"","COUNTY":"","ZIP":"","LINES":null,"SOURCE":"OpenStreetMap"}},{"type":"Feature","geometry":{"type":"Point","coordinates":[-91.4539792,29.7350827]},"properties":{"NAME":"OSM-10944133331","STATE":"","TYPE":"INDUSTRIAL","STATUS":"IN SERVICE","MAX_VOLT":34,"CITY":"","COUNTY":"","ZIP":"","LINES":null,"SOURCE":"OpenStreetMap"}},{"type":"Feature","geometry":{"type":"Point","coordinates":[-91.4730933,29.6873305]},"properties":{"NAME":"OSM-10944133503","STATE":"","TYPE":"INDUSTRIAL","STATUS":"IN SERVICE","MAX_VOLT":34,"CITY":"","COUNTY":"","ZIP":"","LINES":null,"SOURCE":"OpenStreetMap"}},{"type":"Feature","geometry":{"type":"Point","coordinates":[-92.3778307,30.3221911]},"properties":{"NAME":"OSM-10951766690","STATE":"","TYPE":"INDUSTRIAL","STATUS":"IN SERVICE","MAX_VOLT":34,"CITY":"","COUNTY":"","ZIP":"","LINES":null,"SOURCE":"OpenStreetMap"}},{"type":"Feature","geometry":{"type":"Point","coordinates":[-92.5302702,30.4592833]},"properties":{"NAME":"OSM-10951767209","STATE":"","TYPE":"INDUSTRIAL","STATUS":"IN SERVICE","MAX_VOLT":34,"CITY":"","COUNTY":"","ZIP":"","LINES":null,"SOURCE":"OpenStreetMap"}},{"type":"Feature","geometry":{"type":"Point","coordinates":[-92.5303341,30.4592833]},"properties":{"NAME":"OSM-10951767210","STATE":"","TYPE":"INDUSTRIAL","STATUS":"IN SERVICE","MAX_VOLT":34,"CITY":"","COUNTY":"","ZIP":"","LINES":null,"SOURCE":"OpenStreetMap"}},{"type":"Feature","geometry":{"type":"Point","coordinates":[-92.058137,31.1052759]},"properties":{"NAME":"OSM-10958886432","STATE":"","TYPE":"DISTRIBUTION","STATUS":"IN SERVICE","MAX_VOLT":34,"CITY":"","COUNTY":"","ZIP":"","LINES":null,"SOURCE":"OpenStreetMap"}},{"type":"Feature","geometry":{"type":"Point","coordinates":[-92.4106805,31.1397099]},"properties":{"NAME":"OSM-10961348192","STATE":"","TYPE":"DISTRIBUTION","STATUS":"IN SERVICE","MAX_VOLT":34,"CITY":"","COUNTY":"","ZIP":"","LINES":null,"SOURCE":"OpenStreetMap"}},{"type":"Feature","geometry":{"type":"Point","coordinates":[-92.4251556,31.3758591]},"properties":{"NAME":"OSM-10962953720","STATE":"","TYPE":"INDUSTRIAL","STATUS":"IN SERVICE","MAX_VOLT":34,"CITY":"","COUNTY":"","ZIP":"","LINES":null,"SOURCE":"OpenStreetMap"}},{"type":"Feature","geometry":{"type":"Point","coordinates":[-92.2116755,31.5279405]},"properties":{"NAME":"OSM-10962955244","STATE":"","TYPE":"INDUSTRIAL","STATUS":"IN SERVICE","MAX_VOLT":34,"CITY":"","COUNTY":"","ZIP":"","LINES":null,"SOURCE":"OpenStreetMap"}},{"type":"Feature","geometry":{"type":"Point","coordinates":[-92.4337221,31.329913]},"properties":{"NAME":"OSM-10963679406","STATE":"","TYPE":"INDUSTRIAL","STATUS":"IN SERVICE","MAX_VOLT":34,"CITY":"","COUNTY":"","ZIP":"","LINES":null,"SOURCE":"OpenStreetMap"}},{"type":"Feature","geometry":{"type":"Point","coordinates":[-93.4236117,34.0371367]},"properties":{"NAME":"Antoine Substation","STATE":"","TYPE":"DISTRIBUTION","STATUS":"IN SERVICE","MAX_VOLT":34,"CITY":"","COUNTY":"","ZIP":"","LINES":null,"SOURCE":"OpenStreetMap"}},{"type":"Feature","geometry":{"type":"Point","coordinates":[-101.8360271,31.7848768]},"properties":{"NAME":"Peck Substation","STATE":"","TYPE":"DISTRIBUTION","STATUS":"IN SERVICE","MAX_VOLT":69,"CITY":"","COUNTY":"","ZIP":"","LINES":null,"SOURCE":"OpenStreetMap"}},{"type":"Feature","geometry":{"type":"Point","coordinates":[-96.1084187,36.0002656]},"properties":{"NAME":"OSM-13290066347","STATE":"","TYPE":"DISTRIBUTION","STATUS":"IN SERVICE","MAX_VOLT":null,"CITY":"","COUNTY":"","ZIP":"","LINES":null,"SOURCE":"OpenStreetMap"}},{"type":"Feature","geometry":{"type":"Point","coordinates":[-95.9406737,36.2053139]},"properties":{"NAME":"OSM-13352518115","STATE":"OK","TYPE":"SUBSTATION","STATUS":"IN SERVICE","MAX_VOLT":null,"CITY":"Tulsa","COUNTY":"","ZIP":"74115","LINES":null,"SOURCE":"OpenStreetMap"}},{"type":"Feature","geometry":{"type":"Point","coordinates":[-95.8657002,36.1113866]},"properties":{"NAME":"OSM-13583272650","STATE":"OK","TYPE":"SUBSTATION","STATUS":"IN SERVICE","MAX_VOLT":null,"CITY":"Tulsa","COUNTY":"","ZIP":"74146","LINES":null,"SOURCE":"OpenStreetMap"}}]}