{"type":"FeatureCollection","features":[{"type":"Feature","geometry":{"type":"Point","coordinates":[-156.033082946,19.716065875]},"properties":{"NAME":"TAP155642","CITY":"KAILUA KONA","STATE":"HI","ZIP":"96740","TYPE":"TAP","STATUS":"IN SERVICE","COUNTY":"HAWAII","LINES":3,"MAX_VOLT":69,"MIN_VOLT":69,"VOLTAGE":69,"OWNER":"TAP155642","SUB_TYPE":"TAP"}},{"type":"Feature","geometry":{"type":"Point","coordinates":[-158.097042781,21.3021403010001]},"properties":{"NAME":"KALAELOA","CITY":"KAPOLEI","STATE":"HI","ZIP":"96707","TYPE":"SUBSTATION","STATUS":"IN SERVICE","COUNTY":"HONOLULU","LINES":2,"MAX_VOLT":138,"MIN_VOLT":138,"VOLTAGE":138,"OWNER":"KALAELOA","SUB_TYPE":"SUBSTATION"}},{"type":"Feature","geometry":{"type":"Point","coordinates":[-158.103587489,21.3049298230001]},"properties":{"NAME":"AES","CITY":"KAPOLEI","STATE":"HI","ZIP":"96707","TYPE":"SUBSTATION","STATUS":"IN SERVICE","COUNTY":"HONOLULU","LINES":4,"MAX_VOLT":138,"MIN_VOLT":138,"VOLTAGE":138,"OWNER":"AES","SUB_TYPE":"SUBSTATION"}},{"type":"Feature","geometry":{"type":"Point","coordinates":[-158.045736843,21.371959239]},"properties":{"NAME":"EWA NUI","CITY":"KAPOLEI","STATE":"HI","ZIP":"96707","TYPE":"SUBSTATION","STATUS":"IN SERVICE","COUNTY":"HONOLULU","LINES":4,"MAX_VOLT":138,"MIN_VOLT":-999999,"VOLTAGE":138,"OWNER":"EWA NUI","SUB_TYPE":"SUBSTATION"}},{"type":"Feature","geometry":{"type":"Point","coordinates":[-158.096811974,21.3275822910001]},"properties":{"NAME":"CEIP","CITY":"KAPOLEI","STATE":"HI","ZIP":"96707","TYPE":"SUBSTATION","STATUS":"IN SERVICE","COUNTY":"HONOLULU","LINES":5,"MAX_VOLT":138,"MIN_VOLT":138,"VOLTAGE":138,"OWNER":"CEIP","SUB_TYPE":"SUBSTATION"}},{"type":"Feature","geometry":{"type":"Point","coordinates":[-157.867656787,21.3171304740001]},"properties":{"NAME":"UNKNOWN155647","CITY":"HONOLULU","STATE":"HI","ZIP":"96817","TYPE":"SUBSTATION","STATUS":"IN SERVICE","COUNTY":"HONOLULU","LINES":0,"MAX_VOLT":-999999,"MIN_VOLT":-999999,"VOLTAGE":-999999,"OWNER":"UNKNOWN155647","SUB_TYPE":"SUBSTATION"}},{"type":"Feature","geometry":{"type":"Point","coordinates":[-158.127691483,21.355486483]},"properties":{"NAME":"KAHE 1","CITY":"HONOLULU","STATE":"HI","ZIP":"96707","TYPE":"SUBSTATION","STATUS":"IN SERVICE","COUNTY":"HONOLULU","LINES":4,"MAX_VOLT":138,"MIN_VOLT":138,"VOLTAGE":138,"OWNER":"KAHE 1","SUB_TYPE":"SUBSTATION"}},{"type":"Feature","geometry":{"type":"Point","coordinates":[-158.128166186,21.3566857320001]},"properties":{"NAME":"KAHE 2","CITY":"HONOLULU","STATE":"HI","ZIP":"96707","TYPE":"SUBSTATION","STATUS":"IN SERVICE","COUNTY":"HONOLULU","LINES":5,"MAX_VOLT":138,"MIN_VOLT":138,"VOLTAGE":138,"OWNER":"KAHE 2","SUB_TYPE":"SUBSTATION"}},{"type":"Feature","geometry":{"type":"Point","coordinates":[-157.88263945,21.3795403190001]},"properties":{"NAME":"HAIAWA","CITY":"HONOLULU","STATE":"HI","ZIP":"96819","TYPE":"SUBSTATION","STATUS":"IN SERVICE","COUNTY":"HONOLULU","LINES":5,"MAX_VOLT":138,"MIN_VOLT":138,"VOLTAGE":138,"OWNER":"HAIAWA","SUB_TYPE":"SUBSTATION"}},{"type":"Feature","geometry":{"type":"Point","coordinates":[-158.024501726,21.492527835]},"properties":{"NAME":"WAHIAWA","CITY":"WAHIAWA","STATE":"HI","ZIP":"96786","TYPE":"SUBSTATION","STATUS":"IN SERVICE","COUNTY":"HONOLULU","LINES":4,"MAX_VOLT":138,"MIN_VOLT":-999999,"VOLTAGE":138,"OWNER":"WAHIAWA","SUB_TYPE":"SUBSTATION"}},{"type":"Feature","geometry":{"type":"Point","coordinates":[-157.9611391,21.3898850640001]},"properties":{"NAME":"WAIAU 2","CITY":"PEARL CITY","STATE":"HI","ZIP":"96782","TYPE":"SUBSTATION","STATUS":"IN SERVICE","COUNTY":"HONOLULU","LINES":0,"MAX_VOLT":-999999,"MIN_VOLT":-999999,"VOLTAGE":-999999,"OWNER":"WAIAU 2","SUB_TYPE":"SUBSTATION"}},{"type":"Feature","geometry":{"type":"Point","coordinates":[-157.960443108,21.38928544]},"properties":{"NAME":"WAIAU 1","CITY":"PEARL CITY","STATE":"HI","ZIP":"96782","TYPE":"SUBSTATION","STATUS":"IN SERVICE","COUNTY":"HONOLULU","LINES":7,"MAX_VOLT":138,"MIN_VOLT":138,"VOLTAGE":138,"OWNER":"WAIAU 1","SUB_TYPE":"SUBSTATION"}},{"type":"Feature","geometry":{"type":"Point","coordinates":[-157.927246058,21.357504169]},"properties":{"NAME":"MAKALAPA","CITY":"HONOLULU","STATE":"HI","ZIP":"96818","TYPE":"SUBSTATION","STATUS":"IN SERVICE","COUNTY":"HONOLULU","LINES":3,"MAX_VOLT":138,"MIN_VOLT":138,"VOLTAGE":138,"OWNER":"MAKALAPA","SUB_TYPE":"SUBSTATION"}},{"type":"Feature","geometry":{"type":"Point","coordinates":[-157.867289589,21.3178861430001]},"properties":{"NAME":"KEWALO","CITY":"HONOLULU","STATE":"HI","ZIP":"96817","TYPE":"SUBSTATION","STATUS":"IN SERVICE","COUNTY":"HONOLULU","LINES":2,"MAX_VOLT":138,"MIN_VOLT":138,"VOLTAGE":138,"OWNER":"KEWALO","SUB_TYPE":"SUBSTATION"}},{"type":"Feature","geometry":{"type":"Point","coordinates":[-157.793945376,21.3838559710001]},"properties":{"NAME":"KOOLAU","CITY":"KANEOHE","STATE":"HI","ZIP":"96744","TYPE":"SUBSTATION","STATUS":"IN SERVICE","COUNTY":"HONOLULU","LINES":7,"MAX_VOLT":138,"MIN_VOLT":-999999,"VOLTAGE":138,"OWNER":"KOOLAU","SUB_TYPE":"SUBSTATION"}},{"type":"Feature","geometry":{"type":"Point","coordinates":[-157.786738262,21.3129105]},"properties":{"NAME":"PUKELE","CITY":"HONOLULU","STATE":"HI","ZIP":"96816","TYPE":"SUBSTATION","STATUS":"IN SERVICE","COUNTY":"HONOLULU","LINES":2,"MAX_VOLT":138,"MIN_VOLT":138,"VOLTAGE":138,"OWNER":"PUKELE","SUB_TYPE":"SUBSTATION"}},{"type":"Feature","geometry":{"type":"Point","coordinates":[-156.337826642,20.8868332440001]},"properties":{"NAME":"UNKNOWN155658","CITY":"MAKAWAO","STATE":"HI","ZIP":"96768","TYPE":"SUBSTATION","STATUS":"IN SERVICE","COUNTY":"MAUI","LINES":0,"MAX_VOLT":-999999,"MIN_VOLT":-999999,"VOLTAGE":-999999,"OWNER":"UNKNOWN155658","SUB_TYPE":"SUBSTATION"}},{"type":"Feature","geometry":{"type":"Point","coordinates":[-156.472988806,20.8839050770001]},"properties":{"NAME":"TAP155659","CITY":"KAHULUI","STATE":"HI","ZIP":"96732","TYPE":"TAP","STATUS":"IN SERVICE","COUNTY":"MAUI","LINES":2,"MAX_VOLT":69,"MIN_VOLT":69,"VOLTAGE":69,"OWNER":"TAP155659","SUB_TYPE":"TAP"}},{"type":"Feature","geometry":{"type":"Point","coordinates":[-156.472649733,20.8838908000001]},"properties":{"NAME":"TAP155660","CITY":"KAHULUI","STATE":"HI","ZIP":"96732","TYPE":"TAP","STATUS":"IN SERVICE","COUNTY":"MAUI","LINES":2,"MAX_VOLT":69,"MIN_VOLT":69,"VOLTAGE":69,"OWNER":"TAP155660","SUB_TYPE":"TAP"}},{"type":"Feature","geometry":{"type":"Point","coordinates":[-156.551296634,20.813772634]},"properties":{"NAME":"UNKNOWN155661","CITY":"WAILUKU","STATE":"HI","ZIP":"96793","TYPE":"SUBSTATION","STATUS":"IN SERVICE","COUNTY":"MAUI","LINES":1,"MAX_VOLT":69,"MIN_VOLT":69,"VOLTAGE":69,"OWNER":"UNKNOWN155661","SUB_TYPE":"SUBSTATION"}},{"type":"Feature","geometry":{"type":"Point","coordinates":[-156.493804097,20.8015088920001]},"properties":{"NAME":"UNKNOWN155662","CITY":"KIHEI","STATE":"HI","ZIP":"96753","TYPE":"SUBSTATION","STATUS":"IN SERVICE","COUNTY":"MAUI","LINES":6,"MAX_VOLT":69,"MIN_VOLT":-999999,"VOLTAGE":69,"OWNER":"UNKNOWN155662","SUB_TYPE":"SUBSTATION"}},{"type":"Feature","geometry":{"type":"Point","coordinates":[-156.454064953,20.868896627]},"properties":{"NAME":"UNKNOWN155663","CITY":"KAHULUI","STATE":"HI","ZIP":"96732","TYPE":"SUBSTATION","STATUS":"IN SERVICE","COUNTY":"MAUI","LINES":3,"MAX_VOLT":69,"MIN_VOLT":69,"VOLTAGE":69,"OWNER":"UNKNOWN155663","SUB_TYPE":"SUBSTATION"}},{"type":"Feature","geometry":{"type":"Point","coordinates":[-156.448584309,20.7410336670001]},"properties":{"NAME":"UNKNOWN155664","CITY":"KIHEI","STATE":"HI","ZIP":"96753","TYPE":"SUBSTATION","STATUS":"IN SERVICE","COUNTY":"MAUI","LINES":2,"MAX_VOLT":69,"MIN_VOLT":69,"VOLTAGE":69,"OWNER":"UNKNOWN155664","SUB_TYPE":"SUBSTATION"}},{"type":"Feature","geometry":{"type":"Point","coordinates":[-156.547874969,20.8121546]},"properties":{"NAME":"UNKNOWN155665","CITY":"WAILUKU","STATE":"HI","ZIP":"96793","TYPE":"SUBSTATION","STATUS":"IN SERVICE","COUNTY":"MAUI","LINES":2,"MAX_VOLT":-999999,"MIN_VOLT":-999999,"VOLTAGE":-999999,"OWNER":"UNKNOWN155665","SUB_TYPE":"SUBSTATION"}},{"type":"Feature","geometry":{"type":"Point","coordinates":[-156.497024932,20.879428121]},"properties":{"NAME":"UNKNOWN155666","CITY":"WAILUKU","STATE":"HI","ZIP":"96793","TYPE":"SUBSTATION","STATUS":"IN SERVICE","COUNTY":"MAUI","LINES":2,"MAX_VOLT":69,"MIN_VOLT":69,"VOLTAGE":69,"OWNER":"UNKNOWN155666","SUB_TYPE":"SUBSTATION"}},{"type":"Feature","geometry":{"type":"Point","coordinates":[-157.817642441,21.403475142]},"properties":{"NAME":"RISER155667","CITY":"KANEOHE","STATE":"HI","ZIP":"96744","TYPE":"RISER","STATUS":"IN SERVICE","COUNTY":"HONOLULU","LINES":2,"MAX_VOLT":138,"MIN_VOLT":138,"VOLTAGE":138,"OWNER":"RISER155667","SUB_TYPE":"RISER"}},{"type":"Feature","geometry":{"type":"Point","coordinates":[-157.816845322,21.40392724]},"properties":{"NAME":"RISER155668","CITY":"KANEOHE","STATE":"HI","ZIP":"96744","TYPE":"RISER","STATUS":"IN SERVICE","COUNTY":"HONOLULU","LINES":2,"MAX_VOLT":138,"MIN_VOLT":138,"VOLTAGE":138,"OWNER":"RISER155668","SUB_TYPE":"RISER"}},{"type":"Feature","geometry":{"type":"Point","coordinates":[-156.452758629,20.884861621]},"properties":{"NAME":"UNKNOWN155669","CITY":"KAHULUI","STATE":"HI","ZIP":"96732","TYPE":"SUBSTATION","STATUS":"IN SERVICE","COUNTY":"MAUI","LINES":3,"MAX_VOLT":69,"MIN_VOLT":69,"VOLTAGE":69,"OWNER":"UNKNOWN155669","SUB_TYPE":"SUBSTATION"}},{"type":"Feature","geometry":{"type":"Point","coordinates":[-156.453133394,20.8873100860001]},"properties":{"NAME":"UNKNOWN155670","CITY":"KAHULUI","STATE":"HI","ZIP":"96732","TYPE":"SUBSTATION","STATUS":"IN SERVICE","COUNTY":"MAUI","LINES":0,"MAX_VOLT":-999999,"MIN_VOLT":-999999,"VOLTAGE":-999999,"OWNER":"UNKNOWN155670","SUB_TYPE":"SUBSTATION"}},{"type":"Feature","geometry":{"type":"Point","coordinates":[-156.009262162,19.6625993860001]},"properties":{"NAME":"TAP155909","CITY":"KAILUA KONA","STATE":"HI","ZIP":"96740","TYPE":"TAP","STATUS":"IN SERVICE","COUNTY":"HAWAII","LINES":3,"MAX_VOLT":69,"MIN_VOLT":69,"VOLTAGE":69,"OWNER":"TAP155909","SUB_TYPE":"TAP"}},{"type":"Feature","geometry":{"type":"Point","coordinates":[-155.774558,20.022003]},"properties":{"NAME":"TAP155910","CITY":"KAMUELA","STATE":"HI","ZIP":"96743","TYPE":"TAP","STATUS":"IN SERVICE","COUNTY":"HAWAII","LINES":3,"MAX_VOLT":69,"MIN_VOLT":69,"VOLTAGE":69,"OWNER":"TAP155910","SUB_TYPE":"TAP"}},{"type":"Feature","geometry":{"type":"Point","coordinates":[-159.566956385,21.9170065050001]},"properties":{"NAME":"TAP155911","CITY":"ELEELE","STATE":"HI","ZIP":"96705","TYPE":"TAP","STATUS":"IN SERVICE","COUNTY":"KAUAI","LINES":3,"MAX_VOLT":57.099998474121094,"MIN_VOLT":57.099998474121094,"VOLTAGE":57.099998474121094,"OWNER":"TAP155911","SUB_TYPE":"TAP"}},{"type":"Feature","geometry":{"type":"Point","coordinates":[-159.371318295,21.9830211890001]},"properties":{"NAME":"TAP155912","CITY":"LIHUE","STATE":"HI","ZIP":"96766","TYPE":"TAP","STATUS":"IN SERVICE","COUNTY":"KAUAI","LINES":3,"MAX_VOLT":57.099998474121094,"MIN_VOLT":57.099998474121094,"VOLTAGE":57.099998474121094,"OWNER":"TAP155912","SUB_TYPE":"TAP"}},{"type":"Feature","geometry":{"type":"Point","coordinates":[-159.459519275,21.9695163960001]},"properties":{"NAME":"TAP155913","CITY":"LIHUE","STATE":"HI","ZIP":"96766","TYPE":"TAP","STATUS":"IN SERVICE","COUNTY":"KAUAI","LINES":3,"MAX_VOLT":57.099998474121094,"MIN_VOLT":57.099998474121094,"VOLTAGE":57.099998474121094,"OWNER":"TAP155913","SUB_TYPE":"TAP"}},{"type":"Feature","geometry":{"type":"Point","coordinates":[-155.913853165,19.491513625]},"properties":{"NAME":"TAP155914","CITY":"CAPTAIN COOK","STATE":"HI","ZIP":"96704","TYPE":"TAP","STATUS":"IN SERVICE","COUNTY":"HAWAII","LINES":3,"MAX_VOLT":69,"MIN_VOLT":69,"VOLTAGE":69,"OWNER":"TAP155914","SUB_TYPE":"TAP"}},{"type":"Feature","geometry":{"type":"Point","coordinates":[-155.968747331,19.6157452840001]},"properties":{"NAME":"TAP155915","CITY":"KAILUA KONA","STATE":"HI","ZIP":"96740","TYPE":"TAP","STATUS":"IN SERVICE","COUNTY":"HAWAII","LINES":3,"MAX_VOLT":69,"MIN_VOLT":69,"VOLTAGE":69,"OWNER":"TAP155915","SUB_TYPE":"TAP"}},{"type":"Feature","geometry":{"type":"Point","coordinates":[-155.47104232,20.095538952]},"properties":{"NAME":"UNKNOWN156795","CITY":"HONOKAA","STATE":"HI","ZIP":"96727","TYPE":"SUBSTATION","STATUS":"IN SERVICE","COUNTY":"HAWAII","LINES":2,"MAX_VOLT":69,"MIN_VOLT":69,"VOLTAGE":69,"OWNER":"UNKNOWN156795","SUB_TYPE":"SUBSTATION"}},{"type":"Feature","geometry":{"type":"Point","coordinates":[-155.103886133,19.8401847150001]},"properties":{"NAME":"UNKNOWN156796","CITY":"PEPEEKEO","STATE":"HI","ZIP":"96783","TYPE":"SUBSTATION","STATUS":"IN SERVICE","COUNTY":"HAWAII","LINES":2,"MAX_VOLT":69,"MIN_VOLT":69,"VOLTAGE":69,"OWNER":"UNKNOWN156796","SUB_TYPE":"SUBSTATION"}},{"type":"Feature","geometry":{"type":"Point","coordinates":[-155.088532282,19.8427749090001]},"properties":{"NAME":"UNKNOWN156797","CITY":"PEPEEKEO","STATE":"HI","ZIP":"96783","TYPE":"SUBSTATION","STATUS":"IN SERVICE","COUNTY":"HAWAII","LINES":3,"MAX_VOLT":69,"MIN_VOLT":69,"VOLTAGE":69,"OWNER":"UNKNOWN156797","SUB_TYPE":"SUBSTATION"}},{"type":"Feature","geometry":{"type":"Point","coordinates":[-155.090989075,19.7267577440001]},"properties":{"NAME":"UNKNOWN156798","CITY":"HILO","STATE":"HI","ZIP":"96720","TYPE":"SUBSTATION","STATUS":"IN SERVICE","COUNTY":"HAWAII","LINES":3,"MAX_VOLT":69,"MIN_VOLT":69,"VOLTAGE":69,"OWNER":"UNKNOWN156798","SUB_TYPE":"SUBSTATION"}},{"type":"Feature","geometry":{"type":"Point","coordinates":[-155.605038817,20.041647041]},"properties":{"NAME":"UNKNOWN156799","CITY":"KAMUELA","STATE":"HI","ZIP":"96743","TYPE":"SUBSTATION","STATUS":"IN SERVICE","COUNTY":"HAWAII","LINES":2,"MAX_VOLT":69,"MIN_VOLT":69,"VOLTAGE":69,"OWNER":"UNKNOWN156799","SUB_TYPE":"SUBSTATION"}},{"type":"Feature","geometry":{"type":"Point","coordinates":[-155.660269591,20.0219759730001]},"properties":{"NAME":"UNKNOWN156800","CITY":"KAMUELA","STATE":"HI","ZIP":"96743","TYPE":"SUBSTATION","STATUS":"IN SERVICE","COUNTY":"HAWAII","LINES":2,"MAX_VOLT":69,"MIN_VOLT":69,"VOLTAGE":69,"OWNER":"UNKNOWN156800","SUB_TYPE":"SUBSTATION"}},{"type":"Feature","geometry":{"type":"Point","coordinates":[-155.845913949,20.0711088210001]},"properties":{"NAME":"UNKNOWN156801","CITY":"KAMUELA","STATE":"HI","ZIP":"96743","TYPE":"SUBSTATION","STATUS":"IN SERVICE","COUNTY":"HAWAII","LINES":1,"MAX_VOLT":69,"MIN_VOLT":69,"VOLTAGE":69,"OWNER":"UNKNOWN156801","SUB_TYPE":"SUBSTATION"}},{"type":"Feature","geometry":{"type":"Point","coordinates":[-156.008898105,19.6632132870001]},"properties":{"NAME":"UNKNOWN156802","CITY":"KAILUA KONA","STATE":"HI","ZIP":"96740","TYPE":"SUBSTATION","STATUS":"IN SERVICE","COUNTY":"HAWAII","LINES":1,"MAX_VOLT":69,"MIN_VOLT":69,"VOLTAGE":69,"OWNER":"UNKNOWN156802","SUB_TYPE":"SUBSTATION"}},{"type":"Feature","geometry":{"type":"Point","coordinates":[-158.042762912,21.5264684540001]},"properties":{"NAME":"UNKNOWN156803","CITY":"WAHIAWA","STATE":"HI","ZIP":"96786","TYPE":"SUBSTATION","STATUS":"IN SERVICE","COUNTY":"HONOLULU","LINES":2,"MAX_VOLT":-999999,"MIN_VOLT":-999999,"VOLTAGE":-999999,"OWNER":"UNKNOWN156803","SUB_TYPE":"SUBSTATION"}},{"type":"Feature","geometry":{"type":"Point","coordinates":[-156.307031571,20.755276367]},"properties":{"NAME":"UNKNOWN156804","CITY":"KULA","STATE":"HI","ZIP":"96790","TYPE":"SUBSTATION","STATUS":"IN SERVICE","COUNTY":"MAUI","LINES":2,"MAX_VOLT":69,"MIN_VOLT":69,"VOLTAGE":69,"OWNER":"UNKNOWN156804","SUB_TYPE":"SUBSTATION"}},{"type":"Feature","geometry":{"type":"Point","coordinates":[-155.983152426,19.8010666500001]},"properties":{"NAME":"UNKNOWN156805","CITY":"KAILUA KONA","STATE":"HI","ZIP":"96740","TYPE":"SUBSTATION","STATUS":"IN SERVICE","COUNTY":"HAWAII","LINES":2,"MAX_VOLT":69,"MIN_VOLT":69,"VOLTAGE":69,"OWNER":"UNKNOWN156805","SUB_TYPE":"SUBSTATION"}},{"type":"Feature","geometry":{"type":"Point","coordinates":[-155.876572005,19.9087880220001]},"properties":{"NAME":"UNKNOWN156806","CITY":"WAIKOLOA","STATE":"HI","ZIP":"96738","TYPE":"SUBSTATION","STATUS":"IN SERVICE","COUNTY":"HAWAII","LINES":3,"MAX_VOLT":69,"MIN_VOLT":69,"VOLTAGE":69,"OWNER":"UNKNOWN156806","SUB_TYPE":"SUBSTATION"}},{"type":"Feature","geometry":{"type":"Point","coordinates":[-155.78392432,19.9206678780001]},"properties":{"NAME":"UNKNOWN156807","CITY":"WAIKOLOA","STATE":"HI","ZIP":"96738","TYPE":"SUBSTATION","STATUS":"IN SERVICE","COUNTY":"HAWAII","LINES":1,"MAX_VOLT":69,"MIN_VOLT":69,"VOLTAGE":69,"OWNER":"UNKNOWN156807","SUB_TYPE":"SUBSTATION"}},{"type":"Feature","geometry":{"type":"Point","coordinates":[-155.818960885,19.9742042290001]},"properties":{"NAME":"UNKNOWN156808","CITY":"KAMUELA","STATE":"HI","ZIP":"96743","TYPE":"SUBSTATION","STATUS":"IN SERVICE","COUNTY":"HAWAII","LINES":2,"MAX_VOLT":69,"MIN_VOLT":69,"VOLTAGE":69,"OWNER":"UNKNOWN156808","SUB_TYPE":"SUBSTATION"}},{"type":"Feature","geometry":{"type":"Point","coordinates":[-159.584442449,21.9000171530001]},"properties":{"NAME":"UNKNOWN156809","CITY":"ELEELE","STATE":"HI","ZIP":"96705","TYPE":"SUBSTATION","STATUS":"IN SERVICE","COUNTY":"KAUAI","LINES":3,"MAX_VOLT":57.099998474121094,"MIN_VOLT":57.099998474121094,"VOLTAGE":57.099998474121094,"OWNER":"UNKNOWN156809","SUB_TYPE":"SUBSTATION"}},{"type":"Feature","geometry":{"type":"Point","coordinates":[-159.568761801,21.9181070060001]},"properties":{"NAME":"UNKNOWN156810","CITY":"ELEELE","STATE":"HI","ZIP":"96705","TYPE":"SUBSTATION","STATUS":"IN SERVICE","COUNTY":"KAUAI","LINES":1,"MAX_VOLT":57.099998474121094,"MIN_VOLT":57.099998474121094,"VOLTAGE":57.099998474121094,"OWNER":"UNKNOWN156810","SUB_TYPE":"SUBSTATION"}},{"type":"Feature","geometry":{"type":"Point","coordinates":[-159.376787486,21.995562138]},"properties":{"NAME":"UNKNOWN156811","CITY":"LIHUE","STATE":"HI","ZIP":"96766","TYPE":"SUBSTATION","STATUS":"IN SERVICE","COUNTY":"KAUAI","LINES":2,"MAX_VOLT":57.099998474121094,"MIN_VOLT":57.099998474121094,"VOLTAGE":57.099998474121094,"OWNER":"UNKNOWN156811","SUB_TYPE":"SUBSTATION"}},{"type":"Feature","geometry":{"type":"Point","coordinates":[-159.447435183,21.900909585]},"properties":{"NAME":"UNKNOWN156812","CITY":"KOLOA","STATE":"HI","ZIP":"96756","TYPE":"SUBSTATION","STATUS":"IN SERVICE","COUNTY":"KAUAI","LINES":2,"MAX_VOLT":57.099998474121094,"MIN_VOLT":57.099998474121094,"VOLTAGE":57.099998474121094,"OWNER":"UNKNOWN156812","SUB_TYPE":"SUBSTATION"}},{"type":"Feature","geometry":{"type":"Point","coordinates":[-159.474890094,22.2114461150001]},"properties":{"NAME":"UNKNOWN156813","CITY":"PRINCEVILLE","STATE":"HI","ZIP":"96722","TYPE":"SUBSTATION","STATUS":"IN SERVICE","COUNTY":"KAUAI","LINES":1,"MAX_VOLT":57.099998474121094,"MIN_VOLT":57.099998474121094,"VOLTAGE":57.099998474121094,"OWNER":"UNKNOWN156813","SUB_TYPE":"SUBSTATION"}},{"type":"Feature","geometry":{"type":"Point","coordinates":[-155.913978087,19.4912578330001]},"properties":{"NAME":"UNKNOWN156814","CITY":"CAPTAIN COOK","STATE":"HI","ZIP":"96704","TYPE":"SUBSTATION","STATUS":"IN SERVICE","COUNTY":"HAWAII","LINES":1,"MAX_VOLT":69,"MIN_VOLT":69,"VOLTAGE":69,"OWNER":"UNKNOWN156814","SUB_TYPE":"SUBSTATION"}},{"type":"Feature","geometry":{"type":"Point","coordinates":[-155.943596428,19.5688818]},"properties":{"NAME":"UNKNOWN156815","CITY":"KAILUA KONA","STATE":"HI","ZIP":"96740","TYPE":"SUBSTATION","STATUS":"IN SERVICE","COUNTY":"HAWAII","LINES":1,"MAX_VOLT":69,"MIN_VOLT":69,"VOLTAGE":69,"OWNER":"UNKNOWN156815","SUB_TYPE":"SUBSTATION"}},{"type":"Feature","geometry":{"type":"Point","coordinates":[-155.969419528,19.616334201]},"properties":{"NAME":"UNKNOWN156816","CITY":"KAILUA KONA","STATE":"HI","ZIP":"96740","TYPE":"SUBSTATION","STATUS":"IN SERVICE","COUNTY":"HAWAII","LINES":1,"MAX_VOLT":69,"MIN_VOLT":69,"VOLTAGE":69,"OWNER":"UNKNOWN156816","SUB_TYPE":"SUBSTATION"}},{"type":"Feature","geometry":{"type":"Point","coordinates":[-156.000263292,19.6461072070001]},"properties":{"NAME":"UNKNOWN156817","CITY":"KAILUA KONA","STATE":"HI","ZIP":"96740","TYPE":"SUBSTATION","STATUS":"IN SERVICE","COUNTY":"HAWAII","LINES":3,"MAX_VOLT":69,"MIN_VOLT":69,"VOLTAGE":69,"OWNER":"UNKNOWN156817","SUB_TYPE":"SUBSTATION"}},{"type":"Feature","geometry":{"type":"Point","coordinates":[-155.511718872,19.148726051]},"properties":{"NAME":"UNKNOWN156818","CITY":"PAHALA","STATE":"HI","ZIP":"96777","TYPE":"SUBSTATION","STATUS":"IN SERVICE","COUNTY":"HAWAII","LINES":0,"MAX_VOLT":-999999,"MIN_VOLT":-999999,"VOLTAGE":-999999,"OWNER":"UNKNOWN156818","SUB_TYPE":"SUBSTATION"}},{"type":"Feature","geometry":{"type":"Point","coordinates":[-155.38570118,19.350623743]},"properties":{"NAME":"UNKNOWN156819","CITY":"HAWAII NATIONAL PARK","STATE":"HI","ZIP":"96718","TYPE":"SUBSTATION","STATUS":"IN SERVICE","COUNTY":"HAWAII","LINES":0,"MAX_VOLT":-999999,"MIN_VOLT":-999999,"VOLTAGE":-999999,"OWNER":"UNKNOWN156819","SUB_TYPE":"SUBSTATION"}},{"type":"Feature","geometry":{"type":"Point","coordinates":[-155.062010046,19.7049940430001]},"properties":{"NAME":"UNKNOWN157708","CITY":"HILO","STATE":"HI","ZIP":"96720","TYPE":"SUBSTATION","STATUS":"IN SERVICE","COUNTY":"HAWAII","LINES":4,"MAX_VOLT":69,"MIN_VOLT":69,"VOLTAGE":69,"OWNER":"UNKNOWN157708","SUB_TYPE":"SUBSTATION"}},{"type":"Feature","geometry":{"type":"Point","coordinates":[-155.030658664,19.6319898]},"properties":{"NAME":"UNKNOWN157709","CITY":"KEAAU","STATE":"HI","ZIP":"96749","TYPE":"SUBSTATION","STATUS":"IN SERVICE","COUNTY":"HAWAII","LINES":4,"MAX_VOLT":69,"MIN_VOLT":-999999,"VOLTAGE":69,"OWNER":"UNKNOWN157709","SUB_TYPE":"SUBSTATION"}},{"type":"Feature","geometry":{"type":"Point","coordinates":[-154.890972802,19.4778280900001]},"properties":{"NAME":"UNKNOWN157710","CITY":"PAHOA","STATE":"HI","ZIP":"96778","TYPE":"SUBSTATION","STATUS":"IN SERVICE","COUNTY":"HAWAII","LINES":2,"MAX_VOLT":69,"MIN_VOLT":69,"VOLTAGE":69,"OWNER":"UNKNOWN157710","SUB_TYPE":"SUBSTATION"}},{"type":"Feature","geometry":{"type":"Point","coordinates":[-155.136307307,19.68418719]},"properties":{"NAME":"UNKNOWN157711","CITY":"HILO","STATE":"HI","ZIP":"96720","TYPE":"SUBSTATION","STATUS":"IN SERVICE","COUNTY":"HAWAII","LINES":2,"MAX_VOLT":69,"MIN_VOLT":69,"VOLTAGE":69,"OWNER":"UNKNOWN157711","SUB_TYPE":"SUBSTATION"}},{"type":"Feature","geometry":{"type":"Point","coordinates":[-155.695785426,20.025107344]},"properties":{"NAME":"UNKNOWN157712","CITY":"KAMUELA","STATE":"HI","ZIP":"96743","TYPE":"SUBSTATION","STATUS":"IN SERVICE","COUNTY":"HAWAII","LINES":3,"MAX_VOLT":69,"MIN_VOLT":69,"VOLTAGE":69,"OWNER":"UNKNOWN157712","SUB_TYPE":"SUBSTATION"}},{"type":"Feature","geometry":{"type":"Point","coordinates":[-155.728951543,20.0244309340001]},"properties":{"NAME":"UNKNOWN157713","CITY":"KAMUELA","STATE":"HI","ZIP":"96743","TYPE":"SUBSTATION","STATUS":"IN SERVICE","COUNTY":"HAWAII","LINES":2,"MAX_VOLT":69,"MIN_VOLT":69,"VOLTAGE":69,"OWNER":"UNKNOWN157713","SUB_TYPE":"SUBSTATION"}},{"type":"Feature","geometry":{"type":"Point","coordinates":[-155.815002371,20.025220915]},"properties":{"NAME":"UNKNOWN157714","CITY":"KAMUELA","STATE":"HI","ZIP":"96743","TYPE":"SUBSTATION","STATUS":"IN SERVICE","COUNTY":"HAWAII","LINES":2,"MAX_VOLT":69,"MIN_VOLT":69,"VOLTAGE":69,"OWNER":"UNKNOWN157714","SUB_TYPE":"SUBSTATION"}},{"type":"Feature","geometry":{"type":"Point","coordinates":[-156.029385264,19.73241991]},"properties":{"NAME":"UNKNOWN157715","CITY":"KAILUA KONA","STATE":"HI","ZIP":"96740","TYPE":"SUBSTATION","STATUS":"IN SERVICE","COUNTY":"HAWAII","LINES":2,"MAX_VOLT":69,"MIN_VOLT":69,"VOLTAGE":69,"OWNER":"UNKNOWN157715","SUB_TYPE":"SUBSTATION"}},{"type":"Feature","geometry":{"type":"Point","coordinates":[-156.027307995,19.731798871]},"properties":{"NAME":"UNKNOWN157716","CITY":"KAILUA KONA","STATE":"HI","ZIP":"96740","TYPE":"SUBSTATION","STATUS":"IN SERVICE","COUNTY":"HAWAII","LINES":4,"MAX_VOLT":69,"MIN_VOLT":69,"VOLTAGE":69,"OWNER":"UNKNOWN157716","SUB_TYPE":"SUBSTATION"}},{"type":"Feature","geometry":{"type":"Point","coordinates":[-156.032540429,19.715915969]},"properties":{"NAME":"UNKNOWN157717","CITY":"KAILUA KONA","STATE":"HI","ZIP":"96740","TYPE":"SUBSTATION","STATUS":"IN SERVICE","COUNTY":"HAWAII","LINES":1,"MAX_VOLT":69,"MIN_VOLT":69,"VOLTAGE":69,"OWNER":"UNKNOWN157717","SUB_TYPE":"SUBSTATION"}},{"type":"Feature","geometry":{"type":"Point","coordinates":[-155.988168241,19.649457623]},"properties":{"NAME":"UNKNOWN157718","CITY":"KAILUA KONA","STATE":"HI","ZIP":"96740","TYPE":"SUBSTATION","STATUS":"IN SERVICE","COUNTY":"HAWAII","LINES":2,"MAX_VOLT":69,"MIN_VOLT":69,"VOLTAGE":69,"OWNER":"UNKNOWN157718","SUB_TYPE":"SUBSTATION"}},{"type":"Feature","geometry":{"type":"Point","coordinates":[-156.33052928,20.8248836940001]},"properties":{"NAME":"UNKNOWN157719","CITY":"MAKAWAO","STATE":"HI","ZIP":"96768","TYPE":"SUBSTATION","STATUS":"IN SERVICE","COUNTY":"MAUI","LINES":2,"MAX_VOLT":69,"MIN_VOLT":69,"VOLTAGE":69,"OWNER":"UNKNOWN157719","SUB_TYPE":"SUBSTATION"}},{"type":"Feature","geometry":{"type":"Point","coordinates":[-156.430003098,20.6837053130001]},"properties":{"NAME":"UNKNOWN157720","CITY":"KIHEI","STATE":"HI","ZIP":"96753","TYPE":"SUBSTATION","STATUS":"IN SERVICE","COUNTY":"MAUI","LINES":2,"MAX_VOLT":69,"MIN_VOLT":69,"VOLTAGE":69,"OWNER":"UNKNOWN157720","SUB_TYPE":"SUBSTATION"}},{"type":"Feature","geometry":{"type":"Point","coordinates":[-156.345111276,20.780050126]},"properties":{"NAME":"UNKNOWN157721","CITY":"KULA","STATE":"HI","ZIP":"96790","TYPE":"SUBSTATION","STATUS":"IN SERVICE","COUNTY":"MAUI","LINES":2,"MAX_VOLT":69,"MIN_VOLT":69,"VOLTAGE":69,"OWNER":"UNKNOWN157721","SUB_TYPE":"SUBSTATION"}},{"type":"Feature","geometry":{"type":"Point","coordinates":[-155.796953735,20.002842709]},"properties":{"NAME":"UNKNOWN157722","CITY":"KAMUELA","STATE":"HI","ZIP":"96743","TYPE":"SUBSTATION","STATUS":"IN SERVICE","COUNTY":"HAWAII","LINES":2,"MAX_VOLT":69,"MIN_VOLT":69,"VOLTAGE":69,"OWNER":"UNKNOWN157722","SUB_TYPE":"SUBSTATION"}},{"type":"Feature","geometry":{"type":"Point","coordinates":[-156.659550653,20.8848563110001]},"properties":{"NAME":"UNKNOWN157723","CITY":"LAHAINA","STATE":"HI","ZIP":"96761","TYPE":"SUBSTATION","STATUS":"IN SERVICE","COUNTY":"MAUI","LINES":1,"MAX_VOLT":-999999,"MIN_VOLT":-999999,"VOLTAGE":-999999,"OWNER":"UNKNOWN157723","SUB_TYPE":"SUBSTATION"}},{"type":"Feature","geometry":{"type":"Point","coordinates":[-159.320554913,22.07164648]},"properties":{"NAME":"UNKNOWN157724","CITY":"KAPAA","STATE":"HI","ZIP":"96746","TYPE":"SUBSTATION","STATUS":"IN SERVICE","COUNTY":"KAUAI","LINES":4,"MAX_VOLT":57.099998474121094,"MIN_VOLT":-999999,"VOLTAGE":57.099998474121094,"OWNER":"UNKNOWN157724","SUB_TYPE":"SUBSTATION"}},{"type":"Feature","geometry":{"type":"Point","coordinates":[-159.37588686,21.9762575710001]},"properties":{"NAME":"UNKNOWN157725","CITY":"LIHUE","STATE":"HI","ZIP":"96766","TYPE":"SUBSTATION","STATUS":"IN SERVICE","COUNTY":"KAUAI","LINES":3,"MAX_VOLT":57.099998474121094,"MIN_VOLT":57.099998474121094,"VOLTAGE":57.099998474121094,"OWNER":"UNKNOWN157725","SUB_TYPE":"SUBSTATION"}},{"type":"Feature","geometry":{"type":"Point","coordinates":[-159.555914506,22.1964277610001]},"properties":{"NAME":"UNKNOWN157726","CITY":"HANALEI","STATE":"HI","ZIP":"96714","TYPE":"SUBSTATION","STATUS":"IN SERVICE","COUNTY":"KAUAI","LINES":2,"MAX_VOLT":57.099998474121094,"MIN_VOLT":57.099998474121094,"VOLTAGE":57.099998474121094,"OWNER":"UNKNOWN157726","SUB_TYPE":"SUBSTATION"}},{"type":"Feature","geometry":{"type":"Point","coordinates":[-155.687716924,18.979281106]},"properties":{"NAME":"UNKNOWN157727","CITY":"NOT AVAILABLE","STATE":"HI","ZIP":"NOT AVAILABLE","TYPE":"SUBSTATION","STATUS":"IN SERVICE","COUNTY":"HAWAII","LINES":2,"MAX_VOLT":69,"MIN_VOLT":69,"VOLTAGE":69,"OWNER":"UNKNOWN157727","SUB_TYPE":"SUBSTATION"}},{"type":"Feature","geometry":{"type":"Point","coordinates":[-155.675239031,19.0569324360001]},"properties":{"NAME":"UNKNOWN157728","CITY":"NAALEHU","STATE":"HI","ZIP":"96772","TYPE":"SUBSTATION","STATUS":"IN SERVICE","COUNTY":"HAWAII","LINES":2,"MAX_VOLT":69,"MIN_VOLT":69,"VOLTAGE":69,"OWNER":"UNKNOWN157728","SUB_TYPE":"SUBSTATION"}},{"type":"Feature","geometry":{"type":"Point","coordinates":[-155.881433009,19.4045859660001]},"properties":{"NAME":"UNKNOWN157729","CITY":"CAPTAIN COOK","STATE":"HI","ZIP":"96704","TYPE":"SUBSTATION","STATUS":"IN SERVICE","COUNTY":"HAWAII","LINES":2,"MAX_VOLT":69,"MIN_VOLT":69,"VOLTAGE":69,"OWNER":"UNKNOWN157729","SUB_TYPE":"SUBSTATION"}},{"type":"Feature","geometry":{"type":"Point","coordinates":[-155.954875073,19.582236525]},"properties":{"NAME":"UNKNOWN157730","CITY":"KAILUA KONA","STATE":"HI","ZIP":"96740","TYPE":"SUBSTATION","STATUS":"IN SERVICE","COUNTY":"HAWAII","LINES":3,"MAX_VOLT":69,"MIN_VOLT":69,"VOLTAGE":69,"OWNER":"UNKNOWN157730","SUB_TYPE":"SUBSTATION"}},{"type":"Feature","geometry":{"type":"Point","coordinates":[-154.899584799,19.4815413810001]},"properties":{"NAME":"UNKNOWN157849","CITY":"PAHOA","STATE":"HI","ZIP":"96778","TYPE":"SUBSTATION","STATUS":"IN SERVICE","COUNTY":"HAWAII","LINES":0,"MAX_VOLT":-999999,"MIN_VOLT":-999999,"VOLTAGE":-999999,"OWNER":"UNKNOWN157849","SUB_TYPE":"SUBSTATION"}},{"type":"Feature","geometry":{"type":"Point","coordinates":[-157.795407,21.400491]},"properties":{"NAME":"TAP161432","CITY":"KANEOHE","STATE":"HI","ZIP":"96744","TYPE":"TAP","STATUS":"IN SERVICE","COUNTY":"HONOLULU","LINES":1,"MAX_VOLT":-999999,"MIN_VOLT":-999999,"VOLTAGE":-999999,"OWNER":"TAP161432","SUB_TYPE":"TAP"}},{"type":"Feature","geometry":{"type":"Point","coordinates":[-157.798790488,21.3999143950001]},"properties":{"NAME":"TAP161433","CITY":"KANEOHE","STATE":"HI","ZIP":"96744","TYPE":"TAP","STATUS":"IN SERVICE","COUNTY":"HONOLULU","LINES":3,"MAX_VOLT":-999999,"MIN_VOLT":-999999,"VOLTAGE":-999999,"OWNER":"TAP161433","SUB_TYPE":"TAP"}},{"type":"Feature","geometry":{"type":"Point","coordinates":[-157.792599,21.386398]},"properties":{"NAME":"RISER161434","CITY":"KANEOHE","STATE":"HI","ZIP":"96744","TYPE":"RISER","STATUS":"IN SERVICE","COUNTY":"HONOLULU","LINES":2,"MAX_VOLT":-999999,"MIN_VOLT":-999999,"VOLTAGE":-999999,"OWNER":"RISER161434","SUB_TYPE":"RISER"}},{"type":"Feature","geometry":{"type":"Point","coordinates":[-157.745633565,21.394568308]},"properties":{"NAME":"UNKNOWN161435","CITY":"HONOLULU","STATE":"HI","ZIP":"96734","TYPE":"SUBSTATION","STATUS":"IN SERVICE","COUNTY":"HONOLULU","LINES":1,"MAX_VOLT":-999999,"MIN_VOLT":-999999,"VOLTAGE":-999999,"OWNER":"UNKNOWN161435","SUB_TYPE":"SUBSTATION"}},{"type":"Feature","geometry":{"type":"Point","coordinates":[-157.755792674,21.4100181480001]},"properties":{"NAME":"TAP161436","CITY":"HONOLULU","STATE":"HI","ZIP":"96734","TYPE":"TAP","STATUS":"IN SERVICE","COUNTY":"HONOLULU","LINES":3,"MAX_VOLT":-999999,"MIN_VOLT":-999999,"VOLTAGE":-999999,"OWNER":"TAP161436","SUB_TYPE":"TAP"}},{"type":"Feature","geometry":{"type":"Point","coordinates":[-157.773577,21.398959]},"properties":{"NAME":"TAP161437","CITY":"KANEOHE","STATE":"HI","ZIP":"96744","TYPE":"TAP","STATUS":"IN SERVICE","COUNTY":"HONOLULU","LINES":1,"MAX_VOLT":-999999,"MIN_VOLT":-999999,"VOLTAGE":-999999,"OWNER":"TAP161437","SUB_TYPE":"TAP"}},{"type":"Feature","geometry":{"type":"Point","coordinates":[-157.750631385,21.4230393920001]},"properties":{"NAME":"TAP161438","CITY":"HONOLULU","STATE":"HI","ZIP":"96734","TYPE":"TAP","STATUS":"IN SERVICE","COUNTY":"HONOLULU","LINES":3,"MAX_VOLT":-999999,"MIN_VOLT":-999999,"VOLTAGE":-999999,"OWNER":"TAP161438","SUB_TYPE":"TAP"}},{"type":"Feature","geometry":{"type":"Point","coordinates":[-157.75454191,21.427247231]},"properties":{"NAME":"TAP161439","CITY":"HONOLULU","STATE":"HI","ZIP":"96734","TYPE":"TAP","STATUS":"IN SERVICE","COUNTY":"HONOLULU","LINES":3,"MAX_VOLT":-999999,"MIN_VOLT":-999999,"VOLTAGE":-999999,"OWNER":"TAP161439","SUB_TYPE":"TAP"}},{"type":"Feature","geometry":{"type":"Point","coordinates":[-157.754150092,21.4282824950001]},"properties":{"NAME":"UNKNOWN161440","CITY":"HONOLULU","STATE":"HI","ZIP":"96734","TYPE":"SUBSTATION","STATUS":"IN SERVICE","COUNTY":"HONOLULU","LINES":2,"MAX_VOLT":-999999,"MIN_VOLT":-999999,"VOLTAGE":-999999,"OWNER":"UNKNOWN161440","SUB_TYPE":"SUBSTATION"}},{"type":"Feature","geometry":{"type":"Point","coordinates":[-157.748439386,21.421051907]},"properties":{"NAME":"TAP161441","CITY":"HONOLULU","STATE":"HI","ZIP":"96734","TYPE":"TAP","STATUS":"IN SERVICE","COUNTY":"HONOLULU","LINES":3,"MAX_VOLT":-999999,"MIN_VOLT":-999999,"VOLTAGE":-999999,"OWNER":"TAP161441","SUB_TYPE":"TAP"}},{"type":"Feature","geometry":{"type":"Point","coordinates":[-157.778140889,21.3757455420001]},"properties":{"NAME":"TAP161442","CITY":"HONOLULU","STATE":"HI","ZIP":"96734","TYPE":"TAP","STATUS":"IN SERVICE","COUNTY":"HONOLULU","LINES":3,"MAX_VOLT":-999999,"MIN_VOLT":-999999,"VOLTAGE":-999999,"OWNER":"TAP161442","SUB_TYPE":"TAP"}},{"type":"Feature","geometry":{"type":"Point","coordinates":[-157.749517757,21.419564506]},"properties":{"NAME":"UNKNOWN161443","CITY":"HONOLULU","STATE":"HI","ZIP":"96734","TYPE":"SUBSTATION","STATUS":"IN SERVICE","COUNTY":"HONOLULU","LINES":2,"MAX_VOLT":-999999,"MIN_VOLT":-999999,"VOLTAGE":-999999,"OWNER":"UNKNOWN161443","SUB_TYPE":"SUBSTATION"}},{"type":"Feature","geometry":{"type":"Point","coordinates":[-157.750180486,21.419585467]},"properties":{"NAME":"TAP161444","CITY":"HONOLULU","STATE":"HI","ZIP":"96734","TYPE":"TAP","STATUS":"IN SERVICE","COUNTY":"HONOLULU","LINES":3,"MAX_VOLT":-999999,"MIN_VOLT":-999999,"VOLTAGE":-999999,"OWNER":"TAP161444","SUB_TYPE":"TAP"}},{"type":"Feature","geometry":{"type":"Point","coordinates":[-157.757742276,21.4276973890001]},"properties":{"NAME":"TAP161445","CITY":"HONOLULU","STATE":"HI","ZIP":"96734","TYPE":"TAP","STATUS":"IN SERVICE","COUNTY":"HONOLULU","LINES":1,"MAX_VOLT":-999999,"MIN_VOLT":-999999,"VOLTAGE":-999999,"OWNER":"TAP161445","SUB_TYPE":"TAP"}},{"type":"Feature","geometry":{"type":"Point","coordinates":[-157.729104213,21.380670729]},"properties":{"NAME":"UNKNOWN161446","CITY":"HONOLULU","STATE":"HI","ZIP":"96734","TYPE":"SUBSTATION","STATUS":"IN SERVICE","COUNTY":"HONOLULU","LINES":2,"MAX_VOLT":-999999,"MIN_VOLT":-999999,"VOLTAGE":-999999,"OWNER":"UNKNOWN161446","SUB_TYPE":"SUBSTATION"}},{"type":"Feature","geometry":{"type":"Point","coordinates":[-157.729274,21.380858]},"properties":{"NAME":"TAP161447","CITY":"HONOLULU","STATE":"HI","ZIP":"96734","TYPE":"TAP","STATUS":"IN SERVICE","COUNTY":"HONOLULU","LINES":3,"MAX_VOLT":-999999,"MIN_VOLT":-999999,"VOLTAGE":-999999,"OWNER":"TAP161447","SUB_TYPE":"TAP"}},{"type":"Feature","geometry":{"type":"Point","coordinates":[-157.73993195,21.3678168810001]},"properties":{"NAME":"TAP161448","CITY":"HONOLULU","STATE":"HI","ZIP":"96734","TYPE":"TAP","STATUS":"IN SERVICE","COUNTY":"HONOLULU","LINES":3,"MAX_VOLT":-999999,"MIN_VOLT":-999999,"VOLTAGE":-999999,"OWNER":"TAP161448","SUB_TYPE":"TAP"}},{"type":"Feature","geometry":{"type":"Point","coordinates":[-157.732020007,21.346231559]},"properties":{"NAME":"TAP161449","CITY":"WAIMANALO","STATE":"HI","ZIP":"96795","TYPE":"TAP","STATUS":"IN SERVICE","COUNTY":"HONOLULU","LINES":4,"MAX_VOLT":-999999,"MIN_VOLT":-999999,"VOLTAGE":-999999,"OWNER":"TAP161449","SUB_TYPE":"TAP"}},{"type":"Feature","geometry":{"type":"Point","coordinates":[-157.730140627,21.3419495380001]},"properties":{"NAME":"TAP161450","CITY":"WAIMANALO","STATE":"HI","ZIP":"96795","TYPE":"TAP","STATUS":"IN SERVICE","COUNTY":"HONOLULU","LINES":4,"MAX_VOLT":-999999,"MIN_VOLT":-999999,"VOLTAGE":-999999,"OWNER":"TAP161450","SUB_TYPE":"TAP"}},{"type":"Feature","geometry":{"type":"Point","coordinates":[-157.722555936,21.344802734]},"properties":{"NAME":"TAP161451","CITY":"WAIMANALO","STATE":"HI","ZIP":"96795","TYPE":"TAP","STATUS":"IN SERVICE","COUNTY":"HONOLULU","LINES":3,"MAX_VOLT":-999999,"MIN_VOLT":-999999,"VOLTAGE":-999999,"OWNER":"TAP161451","SUB_TYPE":"TAP"}},{"type":"Feature","geometry":{"type":"Point","coordinates":[-157.703687108,21.3371926230001]},"properties":{"NAME":"UNKNOWN161452","CITY":"WAIMANALO","STATE":"HI","ZIP":"96795","TYPE":"SUBSTATION","STATUS":"IN SERVICE","COUNTY":"HONOLULU","LINES":1,"MAX_VOLT":-999999,"MIN_VOLT":-999999,"VOLTAGE":-999999,"OWNER":"UNKNOWN161452","SUB_TYPE":"SUBSTATION"}},{"type":"Feature","geometry":{"type":"Point","coordinates":[-158.004068,21.469326]},"properties":{"NAME":"TAP161453","CITY":"MILILANI TOWN","STATE":"HI","ZIP":"96789","TYPE":"TAP","STATUS":"IN SERVICE","COUNTY":"HONOLULU","LINES":1,"MAX_VOLT":-999999,"MIN_VOLT":-999999,"VOLTAGE":-999999,"OWNER":"TAP161453","SUB_TYPE":"TAP"}},{"type":"Feature","geometry":{"type":"Point","coordinates":[-158.006463,21.471578]},"properties":{"NAME":"TAP161454","CITY":"MILILANI TOWN","STATE":"HI","ZIP":"96789","TYPE":"TAP","STATUS":"IN SERVICE","COUNTY":"HONOLULU","LINES":3,"MAX_VOLT":-999999,"MIN_VOLT":-999999,"VOLTAGE":-999999,"OWNER":"TAP161454","SUB_TYPE":"TAP"}},{"type":"Feature","geometry":{"type":"Point","coordinates":[-158.006235297,21.4652638750001]},"properties":{"NAME":"UNKNOWN161455","CITY":"MILILANI TOWN","STATE":"HI","ZIP":"96789","TYPE":"SUBSTATION","STATUS":"IN SERVICE","COUNTY":"HONOLULU","LINES":2,"MAX_VOLT":-999999,"MIN_VOLT":-999999,"VOLTAGE":-999999,"OWNER":"UNKNOWN161455","SUB_TYPE":"SUBSTATION"}},{"type":"Feature","geometry":{"type":"Point","coordinates":[-158.00491,21.4641800000001]},"properties":{"NAME":"RISER161456","CITY":"MILILANI TOWN","STATE":"HI","ZIP":"96789","TYPE":"RISER","STATUS":"IN SERVICE","COUNTY":"HONOLULU","LINES":2,"MAX_VOLT":-999999,"MIN_VOLT":-999999,"VOLTAGE":-999999,"OWNER":"RISER161456","SUB_TYPE":"RISER"}},{"type":"Feature","geometry":{"type":"Point","coordinates":[-157.998818,21.4632500000001]},"properties":{"NAME":"TAP161457","CITY":"MILILANI TOWN","STATE":"HI","ZIP":"96789","TYPE":"TAP","STATUS":"IN SERVICE","COUNTY":"HONOLULU","LINES":3,"MAX_VOLT":-999999,"MIN_VOLT":-999999,"VOLTAGE":-999999,"OWNER":"TAP161457","SUB_TYPE":"TAP"}},{"type":"Feature","geometry":{"type":"Point","coordinates":[-157.998736426,21.4643882340001]},"properties":{"NAME":"UNKNOWN161458","CITY":"MILILANI TOWN","STATE":"HI","ZIP":"96789","TYPE":"SUBSTATION","STATUS":"IN SERVICE","COUNTY":"HONOLULU","LINES":1,"MAX_VOLT":-999999,"MIN_VOLT":-999999,"VOLTAGE":-999999,"OWNER":"UNKNOWN161458","SUB_TYPE":"SUBSTATION"}},{"type":"Feature","geometry":{"type":"Point","coordinates":[-159.597620606,21.902779326]},"properties":{"NAME":"TAP161463","CITY":"HANAPEPE","STATE":"HI","ZIP":"96716","TYPE":"TAP","STATUS":"IN SERVICE","COUNTY":"KAUAI","LINES":4,"MAX_VOLT":57.099998474121094,"MIN_VOLT":57.099998474121094,"VOLTAGE":57.099998474121094,"OWNER":"TAP161463","SUB_TYPE":"TAP"}},{"type":"Feature","geometry":{"type":"Point","coordinates":[-159.7107961,21.9665072400001]},"properties":{"NAME":"UNKNOWN161464","CITY":"KEKAHA","STATE":"HI","ZIP":"96752","TYPE":"SUBSTATION","STATUS":"IN SERVICE","COUNTY":"KAUAI","LINES":3,"MAX_VOLT":57.099998474121094,"MIN_VOLT":-999999,"VOLTAGE":57.099998474121094,"OWNER":"UNKNOWN161464","SUB_TYPE":"SUBSTATION"}},{"type":"Feature","geometry":{"type":"Point","coordinates":[-157.989571,21.44647]},"properties":{"NAME":"TAP161465","CITY":"HONOLULU","STATE":"HI","ZIP":"96789","TYPE":"TAP","STATUS":"IN SERVICE","COUNTY":"HONOLULU","LINES":2,"MAX_VOLT":-999999,"MIN_VOLT":-999999,"VOLTAGE":-999999,"OWNER":"TAP161465","SUB_TYPE":"TAP"}},{"type":"Feature","geometry":{"type":"Point","coordinates":[-159.776181011,22.035614223]},"properties":{"NAME":"UNKNOWN161466","CITY":"KEKAHA","STATE":"HI","ZIP":"96752","TYPE":"SUBSTATION","STATUS":"IN SERVICE","COUNTY":"KAUAI","LINES":1,"MAX_VOLT":-999999,"MIN_VOLT":-999999,"VOLTAGE":-999999,"OWNER":"UNKNOWN161466","SUB_TYPE":"SUBSTATION"}},{"type":"Feature","geometry":{"type":"Point","coordinates":[-158.039675696,21.5282071]},"properties":{"NAME":"TAP161467","CITY":"WAHIAWA","STATE":"HI","ZIP":"96786","TYPE":"TAP","STATUS":"IN SERVICE","COUNTY":"HONOLULU","LINES":3,"MAX_VOLT":-999999,"MIN_VOLT":-999999,"VOLTAGE":-999999,"OWNER":"TAP161467","SUB_TYPE":"TAP"}},{"type":"Feature","geometry":{"type":"Point","coordinates":[-158.014717625,21.5237744500001]},"properties":{"NAME":"UNKNOWN161468","CITY":"WAHIAWA","STATE":"HI","ZIP":"96786","TYPE":"SUBSTATION","STATUS":"IN SERVICE","COUNTY":"HONOLULU","LINES":2,"MAX_VOLT":-999999,"MIN_VOLT":-999999,"VOLTAGE":-999999,"OWNER":"UNKNOWN161468","SUB_TYPE":"SUBSTATION"}},{"type":"Feature","geometry":{"type":"Point","coordinates":[-158.049494339,21.4934776650001]},"properties":{"NAME":"UNKNOWN161469","CITY":"WAHIAWA","STATE":"HI","ZIP":"96786","TYPE":"SUBSTATION","STATUS":"IN SERVICE","COUNTY":"HONOLULU","LINES":3,"MAX_VOLT":-999999,"MIN_VOLT":-999999,"VOLTAGE":-999999,"OWNER":"UNKNOWN161469","SUB_TYPE":"SUBSTATION"}},{"type":"Feature","geometry":{"type":"Point","coordinates":[-158.049338,21.4936930000001]},"properties":{"NAME":"TAP161470","CITY":"WAHIAWA","STATE":"HI","ZIP":"96786","TYPE":"TAP","STATUS":"IN SERVICE","COUNTY":"HONOLULU","LINES":3,"MAX_VOLT":-999999,"MIN_VOLT":-999999,"VOLTAGE":-999999,"OWNER":"TAP161470","SUB_TYPE":"TAP"}},{"type":"Feature","geometry":{"type":"Point","coordinates":[-158.070013066,21.4976543330001]},"properties":{"NAME":"UNKNOWN161471","CITY":"WAHIAWA","STATE":"HI","ZIP":"96786","TYPE":"SUBSTATION","STATUS":"IN SERVICE","COUNTY":"HONOLULU","LINES":2,"MAX_VOLT":-999999,"MIN_VOLT":-999999,"VOLTAGE":-999999,"OWNER":"UNKNOWN161471","SUB_TYPE":"SUBSTATION"}},{"type":"Feature","geometry":{"type":"Point","coordinates":[-158.069546,21.5026810000001]},"properties":{"NAME":"TAP161472","CITY":"WAHIAWA","STATE":"HI","ZIP":"96786","TYPE":"TAP","STATUS":"IN SERVICE","COUNTY":"HONOLULU","LINES":2,"MAX_VOLT":-999999,"MIN_VOLT":-999999,"VOLTAGE":-999999,"OWNER":"TAP161472","SUB_TYPE":"TAP"}},{"type":"Feature","geometry":{"type":"Point","coordinates":[-158.106778564,21.576892883]},"properties":{"NAME":"UNKNOWN161473","CITY":"HALEIWA","STATE":"HI","ZIP":"96712","TYPE":"SUBSTATION","STATUS":"IN SERVICE","COUNTY":"HONOLULU","LINES":3,"MAX_VOLT":-999999,"MIN_VOLT":-999999,"VOLTAGE":-999999,"OWNER":"UNKNOWN161473","SUB_TYPE":"SUBSTATION"}},{"type":"Feature","geometry":{"type":"Point","coordinates":[-158.046564,21.495706]},"properties":{"NAME":"TAP161474","CITY":"WAHIAWA","STATE":"HI","ZIP":"96786","TYPE":"TAP","STATUS":"IN SERVICE","COUNTY":"HONOLULU","LINES":2,"MAX_VOLT":-999999,"MIN_VOLT":-999999,"VOLTAGE":-999999,"OWNER":"TAP161474","SUB_TYPE":"TAP"}},{"type":"Feature","geometry":{"type":"Point","coordinates":[-158.076171438,21.620348741]},"properties":{"NAME":"UNKNOWN161475","CITY":"HALEIWA","STATE":"HI","ZIP":"96712","TYPE":"SUBSTATION","STATUS":"IN SERVICE","COUNTY":"HONOLULU","LINES":3,"MAX_VOLT":-999999,"MIN_VOLT":-999999,"VOLTAGE":-999999,"OWNER":"UNKNOWN161475","SUB_TYPE":"SUBSTATION"}},{"type":"Feature","geometry":{"type":"Point","coordinates":[-158.053761675,21.61404079]},"properties":{"NAME":"UNKNOWN161476","CITY":"KAWAILAO","STATE":"HI","ZIP":"96712","TYPE":"SUBSTATION","STATUS":"IN SERVICE","COUNTY":"HONOLULU","LINES":2,"MAX_VOLT":-999999,"MIN_VOLT":-999999,"VOLTAGE":-999999,"OWNER":"UNKNOWN161476","SUB_TYPE":"SUBSTATION"}},{"type":"Feature","geometry":{"type":"Point","coordinates":[-158.15136395,21.4404272850001]},"properties":{"NAME":"UNKNOWN161477","CITY":"WAIANAE","STATE":"HI","ZIP":"96792","TYPE":"SUBSTATION","STATUS":"IN SERVICE","COUNTY":"HONOLULU","LINES":0,"MAX_VOLT":-999999,"MIN_VOLT":-999999,"VOLTAGE":-999999,"OWNER":"UNKNOWN161477","SUB_TYPE":"SUBSTATION"}},{"type":"Feature","geometry":{"type":"Point","coordinates":[-159.465876006,21.8907730810001]},"properties":{"NAME":"TAP162067","CITY":"KOLOA","STATE":"HI","ZIP":"96756","TYPE":"TAP","STATUS":"IN SERVICE","COUNTY":"KAUAI","LINES":1,"MAX_VOLT":57.099998474121094,"MIN_VOLT":57.099998474121094,"VOLTAGE":57.099998474121094,"OWNER":"TAP162067","SUB_TYPE":"TAP"}},{"type":"Feature","geometry":{"type":"Point","coordinates":[-158.006581508,21.4717026970001]},"properties":{"NAME":"TAP162069","CITY":"MILILANI TOWN","STATE":"HI","ZIP":"96789","TYPE":"TAP","STATUS":"IN SERVICE","COUNTY":"HONOLULU","LINES":1,"MAX_VOLT":-999999,"MIN_VOLT":-999999,"VOLTAGE":-999999,"OWNER":"TAP162069","SUB_TYPE":"TAP"}},{"type":"Feature","geometry":{"type":"Point","coordinates":[-158.051903,21.5524830000001]},"properties":{"NAME":"DEADEND167119","CITY":"HONOLULU","STATE":"HI","ZIP":"96791","TYPE":"DEAD END","STATUS":"NOT AVAILABLE","COUNTY":"HONOLULU","LINES":1,"MAX_VOLT":-999999,"MIN_VOLT":-999999,"VOLTAGE":-999999,"OWNER":"DEADEND167119","SUB_TYPE":"DEAD END"}},{"type":"Feature","geometry":{"type":"Point","coordinates":[-157.798903,21.4001930000001]},"properties":{"NAME":"DEADEND167120","CITY":"KANEOHE","STATE":"HI","ZIP":"96744","TYPE":"DEAD END","STATUS":"NOT AVAILABLE","COUNTY":"HONOLULU","LINES":1,"MAX_VOLT":-999999,"MIN_VOLT":-999999,"VOLTAGE":-999999,"OWNER":"DEADEND167120","SUB_TYPE":"DEAD END"}},{"type":"Feature","geometry":{"type":"Point","coordinates":[-157.750783076,21.4229067370001]},"properties":{"NAME":"DEADEND167121","CITY":"HONOLULU","STATE":"HI","ZIP":"96734","TYPE":"DEAD END","STATUS":"NOT AVAILABLE","COUNTY":"HONOLULU","LINES":1,"MAX_VOLT":-999999,"MIN_VOLT":-999999,"VOLTAGE":-999999,"OWNER":"DEADEND167121","SUB_TYPE":"DEAD END"}},{"type":"Feature","geometry":{"type":"Point","coordinates":[-157.737385,21.377557]},"properties":{"NAME":"RISER167122","CITY":"HONOLULU","STATE":"HI","ZIP":"96734","TYPE":"RISER","STATUS":"NOT AVAILABLE","COUNTY":"HONOLULU","LINES":1,"MAX_VOLT":-999999,"MIN_VOLT":-999999,"VOLTAGE":-999999,"OWNER":"RISER167122","SUB_TYPE":"RISER"}},{"type":"Feature","geometry":{"type":"Point","coordinates":[-157.732068,21.3464020000001]},"properties":{"NAME":"DEADEND167123","CITY":"WAIMANALO","STATE":"HI","ZIP":"96795","TYPE":"DEAD END","STATUS":"NOT AVAILABLE","COUNTY":"HONOLULU","LINES":1,"MAX_VOLT":-999999,"MIN_VOLT":-999999,"VOLTAGE":-999999,"OWNER":"DEADEND167123","SUB_TYPE":"DEAD END"}},{"type":"Feature","geometry":{"type":"Point","coordinates":[-157.730514,21.3417860000001]},"properties":{"NAME":"DEADEND167124","CITY":"WAIMANALO","STATE":"HI","ZIP":"96795","TYPE":"DEAD END","STATUS":"NOT AVAILABLE","COUNTY":"HONOLULU","LINES":1,"MAX_VOLT":-999999,"MIN_VOLT":-999999,"VOLTAGE":-999999,"OWNER":"DEADEND167124","SUB_TYPE":"DEAD END"}},{"type":"Feature","geometry":{"type":"Point","coordinates":[-157.730448608,21.3895847850001]},"properties":{"NAME":"DEADEND167125","CITY":"HONOLULU","STATE":"HI","ZIP":"96734","TYPE":"DEAD END","STATUS":"NOT AVAILABLE","COUNTY":"HONOLULU","LINES":1,"MAX_VOLT":-999999,"MIN_VOLT":-999999,"VOLTAGE":-999999,"OWNER":"DEADEND167125","SUB_TYPE":"DEAD END"}},{"type":"Feature","geometry":{"type":"Point","coordinates":[-157.730051,21.341709]},"properties":{"NAME":"DEADEND167126","CITY":"WAIMANALO","STATE":"HI","ZIP":"96795","TYPE":"DEAD END","STATUS":"NOT AVAILABLE","COUNTY":"HONOLULU","LINES":1,"MAX_VOLT":-999999,"MIN_VOLT":-999999,"VOLTAGE":-999999,"OWNER":"DEADEND167126","SUB_TYPE":"DEAD END"}},{"type":"Feature","geometry":{"type":"Point","coordinates":[-157.722602402,21.344958283]},"properties":{"NAME":"DEADEND167127","CITY":"WAIMANALO","STATE":"HI","ZIP":"96795","TYPE":"DEAD END","STATUS":"NOT AVAILABLE","COUNTY":"HONOLULU","LINES":1,"MAX_VOLT":-999999,"MIN_VOLT":-999999,"VOLTAGE":-999999,"OWNER":"DEADEND167127","SUB_TYPE":"DEAD END"}},{"type":"Feature","geometry":{"type":"Point","coordinates":[-159.303088718,22.1299746080001]},"properties":{"NAME":"UNKNOWN167587","CITY":"KEALIA","STATE":"HI","ZIP":"96751","TYPE":"SUBSTATION","STATUS":"IN SERVICE","COUNTY":"KAUAI","LINES":1,"MAX_VOLT":-999999,"MIN_VOLT":-999999,"VOLTAGE":-999999,"OWNER":"UNKNOWN167587","SUB_TYPE":"SUBSTATION"}},{"type":"Feature","geometry":{"type":"Point","coordinates":[-157.971294504,21.686863357]},"properties":{"NAME":"UNKNOWN167588","CITY":"KAHUKU","STATE":"HI","ZIP":"96731","TYPE":"SUBSTATION","STATUS":"IN SERVICE","COUNTY":"HONOLULU","LINES":2,"MAX_VOLT":-999999,"MIN_VOLT":-999999,"VOLTAGE":-999999,"OWNER":"UNKNOWN167588","SUB_TYPE":"SUBSTATION"}},{"type":"Feature","geometry":{"type":"Point","coordinates":[-159.458032582,21.962975871]},"properties":{"NAME":"UNKNOWN167589","CITY":"LIHUE","STATE":"HI","ZIP":"96766","TYPE":"SUBSTATION","STATUS":"IN SERVICE","COUNTY":"KAUAI","LINES":2,"MAX_VOLT":57.099998474121094,"MIN_VOLT":57.099998474121094,"VOLTAGE":57.099998474121094,"OWNER":"UNKNOWN167589","SUB_TYPE":"SUBSTATION"}},{"type":"Feature","geometry":{"type":"Point","coordinates":[-158.096679234,21.574415007]},"properties":{"NAME":"RISER167590","CITY":"HALEIWA","STATE":"HI","ZIP":"96712","TYPE":"RISER","STATUS":"IN SERVICE","COUNTY":"HONOLULU","LINES":2,"MAX_VOLT":-999999,"MIN_VOLT":-999999,"VOLTAGE":-999999,"OWNER":"RISER167590","SUB_TYPE":"RISER"}},{"type":"Feature","geometry":{"type":"Point","coordinates":[-157.994338851,21.6901841420001]},"properties":{"NAME":"UNKNOWN167591","CITY":"KAHUKU","STATE":"HI","ZIP":"96731","TYPE":"SUBSTATION","STATUS":"IN SERVICE","COUNTY":"HONOLULU","LINES":1,"MAX_VOLT":-999999,"MIN_VOLT":-999999,"VOLTAGE":-999999,"OWNER":"UNKNOWN167591","SUB_TYPE":"SUBSTATION"}},{"type":"Feature","geometry":{"type":"Point","coordinates":[-157.994541105,21.690398293]},"properties":{"NAME":"TAP167592","CITY":"KAHUKU","STATE":"HI","ZIP":"96731","TYPE":"TAP","STATUS":"IN SERVICE","COUNTY":"HONOLULU","LINES":3,"MAX_VOLT":-999999,"MIN_VOLT":-999999,"VOLTAGE":-999999,"OWNER":"TAP167592","SUB_TYPE":"TAP"}},{"type":"Feature","geometry":{"type":"Point","coordinates":[-157.947906108,21.676409187]},"properties":{"NAME":"UNKNOWN167593","CITY":"HONOLULU","STATE":"HI","ZIP":"96731","TYPE":"SUBSTATION","STATUS":"IN SERVICE","COUNTY":"HONOLULU","LINES":1,"MAX_VOLT":-999999,"MIN_VOLT":-999999,"VOLTAGE":-999999,"OWNER":"UNKNOWN167593","SUB_TYPE":"SUBSTATION"}},{"type":"Feature","geometry":{"type":"Point","coordinates":[-157.065131,21.106048]},"properties":{"NAME":"UNKNOWN172111","CITY":"KAUNAKAKAI","STATE":"HI","ZIP":"96748","TYPE":"SUBSTATION","STATUS":"IN SERVICE","COUNTY":"MAUI","LINES":0,"MAX_VOLT":-999999,"MIN_VOLT":-999999,"VOLTAGE":-999999,"OWNER":"UNKNOWN172111","SUB_TYPE":"SUBSTATION"}},{"type":"Feature","geometry":{"type":"Point","coordinates":[-156.661123104,20.868922158]},"properties":{"NAME":"DEADEND172581","CITY":"LAHAINA","STATE":"HI","ZIP":"96761","TYPE":"DEAD END","STATUS":"NOT AVAILABLE","COUNTY":"MAUI","LINES":1,"MAX_VOLT":-999999,"MIN_VOLT":-999999,"VOLTAGE":-999999,"OWNER":"DEADEND172581","SUB_TYPE":"DEAD END"}},{"type":"Feature","geometry":{"type":"Point","coordinates":[-156.664526701,20.8831904410001]},"properties":{"NAME":"DEADEND172582","CITY":"LAHAINA","STATE":"HI","ZIP":"96761","TYPE":"DEAD END","STATUS":"NOT AVAILABLE","COUNTY":"MAUI","LINES":1,"MAX_VOLT":-999999,"MIN_VOLT":-999999,"VOLTAGE":-999999,"OWNER":"DEADEND172582","SUB_TYPE":"DEAD END"}},{"type":"Feature","geometry":{"type":"Point","coordinates":[-157.74365021,21.342113484]},"properties":{"NAME":"DEADEND172583","CITY":"WAIMANALO","STATE":"HI","ZIP":"96795","TYPE":"DEAD END","STATUS":"NOT AVAILABLE","COUNTY":"HONOLULU","LINES":1,"MAX_VOLT":-999999,"MIN_VOLT":-999999,"VOLTAGE":-999999,"OWNER":"DEADEND172583","SUB_TYPE":"DEAD END"}},{"type":"Feature","geometry":{"type":"Point","coordinates":[-158.006055,21.4321640000001]},"properties":{"NAME":"DEADEND172584","CITY":"MILILANI TOWN","STATE":"HI","ZIP":"96789","TYPE":"DEAD END","STATUS":"NOT AVAILABLE","COUNTY":"HONOLULU","LINES":1,"MAX_VOLT":-999999,"MIN_VOLT":-999999,"VOLTAGE":-999999,"OWNER":"DEADEND172584","SUB_TYPE":"DEAD END"}},{"type":"Feature","geometry":{"type":"Point","coordinates":[-158.086994272,21.3212334420001]},"properties":{"NAME":"UNKNOWN173457","CITY":"KAPOLEI","STATE":"HI","ZIP":"96707","TYPE":"SUBSTATION","STATUS":"IN SERVICE","COUNTY":"HONOLULU","LINES":0,"MAX_VOLT":-999999,"MIN_VOLT":-999999,"VOLTAGE":-999999,"OWNER":"UNKNOWN173457","SUB_TYPE":"SUBSTATION"}},{"type":"Feature","geometry":{"type":"Point","coordinates":[-158.020414862,21.4278271810001]},"properties":{"NAME":"UNKNOWN173458","CITY":"MILILANI TOWN","STATE":"HI","ZIP":"96789","TYPE":"SUBSTATION","STATUS":"IN SERVICE","COUNTY":"HONOLULU","LINES":1,"MAX_VOLT":138,"MIN_VOLT":138,"VOLTAGE":138,"OWNER":"UNKNOWN173458","SUB_TYPE":"SUBSTATION"}},{"type":"Feature","geometry":{"type":"Point","coordinates":[-158.020612581,21.427160304]},"properties":{"NAME":"TAP173459","CITY":"MILILANI TOWN","STATE":"HI","ZIP":"96789","TYPE":"TAP","STATUS":"IN SERVICE","COUNTY":"HONOLULU","LINES":3,"MAX_VOLT":138,"MIN_VOLT":138,"VOLTAGE":138,"OWNER":"TAP173459","SUB_TYPE":"TAP"}},{"type":"Feature","geometry":{"type":"Point","coordinates":[-158.011845927,21.469129394]},"properties":{"NAME":"UNKNOWN173460","CITY":"MILILANI TOWN","STATE":"HI","ZIP":"96789","TYPE":"SUBSTATION","STATUS":"IN SERVICE","COUNTY":"HONOLULU","LINES":0,"MAX_VOLT":-999999,"MIN_VOLT":-999999,"VOLTAGE":-999999,"OWNER":"UNKNOWN173460","SUB_TYPE":"SUBSTATION"}},{"type":"Feature","geometry":{"type":"Point","coordinates":[-157.975764753,21.4594048710001]},"properties":{"NAME":"UNKNOWN173461","CITY":"NOT AVAILABLE","STATE":"HI","ZIP":"NOT AVAILABLE","TYPE":"SUBSTATION","STATUS":"IN SERVICE","COUNTY":"HONOLULU","LINES":2,"MAX_VOLT":138,"MIN_VOLT":138,"VOLTAGE":138,"OWNER":"UNKNOWN173461","SUB_TYPE":"SUBSTATION"}},{"type":"Feature","geometry":{"type":"Point","coordinates":[-158.193233689,21.456224198]},"properties":{"NAME":"UNKNOWN173462","CITY":"WAIANAE","STATE":"HI","ZIP":"96792","TYPE":"SUBSTATION","STATUS":"IN SERVICE","COUNTY":"HONOLULU","LINES":0,"MAX_VOLT":-999999,"MIN_VOLT":-999999,"VOLTAGE":-999999,"OWNER":"UNKNOWN173462","SUB_TYPE":"SUBSTATION"}},{"type":"Feature","geometry":{"type":"Point","coordinates":[-158.052241141,21.6146596020001]},"properties":{"NAME":"UNKNOWN173495","CITY":"HALEIWA","STATE":"HI","ZIP":"96712","TYPE":"SUBSTATION","STATUS":"IN SERVICE","COUNTY":"HONOLULU","LINES":0,"MAX_VOLT":-999999,"MIN_VOLT":-999999,"VOLTAGE":-999999,"OWNER":"UNKNOWN173495","SUB_TYPE":"SUBSTATION"}},{"type":"Feature","geometry":{"type":"Point","coordinates":[-155.853640624,20.2548553870001]},"properties":{"NAME":"UNKNOWN173496","CITY":"HAWI","STATE":"HI","ZIP":"96719","TYPE":"SUBSTATION","STATUS":"IN SERVICE","COUNTY":"HAWAII","LINES":0,"MAX_VOLT":-999999,"MIN_VOLT":-999999,"VOLTAGE":-999999,"OWNER":"UNKNOWN173496","SUB_TYPE":"SUBSTATION"}}]}