{"type":"FeatureCollection","features":[{"type":"Feature","geometry":{"type":"Point","coordinates":[-100.295847,25.9989472]},"properties":{"NAME":"OSM-6511901206","STATE":"","TYPE":"SUBSTATION","STATUS":"IN SERVICE","MAX_VOLT":null,"CITY":"","COUNTY":"","ZIP":"","LINES":null,"SOURCE":"OpenStreetMap"}},{"type":"Feature","geometry":{"type":"Point","coordinates":[-100.0555948,25.7979659]},"properties":{"NAME":"OSM-9210457524","STATE":"","TYPE":"TRANSMISSION","STATUS":"IN SERVICE","MAX_VOLT":null,"CITY":"","COUNTY":"","ZIP":"","LINES":null,"SOURCE":"OpenStreetMap"}}]}