{"type":"FeatureCollection","features":[{"type":"Feature","geometry":{"type":"Point","coordinates":[-149.7631,61.2308]},"properties":{"NAME":"UNKNOWN158441","STATE":"AK","TYPE":"SUBSTATION","STATUS":"IN SERVICE","MAX_VOLT":115,"CITY":"ANCHORAGE"}},{"type":"Feature","geometry":{"type":"Point","coordinates":[-149.8844,61.2312]},"properties":{"NAME":"UNKNOWN158442","STATE":"AK","TYPE":"SUBSTATION","STATUS":"IN SERVICE","MAX_VOLT":-999999,"CITY":"ANCHORAGE"}},{"type":"Feature","geometry":{"type":"Point","coordinates":[-149.8656,61.2225]},"properties":{"NAME":"UNKNOWN158443","STATE":"AK","TYPE":"SUBSTATION","STATUS":"IN SERVICE","MAX_VOLT":115,"CITY":"ANCHORAGE"}},{"type":"Feature","geometry":{"type":"Point","coordinates":[-149.9016,61.1666]},"properties":{"NAME":"UNKNOWN158444","STATE":"AK","TYPE":"SUBSTATION","STATUS":"IN SERVICE","MAX_VOLT":138,"CITY":"ANCHORAGE"}},{"type":"Feature","geometry":{"type":"Point","coordinates":[-150.0031,61.2003]},"properties":{"NAME":"UNKNOWN158445","STATE":"AK","TYPE":"SUBSTATION","STATUS":"IN SERVICE","MAX_VOLT":138,"CITY":"ANCHORAGE"}},{"type":"Feature","geometry":{"type":"Point","coordinates":[-150.0236,61.1991]},"properties":{"NAME":"UNKNOWN158446","STATE":"AK","TYPE":"SUBSTATION","STATUS":"IN SERVICE","MAX_VOLT":-999999,"CITY":"ANCHORAGE"}},{"type":"Feature","geometry":{"type":"Point","coordinates":[-149.7944,61.1796]},"properties":{"NAME":"UNIVERSITY","STATE":"AK","TYPE":"SUBSTATION","STATUS":"IN SERVICE","MAX_VOLT":230,"CITY":"ANCHORAGE"}},{"type":"Feature","geometry":{"type":"Point","coordinates":[-149.7424,61.2306]},"properties":{"NAME":"UNKNOWN158448","STATE":"AK","TYPE":"SUBSTATION","STATUS":"IN SERVICE","MAX_VOLT":115,"CITY":"ANCHORAGE"}},{"type":"Feature","geometry":{"type":"Point","coordinates":[-150.0317,61.2487]},"properties":{"NAME":"PT. MACKENZIE","STATE":"AK","TYPE":"SUBSTATION","STATUS":"IN SERVICE","MAX_VOLT":230,"CITY":"NOT AVAILABLE"}},{"type":"Feature","geometry":{"type":"Point","coordinates":[-149.7954,61.1948]},"properties":{"NAME":"UNKNOWN158450","STATE":"AK","TYPE":"SUBSTATION","STATUS":"IN SERVICE","MAX_VOLT":115,"CITY":"ANCHORAGE"}},{"type":"Feature","geometry":{"type":"Point","coordinates":[-149.9162,61.3077]},"properties":{"NAME":"RISER158451","STATE":"AK","TYPE":"RISER","STATUS":"IN SERVICE","MAX_VOLT":230,"CITY":"WASILLA"}},{"type":"Feature","geometry":{"type":"Point","coordinates":[-149.8108,61.1666]},"properties":{"NAME":"UNKNOWN158452","STATE":"AK","TYPE":"SUBSTATION","STATUS":"IN SERVICE","MAX_VOLT":-999999,"CITY":"ANCHORAGE"}},{"type":"Feature","geometry":{"type":"Point","coordinates":[-149.7162,61.2298]},"properties":{"NAME":"UNKNOWN158453","STATE":"AK","TYPE":"SUBSTATION","STATUS":"IN SERVICE","MAX_VOLT":115,"CITY":"ANCHORAGE"}},{"type":"Feature","geometry":{"type":"Point","coordinates":[-149.7125,61.2304]},"properties":{"NAME":"UNKNOWN158454","STATE":"AK","TYPE":"SUBSTATION","STATUS":"IN SERVICE","MAX_VOLT":230,"CITY":"ANCHORAGE"}},{"type":"Feature","geometry":{"type":"Point","coordinates":[-149.6118,61.5239]},"properties":{"NAME":"TEELAND","STATE":"AK","TYPE":"SUBSTATION","STATUS":"IN SERVICE","MAX_VOLT":230,"CITY":"WASILLA"}},{"type":"Feature","geometry":{"type":"Point","coordinates":[-148.9476,63.856]},"properties":{"NAME":"UNKNOWN158456","STATE":"AK","TYPE":"SUBSTATION","STATUS":"IN SERVICE","MAX_VOLT":138,"CITY":"HEALY"}},{"type":"Feature","geometry":{"type":"Point","coordinates":[-148.8699,63.3856]},"properties":{"NAME":"UNKNOWN158457","STATE":"AK","TYPE":"SUBSTATION","STATUS":"IN SERVICE","MAX_VOLT":138,"CITY":"CANTWELL"}},{"type":"Feature","geometry":{"type":"Point","coordinates":[-149.6445,60.5252]},"properties":{"NAME":"DAVE'S CREEK","STATE":"AK","TYPE":"SUBSTATION","STATUS":"IN SERVICE","MAX_VOLT":115,"CITY":"MOOSE PASS"}},{"type":"Feature","geometry":{"type":"Point","coordinates":[-151.7961,59.7949]},"properties":{"NAME":"DIAMOND RIDGE","STATE":"AK","TYPE":"SUBSTATION","STATUS":"IN SERVICE","MAX_VOLT":115,"CITY":"ANCHOR POINT"}},{"type":"Feature","geometry":{"type":"Point","coordinates":[-151.5616,59.6724]},"properties":{"NAME":"UNKNOWN158460","STATE":"AK","TYPE":"SUBSTATION","STATUS":"IN SERVICE","MAX_VOLT":115,"CITY":"HOMER"}},{"type":"Feature","geometry":{"type":"Point","coordinates":[-152.5127,57.7619]},"properties":{"NAME":"UNKNOWN158461","STATE":"AK","TYPE":"SUBSTATION","STATUS":"IN SERVICE","MAX_VOLT":138,"CITY":"KODIAK"}},{"type":"Feature","geometry":{"type":"Point","coordinates":[-152.8942,57.6866]},"properties":{"NAME":"UNKNOWN158462","STATE":"AK","TYPE":"SUBSTATION","STATUS":"IN SERVICE","MAX_VOLT":138,"CITY":"NOT AVAILABLE"}},{"type":"Feature","geometry":{"type":"Point","coordinates":[-149.5382,61.3037]},"properties":{"NAME":"UNKNOWN158463","STATE":"AK","TYPE":"SUBSTATION","STATUS":"IN SERVICE","MAX_VOLT":115,"CITY":"EAGLE RIVER"}},{"type":"Feature","geometry":{"type":"Point","coordinates":[-147.661,64.8219]},"properties":{"NAME":"UNKNOWN158464","STATE":"AK","TYPE":"SUBSTATION","STATUS":"IN SERVICE","MAX_VOLT":138,"CITY":"FAIRBANKS"}},{"type":"Feature","geometry":{"type":"Point","coordinates":[-149.7484,60.4732]},"properties":{"NAME":"QUARTZ CREEK","STATE":"AK","TYPE":"SUBSTATION","STATUS":"IN SERVICE","MAX_VOLT":115,"CITY":"COOPER LANDING"}},{"type":"Feature","geometry":{"type":"Point","coordinates":[-148.9685,60.819]},"properties":{"NAME":"UNKNOWN158466","STATE":"AK","TYPE":"SUBSTATION","STATUS":"IN SERVICE","MAX_VOLT":115,"CITY":"GIRDWOOD"}},{"type":"Feature","geometry":{"type":"Point","coordinates":[-146.8311,64.5465]},"properties":{"NAME":"UNKNOWN158467","STATE":"AK","TYPE":"SUBSTATION","STATUS":"IN SERVICE","MAX_VOLT":138,"CITY":"SALCHA"}},{"type":"Feature","geometry":{"type":"Point","coordinates":[-147.3523,64.734]},"properties":{"NAME":"UNKNOWN158468","STATE":"AK","TYPE":"SUBSTATION","STATUS":"IN SERVICE","MAX_VOLT":138,"CITY":"NORTH POLE"}},{"type":"Feature","geometry":{"type":"Point","coordinates":[-149.4519,60.7632]},"properties":{"NAME":"UNKNOWN158469","STATE":"AK","TYPE":"SUBSTATION","STATUS":"IN SERVICE","MAX_VOLT":115,"CITY":"HOPE"}},{"type":"Feature","geometry":{"type":"Point","coordinates":[-147.7246,64.8161]},"properties":{"NAME":"UNKNOWN158470","STATE":"AK","TYPE":"SUBSTATION","STATUS":"IN SERVICE","MAX_VOLT":138,"CITY":"FAIRBANKS"}},{"type":"Feature","geometry":{"type":"Point","coordinates":[-150.998,60.498]},"properties":{"NAME":"UNKNOWN158471","STATE":"AK","TYPE":"SUBSTATION","STATUS":"IN SERVICE","MAX_VOLT":-999999,"CITY":"STERLING"}},{"type":"Feature","geometry":{"type":"Point","coordinates":[-131.6338,55.3444]},"properties":{"NAME":"UNKNOWN158472","STATE":"AK","TYPE":"SUBSTATION","STATUS":"IN SERVICE","MAX_VOLT":-999999,"CITY":"KETCHIKAN"}},{"type":"Feature","geometry":{"type":"Point","coordinates":[-149.0698,64.5259]},"properties":{"NAME":"UNKNOWN158473","STATE":"AK","TYPE":"SUBSTATION","STATUS":"IN SERVICE","MAX_VOLT":138,"CITY":"NENANA"}},{"type":"Feature","geometry":{"type":"Point","coordinates":[-147.9222,64.8544]},"properties":{"NAME":"UNKNOWN158474","STATE":"AK","TYPE":"SUBSTATION","STATUS":"IN SERVICE","MAX_VOLT":138,"CITY":"FAIRBANKS"}},{"type":"Feature","geometry":{"type":"Point","coordinates":[-149.9704,62.1332]},"properties":{"NAME":"UNKNOWN158475","STATE":"AK","TYPE":"SUBSTATION","STATUS":"IN SERVICE","MAX_VOLT":138,"CITY":"TALKEETNA"}},{"type":"Feature","geometry":{"type":"Point","coordinates":[-150.0227,61.7641]},"properties":{"NAME":"DOUGLAS","STATE":"AK","TYPE":"SUBSTATION","STATUS":"IN SERVICE","MAX_VOLT":138,"CITY":"WILLOW"}},{"type":"Feature","geometry":{"type":"Point","coordinates":[-151.0369,61.1863]},"properties":{"NAME":"BELUGA","STATE":"AK","TYPE":"SUBSTATION","STATUS":"IN SERVICE","MAX_VOLT":230,"CITY":"TYONEK"}},{"type":"Feature","geometry":{"type":"Point","coordinates":[-147.8109,64.8523]},"properties":{"NAME":"UNKNOWN158478","STATE":"AK","TYPE":"SUBSTATION","STATUS":"IN SERVICE","MAX_VOLT":-999999,"CITY":"FAIRBANKS"}},{"type":"Feature","geometry":{"type":"Point","coordinates":[-147.718,64.8545]},"properties":{"NAME":"UNKNOWN158479","STATE":"AK","TYPE":"SUBSTATION","STATUS":"IN SERVICE","MAX_VOLT":-999999,"CITY":"FAIRBANKS"}},{"type":"Feature","geometry":{"type":"Point","coordinates":[-147.7344,64.8277]},"properties":{"NAME":"UNKNOWN158480","STATE":"AK","TYPE":"SUBSTATION","STATUS":"IN SERVICE","MAX_VOLT":-999999,"CITY":"FAIRBANKS"}},{"type":"Feature","geometry":{"type":"Point","coordinates":[-147.7374,64.8479]},"properties":{"NAME":"UNKNOWN158481","STATE":"AK","TYPE":"SUBSTATION","STATUS":"IN SERVICE","MAX_VOLT":-999999,"CITY":"FAIRBANKS"}},{"type":"Feature","geometry":{"type":"Point","coordinates":[-134.4636,58.3275]},"properties":{"NAME":"UNKNOWN158482","STATE":"AK","TYPE":"SUBSTATION","STATUS":"IN SERVICE","MAX_VOLT":69,"CITY":"JUNEAU"}},{"type":"Feature","geometry":{"type":"Point","coordinates":[-151.3199,59.7314]},"properties":{"NAME":"UNKNOWN158483","STATE":"AK","TYPE":"SUBSTATION","STATUS":"IN SERVICE","MAX_VOLT":115,"CITY":"HOMER"}},{"type":"Feature","geometry":{"type":"Point","coordinates":[-149.1709,60.9415]},"properties":{"NAME":"UNKNOWN158484","STATE":"AK","TYPE":"SUBSTATION","STATUS":"IN SERVICE","MAX_VOLT":115,"CITY":"GIRDWOOD"}},{"type":"Feature","geometry":{"type":"Point","coordinates":[-145.7186,64.0275]},"properties":{"NAME":"UNKNOWN158485","STATE":"AK","TYPE":"SUBSTATION","STATUS":"IN SERVICE","MAX_VOLT":138,"CITY":"DELTA JUNCTION"}},{"type":"Feature","geometry":{"type":"Point","coordinates":[-145.1496,61.4754]},"properties":{"NAME":"UNKNOWN158486","STATE":"AK","TYPE":"SUBSTATION","STATUS":"IN SERVICE","MAX_VOLT":-999999,"CITY":"COPPER CENTER"}},{"type":"Feature","geometry":{"type":"Point","coordinates":[-145.4898,62.0959]},"properties":{"NAME":"UNKNOWN158487","STATE":"AK","TYPE":"SUBSTATION","STATUS":"IN SERVICE","MAX_VOLT":-999999,"CITY":"GLENNALLEN"}},{"type":"Feature","geometry":{"type":"Point","coordinates":[-145.7208,64.0273]},"properties":{"NAME":"UNKNOWN158488","STATE":"AK","TYPE":"SUBSTATION","STATUS":"IN SERVICE","MAX_VOLT":-999999,"CITY":"DELTA JUNCTION"}},{"type":"Feature","geometry":{"type":"Point","coordinates":[-148.0209,64.8353]},"properties":{"NAME":"UNKNOWN158489","STATE":"AK","TYPE":"SUBSTATION","STATUS":"IN SERVICE","MAX_VOLT":138,"CITY":"FAIRBANKS"}},{"type":"Feature","geometry":{"type":"Point","coordinates":[-134.3248,58.2621]},"properties":{"NAME":"UNKNOWN158490","STATE":"AK","TYPE":"SUBSTATION","STATUS":"IN SERVICE","MAX_VOLT":138,"CITY":"JUNEAU"}},{"type":"Feature","geometry":{"type":"Point","coordinates":[-149.8124,61.5547]},"properties":{"NAME":"UNKNOWN158491","STATE":"AK","TYPE":"SUBSTATION","STATUS":"IN SERVICE","MAX_VOLT":-999999,"CITY":"WASILLA"}},{"type":"Feature","geometry":{"type":"Point","coordinates":[-147.3096,64.7633]},"properties":{"NAME":"UNKNOWN158492","STATE":"AK","TYPE":"SUBSTATION","STATUS":"IN SERVICE","MAX_VOLT":-999999,"CITY":"NORTH POLE"}},{"type":"Feature","geometry":{"type":"Point","coordinates":[-149.0998,64.2861]},"properties":{"NAME":"UNKNOWN158493","STATE":"AK","TYPE":"SUBSTATION","STATUS":"IN SERVICE","MAX_VOLT":138,"CITY":"CLEAR"}},{"type":"Feature","geometry":{"type":"Point","coordinates":[-149.6273,61.2894]},"properties":{"NAME":"FOSSIL CREEK","STATE":"AK","TYPE":"SUBSTATION","STATUS":"IN SERVICE","MAX_VOLT":115,"CITY":"ANCHORAGE"}},{"type":"Feature","geometry":{"type":"Point","coordinates":[-145.7382,63.9792]},"properties":{"NAME":"UNKNOWN158495","STATE":"AK","TYPE":"SUBSTATION","STATUS":"IN SERVICE","MAX_VOLT":138,"CITY":"FORT GREELY"}},{"type":"Feature","geometry":{"type":"Point","coordinates":[-131.49,56.2168]},"properties":{"NAME":"TYEE","STATE":"AK","TYPE":"SUBSTATION","STATUS":"IN SERVICE","MAX_VOLT":115,"CITY":"NOT AVAILABLE"}},{"type":"Feature","geometry":{"type":"Point","coordinates":[-131.3557,55.6154]},"properties":{"NAME":"SWAN","STATE":"AK","TYPE":"SUBSTATION","STATUS":"IN SERVICE","MAX_VOLT":115,"CITY":"NOT AVAILABLE"}},{"type":"Feature","geometry":{"type":"Point","coordinates":[-131.6976,55.3572]},"properties":{"NAME":"KETCHIKAN","STATE":"AK","TYPE":"SUBSTATION","STATUS":"IN SERVICE","MAX_VOLT":115,"CITY":"KETCHIKAN"}},{"type":"Feature","geometry":{"type":"Point","coordinates":[-132.379,56.4607]},"properties":{"NAME":"UNKNOWN158499","STATE":"AK","TYPE":"SUBSTATION","STATUS":"IN SERVICE","MAX_VOLT":115,"CITY":"WRANGELL"}},{"type":"Feature","geometry":{"type":"Point","coordinates":[-132.3511,56.4196]},"properties":{"NAME":"UNKNOWN158500","STATE":"AK","TYPE":"SUBSTATION","STATUS":"IN SERVICE","MAX_VOLT":115,"CITY":"WRANGELL"}},{"type":"Feature","geometry":{"type":"Point","coordinates":[-132.4343,56.4172]},"properties":{"NAME":"UNKNOWN158501","STATE":"AK","TYPE":"SUBSTATION","STATUS":"IN SERVICE","MAX_VOLT":115,"CITY":"NOT AVAILABLE"}},{"type":"Feature","geometry":{"type":"Point","coordinates":[-132.5067,56.4355]},"properties":{"NAME":"UNKNOWN158502","STATE":"AK","TYPE":"SUBSTATION","STATUS":"IN SERVICE","MAX_VOLT":115,"CITY":"NOT AVAILABLE"}},{"type":"Feature","geometry":{"type":"Point","coordinates":[-132.581,56.4574]},"properties":{"NAME":"RISER158503","STATE":"AK","TYPE":"RISER","STATUS":"IN SERVICE","MAX_VOLT":115,"CITY":"NOT AVAILABLE"}},{"type":"Feature","geometry":{"type":"Point","coordinates":[-132.6967,56.5309]},"properties":{"NAME":"RISER158504","STATE":"AK","TYPE":"RISER","STATUS":"IN SERVICE","MAX_VOLT":115,"CITY":"PETERSBURG"}},{"type":"Feature","geometry":{"type":"Point","coordinates":[-132.6308,56.4869]},"properties":{"NAME":"RISER158505","STATE":"AK","TYPE":"RISER","STATUS":"IN SERVICE","MAX_VOLT":115,"CITY":"NOT AVAILABLE"}},{"type":"Feature","geometry":{"type":"Point","coordinates":[-132.9645,56.7772]},"properties":{"NAME":"UNKNOWN158506","STATE":"AK","TYPE":"SUBSTATION","STATUS":"IN SERVICE","MAX_VOLT":115,"CITY":"PETERSBURG"}},{"type":"Feature","geometry":{"type":"Point","coordinates":[-131.9288,56.2101]},"properties":{"NAME":"RISER158507","STATE":"AK","TYPE":"RISER","STATUS":"IN SERVICE","MAX_VOLT":115,"CITY":"NOT AVAILABLE"}},{"type":"Feature","geometry":{"type":"Point","coordinates":[-131.8864,56.1954]},"properties":{"NAME":"RISER158508","STATE":"AK","TYPE":"RISER","STATUS":"IN SERVICE","MAX_VOLT":115,"CITY":"NOT AVAILABLE"}},{"type":"Feature","geometry":{"type":"Point","coordinates":[-133.7394,58.1423]},"properties":{"NAME":"UNKNOWN158509","STATE":"AK","TYPE":"SUBSTATION","STATUS":"IN SERVICE","MAX_VOLT":138,"CITY":"NOT AVAILABLE"}},{"type":"Feature","geometry":{"type":"Point","coordinates":[-134.0814,58.1896]},"properties":{"NAME":"UNKNOWN158510","STATE":"AK","TYPE":"SUBSTATION","STATUS":"IN SERVICE","MAX_VOLT":138,"CITY":"NOT AVAILABLE"}},{"type":"Feature","geometry":{"type":"Point","coordinates":[-134.0521,58.2302]},"properties":{"NAME":"UNKNOWN158511","STATE":"AK","TYPE":"SUBSTATION","STATUS":"IN SERVICE","MAX_VOLT":138,"CITY":"NOT AVAILABLE"}},{"type":"Feature","geometry":{"type":"Point","coordinates":[-134.1491,58.2072]},"properties":{"NAME":"RISER158512","STATE":"AK","TYPE":"RISER","STATUS":"IN SERVICE","MAX_VOLT":138,"CITY":"NOT AVAILABLE"}},{"type":"Feature","geometry":{"type":"Point","coordinates":[-134.588,58.3621]},"properties":{"NAME":"UNKNOWN158513","STATE":"AK","TYPE":"SUBSTATION","STATUS":"IN SERVICE","MAX_VOLT":69,"CITY":"JUNEAU"}},{"type":"Feature","geometry":{"type":"Point","coordinates":[-134.5807,58.3622]},"properties":{"NAME":"RISER158514","STATE":"AK","TYPE":"RISER","STATUS":"IN SERVICE","MAX_VOLT":69,"CITY":"JUNEAU"}},{"type":"Feature","geometry":{"type":"Point","coordinates":[-134.4952,58.3537]},"properties":{"NAME":"UNKNOWN158515","STATE":"AK","TYPE":"SUBSTATION","STATUS":"IN SERVICE","MAX_VOLT":69,"CITY":"JUNEAU"}},{"type":"Feature","geometry":{"type":"Point","coordinates":[-134.6451,58.3871]},"properties":{"NAME":"UNKNOWN158516","STATE":"AK","TYPE":"SUBSTATION","STATUS":"IN SERVICE","MAX_VOLT":-999999,"CITY":"JUNEAU"}},{"type":"Feature","geometry":{"type":"Point","coordinates":[-152.4801,57.7756]},"properties":{"NAME":"UNKNOWN158517","STATE":"AK","TYPE":"SUBSTATION","STATUS":"IN SERVICE","MAX_VOLT":138,"CITY":"KODIAK"}},{"type":"Feature","geometry":{"type":"Point","coordinates":[-150.9981,60.4997]},"properties":{"NAME":"SOLDOTNA","STATE":"AK","TYPE":"SUBSTATION","STATUS":"IN SERVICE","MAX_VOLT":115,"CITY":"SOLDOTNA"}},{"type":"Feature","geometry":{"type":"Point","coordinates":[-151.32,59.732]},"properties":{"NAME":"TAP158519","STATE":"AK","TYPE":"TAP","STATUS":"IN SERVICE","MAX_VOLT":115,"CITY":"HOMER"}},{"type":"Feature","geometry":{"type":"Point","coordinates":[-151.2561,60.3229]},"properties":{"NAME":"UNKNOWN158520","STATE":"AK","TYPE":"SUBSTATION","STATUS":"IN SERVICE","MAX_VOLT":115,"CITY":"KASILOF"}},{"type":"Feature","geometry":{"type":"Point","coordinates":[-151.3658,60.687]},"properties":{"NAME":"UNKNOWN158521","STATE":"AK","TYPE":"SUBSTATION","STATUS":"IN SERVICE","MAX_VOLT":115,"CITY":"KENAI"}},{"type":"Feature","geometry":{"type":"Point","coordinates":[-151.3859,60.6936]},"properties":{"NAME":"BERNICE","STATE":"AK","TYPE":"SUBSTATION","STATUS":"IN SERVICE","MAX_VOLT":115,"CITY":"KENAI"}},{"type":"Feature","geometry":{"type":"Point","coordinates":[-151.3767,60.675]},"properties":{"NAME":"NIKISKI","STATE":"AK","TYPE":"SUBSTATION","STATUS":"IN SERVICE","MAX_VOLT":115,"CITY":"KENAI"}},{"type":"Feature","geometry":{"type":"Point","coordinates":[-151.2289,60.5628]},"properties":{"NAME":"UNKNOWN158524","STATE":"AK","TYPE":"SUBSTATION","STATUS":"IN SERVICE","MAX_VOLT":115,"CITY":"KENAI"}},{"type":"Feature","geometry":{"type":"Point","coordinates":[-151.351,60.6866]},"properties":{"NAME":"TAP158525","STATE":"AK","TYPE":"TAP","STATUS":"IN SERVICE","MAX_VOLT":115,"CITY":"KENAI"}},{"type":"Feature","geometry":{"type":"Point","coordinates":[-150.7897,60.5593]},"properties":{"NAME":"NEW STERLING","STATE":"AK","TYPE":"SUBSTATION","STATUS":"IN SERVICE","MAX_VOLT":115,"CITY":"STERLING"}},{"type":"Feature","geometry":{"type":"Point","coordinates":[-149.6671,60.3925]},"properties":{"NAME":"COOPER LAKE","STATE":"AK","TYPE":"SUBSTATION","STATUS":"IN SERVICE","MAX_VOLT":69,"CITY":"COOPER LANDING"}},{"type":"Feature","geometry":{"type":"Point","coordinates":[-148.9692,60.8191]},"properties":{"NAME":"TAP158528","STATE":"AK","TYPE":"TAP","STATUS":"IN SERVICE","MAX_VOLT":115,"CITY":"GIRDWOOD"}},{"type":"Feature","geometry":{"type":"Point","coordinates":[-149.7168,61.1951]},"properties":{"NAME":"TAP158529","STATE":"AK","TYPE":"TAP","STATUS":"IN SERVICE","MAX_VOLT":115,"CITY":"ANCHORAGE"}},{"type":"Feature","geometry":{"type":"Point","coordinates":[-149.7048,61.2285]},"properties":{"NAME":"TAP158531","STATE":"AK","TYPE":"TAP","STATUS":"IN SERVICE","MAX_VOLT":115,"CITY":"JBER"}},{"type":"Feature","geometry":{"type":"Point","coordinates":[-149.7048,61.2285]},"properties":{"NAME":"TAP158532","STATE":"AK","TYPE":"TAP","STATUS":"IN SERVICE","MAX_VOLT":115,"CITY":"JBER"}},{"type":"Feature","geometry":{"type":"Point","coordinates":[-149.7168,61.1952]},"properties":{"NAME":"TAP158533","STATE":"AK","TYPE":"TAP","STATUS":"IN SERVICE","MAX_VOLT":115,"CITY":"ANCHORAGE"}},{"type":"Feature","geometry":{"type":"Point","coordinates":[-149.8368,61.232]},"properties":{"NAME":"UNKNOWN158534","STATE":"AK","TYPE":"SUBSTATION","STATUS":"IN SERVICE","MAX_VOLT":115,"CITY":"ANCHORAGE"}},{"type":"Feature","geometry":{"type":"Point","coordinates":[-149.8146,61.2214]},"properties":{"NAME":"UNKNOWN158535","STATE":"AK","TYPE":"SUBSTATION","STATUS":"IN SERVICE","MAX_VOLT":115,"CITY":"ANCHORAGE"}},{"type":"Feature","geometry":{"type":"Point","coordinates":[-149.631,61.2855]},"properties":{"NAME":"TAP158536","STATE":"AK","TYPE":"TAP","STATUS":"IN SERVICE","MAX_VOLT":230,"CITY":"ANCHORAGE"}},{"type":"Feature","geometry":{"type":"Point","coordinates":[-149.8127,61.3113]},"properties":{"NAME":"RISER158537","STATE":"AK","TYPE":"RISER","STATUS":"IN SERVICE","MAX_VOLT":230,"CITY":"NOT AVAILABLE"}},{"type":"Feature","geometry":{"type":"Point","coordinates":[-149.5944,61.3259]},"properties":{"NAME":"TAP158538","STATE":"AK","TYPE":"TAP","STATUS":"IN SERVICE","MAX_VOLT":115,"CITY":"ANCHORAGE"}},{"type":"Feature","geometry":{"type":"Point","coordinates":[-149.572,61.3254]},"properties":{"NAME":"UNKNOWN158539","STATE":"AK","TYPE":"SUBSTATION","STATUS":"IN SERVICE","MAX_VOLT":115,"CITY":"EAGLE RIVER"}},{"type":"Feature","geometry":{"type":"Point","coordinates":[-149.3393,61.4604]},"properties":{"NAME":"EKLUTNA","STATE":"AK","TYPE":"SUBSTATION","STATUS":"IN SERVICE","MAX_VOLT":230,"CITY":"CHUGIAK"}},{"type":"Feature","geometry":{"type":"Point","coordinates":[-149.15,61.4752]},"properties":{"NAME":"UNKNOWN158541","STATE":"AK","TYPE":"SUBSTATION","STATUS":"IN SERVICE","MAX_VOLT":115,"CITY":"PALMER"}},{"type":"Feature","geometry":{"type":"Point","coordinates":[-149.2533,61.5686]},"properties":{"NAME":"HOSPITAL","STATE":"AK","TYPE":"SUBSTATION","STATUS":"IN SERVICE","MAX_VOLT":115,"CITY":"PALMER"}},{"type":"Feature","geometry":{"type":"Point","coordinates":[-149.2132,61.5922]},"properties":{"NAME":"TAP158543","STATE":"AK","TYPE":"TAP","STATUS":"IN SERVICE","MAX_VOLT":115,"CITY":"PALMER"}},{"type":"Feature","geometry":{"type":"Point","coordinates":[-149.2467,61.5922]},"properties":{"NAME":"TAP158544","STATE":"AK","TYPE":"TAP","STATUS":"IN SERVICE","MAX_VOLT":115,"CITY":"PALMER"}},{"type":"Feature","geometry":{"type":"Point","coordinates":[-149.3289,61.6144]},"properties":{"NAME":"UNKNOWN158545","STATE":"AK","TYPE":"SUBSTATION","STATUS":"IN SERVICE","MAX_VOLT":115,"CITY":"WASILLA"}},{"type":"Feature","geometry":{"type":"Point","coordinates":[-149.4363,61.5774]},"properties":{"NAME":"UNKNOWN158546","STATE":"AK","TYPE":"SUBSTATION","STATUS":"IN SERVICE","MAX_VOLT":115,"CITY":"WASILLA"}},{"type":"Feature","geometry":{"type":"Point","coordinates":[-149.4358,61.5773]},"properties":{"NAME":"TAP158547","STATE":"AK","TYPE":"TAP","STATUS":"IN SERVICE","MAX_VOLT":115,"CITY":"WASILLA"}},{"type":"Feature","geometry":{"type":"Point","coordinates":[-149.5114,61.56]},"properties":{"NAME":"TAP158548","STATE":"AK","TYPE":"TAP","STATUS":"IN SERVICE","MAX_VOLT":115,"CITY":"WASILLA"}},{"type":"Feature","geometry":{"type":"Point","coordinates":[-149.5106,61.5532]},"properties":{"NAME":"UNKNOWN158549","STATE":"AK","TYPE":"SUBSTATION","STATUS":"IN SERVICE","MAX_VOLT":115,"CITY":"WASILLA"}},{"type":"Feature","geometry":{"type":"Point","coordinates":[-147.3453,65.0066]},"properties":{"NAME":"UNKNOWN158550","STATE":"AK","TYPE":"SUBSTATION","STATUS":"IN SERVICE","MAX_VOLT":138,"CITY":"NOT AVAILABLE"}},{"type":"Feature","geometry":{"type":"Point","coordinates":[-147.644,64.8261]},"properties":{"NAME":"UNKNOWN158551","STATE":"AK","TYPE":"SUBSTATION","STATUS":"IN SERVICE","MAX_VOLT":138,"CITY":"FORT WAINWRIGHT"}},{"type":"Feature","geometry":{"type":"Point","coordinates":[-147.0261,64.5531]},"properties":{"NAME":"TAP158552","STATE":"AK","TYPE":"TAP","STATUS":"IN SERVICE","MAX_VOLT":138,"CITY":"SALCHA"}},{"type":"Feature","geometry":{"type":"Point","coordinates":[-147.0199,64.5442]},"properties":{"NAME":"UNKNOWN158553","STATE":"AK","TYPE":"SUBSTATION","STATUS":"IN SERVICE","MAX_VOLT":138,"CITY":"SALCHA"}},{"type":"Feature","geometry":{"type":"Point","coordinates":[-147.0748,64.6721]},"properties":{"NAME":"UNKNOWN158554","STATE":"AK","TYPE":"SUBSTATION","STATUS":"IN SERVICE","MAX_VOLT":138,"CITY":"EIELSON AFB"}},{"type":"Feature","geometry":{"type":"Point","coordinates":[-146.1291,64.3107]},"properties":{"NAME":"UNKNOWN158555","STATE":"AK","TYPE":"SUBSTATION","STATUS":"IN SERVICE","MAX_VOLT":138,"CITY":"DELTA JUNCTION"}},{"type":"Feature","geometry":{"type":"Point","coordinates":[-145.759,63.9584]},"properties":{"NAME":"TAP158556","STATE":"AK","TYPE":"TAP","STATUS":"IN SERVICE","MAX_VOLT":138,"CITY":"FORT GREELY"}},{"type":"Feature","geometry":{"type":"Point","coordinates":[-145.7443,63.9579]},"properties":{"NAME":"UNKNOWN158557","STATE":"AK","TYPE":"SUBSTATION","STATUS":"IN SERVICE","MAX_VOLT":138,"CITY":"FORT GREELY"}},{"type":"Feature","geometry":{"type":"Point","coordinates":[-145.7708,63.9328]},"properties":{"NAME":"UNKNOWN158558","STATE":"AK","TYPE":"SUBSTATION","STATUS":"IN SERVICE","MAX_VOLT":138,"CITY":"DELTA JUNCTION"}},{"type":"Feature","geometry":{"type":"Point","coordinates":[-144.9144,64.4604]},"properties":{"NAME":"UNKNOWN158559","STATE":"AK","TYPE":"SUBSTATION","STATUS":"IN SERVICE","MAX_VOLT":138,"CITY":"NOT AVAILABLE"}},{"type":"Feature","geometry":{"type":"Point","coordinates":[-149.4351,60.1307]},"properties":{"NAME":"SEWARD","STATE":"AK","TYPE":"SUBSTATION","STATUS":"IN SERVICE","MAX_VOLT":115,"CITY":"SEWARD"}},{"type":"Feature","geometry":{"type":"Point","coordinates":[-149.9113,61.1677]},"properties":{"NAME":"UNKNOWN158561","STATE":"AK","TYPE":"SUBSTATION","STATUS":"IN SERVICE","MAX_VOLT":138,"CITY":"ANCHORAGE"}},{"type":"Feature","geometry":{"type":"Point","coordinates":[-149.9119,61.169]},"properties":{"NAME":"UNKNOWN158562","STATE":"AK","TYPE":"SUBSTATION","STATUS":"IN SERVICE","MAX_VOLT":-999999,"CITY":"ANCHORAGE"}},{"type":"Feature","geometry":{"type":"Point","coordinates":[-149.8039,61.1078]},"properties":{"NAME":"TAP158563","STATE":"AK","TYPE":"TAP","STATUS":"IN SERVICE","MAX_VOLT":138,"CITY":"ANCHORAGE"}},{"type":"Feature","geometry":{"type":"Point","coordinates":[-149.9673,61.1572]},"properties":{"NAME":"UNKNOWN158564","STATE":"AK","TYPE":"SUBSTATION","STATUS":"IN SERVICE","MAX_VOLT":-999999,"CITY":"ANCHORAGE"}},{"type":"Feature","geometry":{"type":"Point","coordinates":[-145.5339,62.1105]},"properties":{"NAME":"UNKNOWN158565","STATE":"AK","TYPE":"SUBSTATION","STATUS":"IN SERVICE","MAX_VOLT":-999999,"CITY":"GLENNALLEN"}},{"type":"Feature","geometry":{"type":"Point","coordinates":[-145.1565,61.4743]},"properties":{"NAME":"TAP158566","STATE":"AK","TYPE":"TAP","STATUS":"IN SERVICE","MAX_VOLT":-999999,"CITY":"COPPER CENTER"}},{"type":"Feature","geometry":{"type":"Point","coordinates":[-134.4326,58.2979]},"properties":{"NAME":"UNKNOWN158567","STATE":"AK","TYPE":"SUBSTATION","STATUS":"IN SERVICE","MAX_VOLT":-999999,"CITY":"JUNEAU"}},{"type":"Feature","geometry":{"type":"Point","coordinates":[-149.1892,60.9452]},"properties":{"NAME":"TAP158568","STATE":"AK","TYPE":"TAP","STATUS":"IN SERVICE","MAX_VOLT":115,"CITY":"ANCHORAGE"}},{"type":"Feature","geometry":{"type":"Point","coordinates":[-149.3398,61.4588]},"properties":{"NAME":"UNKNOWN158569","STATE":"AK","TYPE":"SUBSTATION","STATUS":"IN SERVICE","MAX_VOLT":-999999,"CITY":"CHUGIAK"}},{"type":"Feature","geometry":{"type":"Point","coordinates":[-149.7189,61.1805]},"properties":{"NAME":"TAP158570","STATE":"AK","TYPE":"TAP","STATUS":"IN SERVICE","MAX_VOLT":115,"CITY":"ANCHORAGE"}},{"type":"Feature","geometry":{"type":"Point","coordinates":[-150.9402,59.7791]},"properties":{"NAME":"BRADLEY LAKE","STATE":"AK","TYPE":"SUBSTATION","STATUS":"IN SERVICE","MAX_VOLT":115,"CITY":"NOT AVAILABLE"}},{"type":"Feature","geometry":{"type":"Point","coordinates":[-149.1786,61.5922]},"properties":{"NAME":"TAP158572","STATE":"AK","TYPE":"TAP","STATUS":"IN SERVICE","MAX_VOLT":115,"CITY":"PALMER"}},{"type":"Feature","geometry":{"type":"Point","coordinates":[-148.8929,61.7152]},"properties":{"NAME":"O'NEIL","STATE":"AK","TYPE":"SUBSTATION","STATUS":"IN SERVICE","MAX_VOLT":115,"CITY":"SUTTON"}},{"type":"Feature","geometry":{"type":"Point","coordinates":[-149.1214,61.5922]},"properties":{"NAME":"UNKNOWN158574","STATE":"AK","TYPE":"SUBSTATION","STATUS":"IN SERVICE","MAX_VOLT":115,"CITY":"PALMER"}},{"type":"Feature","geometry":{"type":"Point","coordinates":[-149.1034,61.5924]},"properties":{"NAME":"UNKNOWN158575","STATE":"AK","TYPE":"SUBSTATION","STATUS":"IN SERVICE","MAX_VOLT":115,"CITY":"PALMER"}},{"type":"Feature","geometry":{"type":"Point","coordinates":[-149.1034,61.5921]},"properties":{"NAME":"TAP158576","STATE":"AK","TYPE":"TAP","STATUS":"IN SERVICE","MAX_VOLT":115,"CITY":"PALMER"}},{"type":"Feature","geometry":{"type":"Point","coordinates":[-149.8969,61.2002]},"properties":{"NAME":"UNKNOWN158577","STATE":"AK","TYPE":"SUBSTATION","STATUS":"IN SERVICE","MAX_VOLT":115,"CITY":"ANCHORAGE"}},{"type":"Feature","geometry":{"type":"Point","coordinates":[-149.8923,61.2119]},"properties":{"NAME":"UNKNOWN158578","STATE":"AK","TYPE":"SUBSTATION","STATUS":"IN SERVICE","MAX_VOLT":115,"CITY":"ANCHORAGE"}},{"type":"Feature","geometry":{"type":"Point","coordinates":[-149.816,61.2315]},"properties":{"NAME":"TAP158579","STATE":"AK","TYPE":"TAP","STATUS":"IN SERVICE","MAX_VOLT":115,"CITY":"ANCHORAGE"}},{"type":"Feature","geometry":{"type":"Point","coordinates":[-149.8305,61.195]},"properties":{"NAME":"UNKNOWN158580","STATE":"AK","TYPE":"SUBSTATION","STATUS":"IN SERVICE","MAX_VOLT":115,"CITY":"ANCHORAGE"}},{"type":"Feature","geometry":{"type":"Point","coordinates":[-149.8699,61.1865]},"properties":{"NAME":"UNKNOWN158581","STATE":"AK","TYPE":"SUBSTATION","STATUS":"IN SERVICE","MAX_VOLT":115,"CITY":"ANCHORAGE"}},{"type":"Feature","geometry":{"type":"Point","coordinates":[-149.8978,61.1883]},"properties":{"NAME":"TAP158582","STATE":"AK","TYPE":"TAP","STATUS":"IN SERVICE","MAX_VOLT":115,"CITY":"ANCHORAGE"}},{"type":"Feature","geometry":{"type":"Point","coordinates":[-149.8692,61.1344]},"properties":{"NAME":"UNKNOWN161415","STATE":"AK","TYPE":"SUBSTATION","STATUS":"IN SERVICE","MAX_VOLT":138,"CITY":"ANCHORAGE"}},{"type":"Feature","geometry":{"type":"Point","coordinates":[-149.871,61.1343]},"properties":{"NAME":"TAP161430","STATE":"AK","TYPE":"TAP","STATUS":"IN SERVICE","MAX_VOLT":138,"CITY":"ANCHORAGE"}},{"type":"Feature","geometry":{"type":"Point","coordinates":[-149.867,61.1155]},"properties":{"NAME":"UNKNOWN161431","STATE":"AK","TYPE":"SUBSTATION","STATUS":"IN SERVICE","MAX_VOLT":138,"CITY":"ANCHORAGE"}},{"type":"Feature","geometry":{"type":"Point","coordinates":[-149.9023,61.1666]},"properties":{"NAME":"TAP161459","STATE":"AK","TYPE":"TAP","STATUS":"IN SERVICE","MAX_VOLT":138,"CITY":"ANCHORAGE"}},{"type":"Feature","geometry":{"type":"Point","coordinates":[-149.918,61.1806]},"properties":{"NAME":"UNKNOWN161460","STATE":"AK","TYPE":"SUBSTATION","STATUS":"IN SERVICE","MAX_VOLT":-999999,"CITY":"ANCHORAGE"}},{"type":"Feature","geometry":{"type":"Point","coordinates":[-150.1672,61.1677]},"properties":{"NAME":"TAP161461","STATE":"AK","TYPE":"TAP","STATUS":"IN SERVICE","MAX_VOLT":-999999,"CITY":"NOT AVAILABLE"}},{"type":"Feature","geometry":{"type":"Point","coordinates":[-150.2178,61.146]},"properties":{"NAME":"TAP161462","STATE":"AK","TYPE":"TAP","STATUS":"IN SERVICE","MAX_VOLT":-999999,"CITY":"NOT AVAILABLE"}},{"type":"Feature","geometry":{"type":"Point","coordinates":[-147.3752,64.7626]},"properties":{"NAME":"UNKNOWN161481","STATE":"AK","TYPE":"SUBSTATION","STATUS":"IN SERVICE","MAX_VOLT":-999999,"CITY":"NORTH POLE"}},{"type":"Feature","geometry":{"type":"Point","coordinates":[-147.3096,64.7626]},"properties":{"NAME":"TAP161483","STATE":"AK","TYPE":"TAP","STATUS":"IN SERVICE","MAX_VOLT":-999999,"CITY":"NORTH POLE"}},{"type":"Feature","geometry":{"type":"Point","coordinates":[-149.9125,61.1735]},"properties":{"NAME":"UNKNOWN161973","STATE":"AK","TYPE":"SUBSTATION","STATUS":"IN SERVICE","MAX_VOLT":115,"CITY":"ANCHORAGE"}},{"type":"Feature","geometry":{"type":"Point","coordinates":[-149.7974,61.1951]},"properties":{"NAME":"UNKNOWN161980","STATE":"AK","TYPE":"SUBSTATION","STATUS":"IN SERVICE","MAX_VOLT":115,"CITY":"ANCHORAGE"}},{"type":"Feature","geometry":{"type":"Point","coordinates":[-149.4953,60.9194]},"properties":{"NAME":"DEADEND167051","STATE":"AK","TYPE":"DEAD END","STATUS":"NOT AVAILABLE","MAX_VOLT":115,"CITY":"HOPE"}},{"type":"Feature","geometry":{"type":"Point","coordinates":[-145.4138,61.2076]},"properties":{"NAME":"DEADEND167052","STATE":"AK","TYPE":"DEAD END","STATUS":"NOT AVAILABLE","MAX_VOLT":-999999,"CITY":"COPPER CENTER"}},{"type":"Feature","geometry":{"type":"Point","coordinates":[-149.4507,61.3003]},"properties":{"NAME":"UNKNOWN167576","STATE":"AK","TYPE":"SUBSTATION","STATUS":"IN SERVICE","MAX_VOLT":115,"CITY":"EAGLE RIVER"}},{"type":"Feature","geometry":{"type":"Point","coordinates":[-149.5391,61.2928]},"properties":{"NAME":"TAP167577","STATE":"AK","TYPE":"TAP","STATUS":"IN SERVICE","MAX_VOLT":115,"CITY":"EAGLE RIVER"}},{"type":"Feature","geometry":{"type":"Point","coordinates":[-147.7678,64.8521]},"properties":{"NAME":"UNKNOWN172022","STATE":"AK","TYPE":"SUBSTATION","STATUS":"IN SERVICE","MAX_VOLT":-999999,"CITY":"FAIRBANKS"}},{"type":"Feature","geometry":{"type":"Point","coordinates":[-147.8435,64.8343]},"properties":{"NAME":"UNKNOWN172023","STATE":"AK","TYPE":"SUBSTATION","STATUS":"IN SERVICE","MAX_VOLT":-999999,"CITY":"FAIRBANKS"}},{"type":"Feature","geometry":{"type":"Point","coordinates":[-151.13,60.5666]},"properties":{"NAME":"UNKNOWN172024","STATE":"AK","TYPE":"SUBSTATION","STATUS":"IN SERVICE","MAX_VOLT":-999999,"CITY":"KENAI"}},{"type":"Feature","geometry":{"type":"Point","coordinates":[-149.8703,61.1301]},"properties":{"NAME":"TAP172025","STATE":"AK","TYPE":"TAP","STATUS":"IN SERVICE","MAX_VOLT":138,"CITY":"ANCHORAGE"}},{"type":"Feature","geometry":{"type":"Point","coordinates":[-149.9061,61.1302]},"properties":{"NAME":"DEADEND172026","STATE":"AK","TYPE":"DEAD END","STATUS":"IN SERVICE","MAX_VOLT":138,"CITY":"ANCHORAGE"}},{"type":"Feature","geometry":{"type":"Point","coordinates":[-149.804,61.1233]},"properties":{"NAME":"TAP172027","STATE":"AK","TYPE":"TAP","STATUS":"IN SERVICE","MAX_VOLT":138,"CITY":"ANCHORAGE"}},{"type":"Feature","geometry":{"type":"Point","coordinates":[-149.9552,61.1744]},"properties":{"NAME":"UNKNOWN172028","STATE":"AK","TYPE":"SUBSTATION","STATUS":"IN SERVICE","MAX_VOLT":-999999,"CITY":"ANCHORAGE"}},{"type":"Feature","geometry":{"type":"Point","coordinates":[-149.9171,61.1805]},"properties":{"NAME":"TAP172029","STATE":"AK","TYPE":"TAP","STATUS":"IN SERVICE","MAX_VOLT":-999999,"CITY":"ANCHORAGE"}},{"type":"Feature","geometry":{"type":"Point","coordinates":[-149.898,61.2207]},"properties":{"NAME":"UNKNOWN172030","STATE":"AK","TYPE":"SUBSTATION","STATUS":"IN SERVICE","MAX_VOLT":-999999,"CITY":"ANCHORAGE"}},{"type":"Feature","geometry":{"type":"Point","coordinates":[-149.1792,64.2926]},"properties":{"NAME":"UNKNOWN172031","STATE":"AK","TYPE":"SUBSTATION","STATUS":"IN SERVICE","MAX_VOLT":-999999,"CITY":"CLEAR"}},{"type":"Feature","geometry":{"type":"Point","coordinates":[-147.8224,64.8537]},"properties":{"NAME":"UNKNOWN172032","STATE":"AK","TYPE":"SUBSTATION","STATUS":"IN SERVICE","MAX_VOLT":-999999,"CITY":"FAIRBANKS"}},{"type":"Feature","geometry":{"type":"Point","coordinates":[-147.7771,64.8205]},"properties":{"NAME":"UNKNOWN172033","STATE":"AK","TYPE":"SUBSTATION","STATUS":"IN SERVICE","MAX_VOLT":-999999,"CITY":"FAIRBANKS"}},{"type":"Feature","geometry":{"type":"Point","coordinates":[-149.3517,60.089]},"properties":{"NAME":"UNKNOWN172073","STATE":"AK","TYPE":"SUBSTATION","STATUS":"IN SERVICE","MAX_VOLT":-999999,"CITY":"SEWARD"}},{"type":"Feature","geometry":{"type":"Point","coordinates":[-165.4304,64.5049]},"properties":{"NAME":"UNKNOWN172074","STATE":"AK","TYPE":"SUBSTATION","STATUS":"IN SERVICE","MAX_VOLT":-999999,"CITY":"NOME"}},{"type":"Feature","geometry":{"type":"Point","coordinates":[-146.3652,61.1303]},"properties":{"NAME":"UNKNOWN172075","STATE":"AK","TYPE":"SUBSTATION","STATUS":"IN SERVICE","MAX_VOLT":-999999,"CITY":"VALDEZ"}},{"type":"Feature","geometry":{"type":"Point","coordinates":[-149.6162,61.5239]},"properties":{"NAME":"THEODORE","STATE":"AK","TYPE":"SUBSTATION","STATUS":"NOT AVAILABLE","MAX_VOLT":-999999,"CITY":"WASILLA"}},{"type":"Feature","geometry":{"type":"Point","coordinates":[-148.8965,64.0599]},"properties":{"NAME":"UNKNOWN173493","STATE":"AK","TYPE":"SUBSTATION","STATUS":"IN SERVICE","MAX_VOLT":138,"CITY":"NOT AVAILABLE"}},{"type":"Feature","geometry":{"type":"Point","coordinates":[-152.4043,57.7988]},"properties":{"NAME":"UNKNOWN173494","STATE":"AK","TYPE":"SUBSTATION","STATUS":"IN SERVICE","MAX_VOLT":-999999,"CITY":"KODIAK"}}]}