{"type":"FeatureCollection","features":[{"type":"Feature","properties":{"name":"Eastern Interconnection","color":"#3b82f6","note":"Approximate footprint for visualization; not an official NERC boundary"},"geometry":{"type":"Polygon","coordinates":[[[-98.0,49.0],[-95.0,49.0],[-90.0,49.0],[-82.0,46.5],[-74.0,45.0],[-67.0,45.0],[-66.5,44.0],[-70.0,41.0],[-74.0,39.0],[-75.5,35.0],[-80.5,30.5],[-81.5,25.0],[-82.5,24.5],[-87.0,29.5],[-90.0,29.0],[-94.0,29.5],[-97.0,28.0],[-97.5,33.0],[-100.0,36.5],[-102.0,41.0],[-104.0,45.0],[-104.0,49.0],[-98.0,49.0]]]}},{"type":"Feature","properties":{"name":"Western Interconnection","color":"#14b8a6","note":"Approximate footprint for visualization; not an official NERC boundary"},"geometry":{"type":"Polygon","coordinates":[[[-124.8,49.0],[-116.0,49.0],[-104.0,49.0],[-104.0,45.0],[-102.0,41.0],[-109.0,37.0],[-103.0,32.0],[-108.0,31.3],[-111.0,31.3],[-114.7,32.5],[-117.2,32.5],[-120.0,34.0],[-122.0,37.0],[-124.5,40.0],[-124.8,48.5],[-124.8,49.0]]]}},{"type":"Feature","properties":{"name":"Texas Interconnection (ERCOT)","color":"#f59e0b","note":"Approximate footprint for visualization; not an official NERC boundary"},"geometry":{"type":"Polygon","coordinates":[[[-106.6,32.0],[-103.0,32.0],[-100.0,34.0],[-97.5,33.8],[-94.0,33.5],[-93.5,29.8],[-97.2,26.0],[-97.5,25.8],[-99.5,26.5],[-101.5,29.5],[-103.0,29.0],[-104.5,29.5],[-106.5,31.5],[-106.6,32.0]]]}},{"type":"Feature","properties":{"name":"Alaska Interconnection","color":"#a855f7","note":"Approximate footprint for visualization; not an official NERC boundary"},"geometry":{"type":"Polygon","coordinates":[[[-168.0,54.0],[-141.0,60.0],[-130.0,55.0],[-130.0,70.0],[-168.0,72.0],[-168.0,54.0]]]}},{"type":"Feature","properties":{"name":"Hawaii","color":"#eab308","note":"Approximate footprint for visualization; not an official NERC boundary"},"geometry":{"type":"Polygon","coordinates":[[[-160.5,22.5],[-154.5,22.5],[-154.5,18.7],[-160.5,18.7],[-160.5,22.5]]]}}]}