{"type":"FeatureCollection","features":[{"type":"Feature","geometry":{"type":"Point","coordinates":[-160.497222000225,55.3397220001981]},"properties":{"Plant_Name":"Sand Point","State":"Alaska","PrimSource":"petroleum","Total_MW":1.7,"Install_MW":3.7,"City":"Sand Point","County":"Aleutians East","Utility_Na":"Sand Point Generating, LLC","Longitude":-160.497222,"Latitude":55.339722}},{"type":"Feature","geometry":{"type":"Point","coordinates":[-134.10100000028,58.3175999998452]},"properties":{"Plant_Name":"Annex Creek","State":"Alaska","PrimSource":"hydroelectric","Total_MW":3.6,"Install_MW":4,"City":"Juneau","County":"Juneau","Utility_Na":"Alaska Electric Light & Power Co.","Longitude":-134.101,"Latitude":58.3176}},{"type":"Feature","geometry":{"type":"Point","coordinates":[-134.417400000397,58.3107000000775]},"properties":{"Plant_Name":"Gold Creek","State":"Alaska","PrimSource":"petroleum","Total_MW":9.7,"Install_MW":9.7,"City":"Juneau","County":"Juneau","Utility_Na":"Alaska Electric Light & Power Co.","Longitude":-134.4174,"Latitude":58.3107}},{"type":"Feature","geometry":{"type":"Point","coordinates":[-134.495300000103,58.3535999999773]},"properties":{"Plant_Name":"Lemon Creek","State":"Alaska","PrimSource":"petroleum","Total_MW":57.5,"Install_MW":61.7,"City":"Juneau","County":"Juneau","Utility_Na":"Alaska Electric Light & Power Co.","Longitude":-134.4953,"Latitude":58.3536}},{"type":"Feature","geometry":{"type":"Point","coordinates":[-134.463100000135,58.3269000002195]},"properties":{"Plant_Name":"Salmon Creek 1","State":"Alaska","PrimSource":"hydroelectric","Total_MW":5.2,"Install_MW":8.5,"City":"Juneau","County":"Juneau","Utility_Na":"Alaska Electric Light & Power Co.","Longitude":-134.4631,"Latitude":58.3269}},{"type":"Feature","geometry":{"type":"Point","coordinates":[-135.313100000366,59.4545000000968]},"properties":{"Plant_Name":"Skagway","State":"Alaska","PrimSource":"petroleum","Total_MW":5.1,"Install_MW":4.7,"City":"Skagway","County":"Skagway Hoonah Angoon","Utility_Na":"Alaska Power and Telephone Co","Longitude":-135.3131,"Latitude":59.4545}},{"type":"Feature","geometry":{"type":"Point","coordinates":[-135.446227999734,59.2359309999978]},"properties":{"Plant_Name":"Haines","State":"Alaska","PrimSource":"petroleum","Total_MW":8.4,"Install_MW":8.4,"City":"Haines","County":"Haines","Utility_Na":"Alaska Power and Telephone Co","Longitude":-135.446228,"Latitude":59.235931}},{"type":"Feature","geometry":{"type":"Point","coordinates":[-131.356110999958,55.6152080001895]},"properties":{"Plant_Name":"Swan Lake","State":"Alaska","PrimSource":"hydroelectric","Total_MW":22.6,"Install_MW":22.6,"City":"Ketchikan","County":"Ketchikan Gateway","Utility_Na":"Southeast Alaska Power Agency","Longitude":-131.356111,"Latitude":55.615208}},{"type":"Feature","geometry":{"type":"Point","coordinates":[-152.894999999663,57.6860999999738]},"properties":{"Plant_Name":"Terror Lake Microgrid","State":"Alaska","PrimSource":"hydroelectric","Total_MW":33.6,"Install_MW":33.6,"City":"Kodiak","County":"Kodiak Island","Utility_Na":"Kodiak Electric Assn Inc","Longitude":-152.895,"Latitude":57.6861}},{"type":"Feature","geometry":{"type":"Point","coordinates":[-149.866100000235,61.2220999999081]},"properties":{"Plant_Name":"Hank Nikkels Plant 1","State":"Alaska","PrimSource":"natural gas","Total_MW":62.4,"Install_MW":77.9,"City":"Anchorage","County":"Anchorage","Utility_Na":"Chugach Electric Assn Inc","Longitude":-149.8661,"Latitude":61.2221}},{"type":"Feature","geometry":{"type":"Point","coordinates":[-149.150090000261,61.4752110000477]},"properties":{"Plant_Name":"Eklutna Hydro Project","State":"Alaska","PrimSource":"hydroelectric","Total_MW":44.4,"Install_MW":44.4,"City":"Palmer","County":"Matanuska Susitna","Utility_Na":"Chugach Electric Assn Inc","Longitude":-149.15009,"Latitude":61.475211}},{"type":"Feature","geometry":{"type":"Point","coordinates":[-133.73699999982,58.1414999999444]},"properties":{"Plant_Name":"Snettisham","State":"Alaska","PrimSource":"hydroelectric","Total_MW":78,"Install_MW":78.2,"City":"Juneau","County":"Juneau","Utility_Na":"Alaska Electric Light & Power Co.","Longitude":-133.737,"Latitude":58.1415}},{"type":"Feature","geometry":{"type":"Point","coordinates":[-147.73506300025,64.8477429999543]},"properties":{"Plant_Name":"Chena Power Plant","State":"Alaska","PrimSource":"coal","Total_MW":25.7,"Install_MW":27.5,"City":"Fairbanks","County":"Fairbanks North Star","Utility_Na":"Aurora Energy LLC","Longitude":-147.735063,"Latitude":64.847743}},{"type":"Feature","geometry":{"type":"Point","coordinates":[-131.633425000228,55.3446410000326]},"properties":{"Plant_Name":"Ketchikan","State":"Alaska","PrimSource":"hydroelectric","Total_MW":4.2,"Install_MW":4.2,"City":"Ketchikan","County":"Ketchikan Gateway","Utility_Na":"Ketchikan Public Utilities","Longitude":-131.633425,"Latitude":55.344641}},{"type":"Feature","geometry":{"type":"Point","coordinates":[-131.696959999801,55.3573969999158]},"properties":{"Plant_Name":"S W Bailey","State":"Alaska","PrimSource":"petroleum","Total_MW":23,"Install_MW":25.9,"City":"Ketchikan","County":"Ketchikan Gateway","Utility_Na":"Ketchikan Public Utilities","Longitude":-131.69696,"Latitude":55.357397}},{"type":"Feature","geometry":{"type":"Point","coordinates":[-165.429813999946,64.5053310000486]},"properties":{"Plant_Name":"Snake River","State":"Alaska","PrimSource":"petroleum","Total_MW":18.2,"Install_MW":18.4,"City":"Nome","County":"Nome","Utility_Na":"Nome Joint Utility Systems","Longitude":-165.429814,"Latitude":64.505331}},{"type":"Feature","geometry":{"type":"Point","coordinates":[-132.957091000225,56.8110399999141]},"properties":{"Plant_Name":"Petersburg","State":"Alaska","PrimSource":"petroleum","Total_MW":12.6,"Install_MW":14.7,"City":"Petersburg","County":"Wrangell Petersburg","Utility_Na":"Petersburg Borough - (AK)","Longitude":-132.957091,"Latitude":56.81104}},{"type":"Feature","geometry":{"type":"Point","coordinates":[-149.43501000011,60.1309219998786]},"properties":{"Plant_Name":"Seward (AK)","State":"Alaska","PrimSource":"petroleum","Total_MW":15.6,"Install_MW":15.6,"City":"Seward","County":"Kenai Peninsula","Utility_Na":"City of Seward - (AK)","Longitude":-149.43501,"Latitude":60.130922}},{"type":"Feature","geometry":{"type":"Point","coordinates":[-135.229699999756,57.0515999999951]},"properties":{"Plant_Name":"Blue Lake Hydro","State":"Alaska","PrimSource":"hydroelectric","Total_MW":15.9,"Install_MW":15.9,"City":"Sitka","County":"Sitka","Utility_Na":"City & Borough of Sitka - (AK)","Longitude":-135.2297,"Latitude":57.0516}},{"type":"Feature","geometry":{"type":"Point","coordinates":[-132.379439000187,56.4609760000746]},"properties":{"Plant_Name":"Wrangell","State":"Alaska","PrimSource":"petroleum","Total_MW":12,"Install_MW":12,"City":"Wrangell","County":"Wrangell Petersburg","Utility_Na":"City of Wrangell - (AK)","Longitude":-132.379439,"Latitude":56.460976}},{"type":"Feature","geometry":{"type":"Point","coordinates":[-151.03560000039,61.1860999999215]},"properties":{"Plant_Name":"Beluga","State":"Alaska","PrimSource":"natural gas","Total_MW":300.4,"Install_MW":312.4,"City":"Beluga","County":"Kenai Peninsula","Utility_Na":"Chugach Electric Assn Inc","Longitude":-151.0356,"Latitude":61.1861}},{"type":"Feature","geometry":{"type":"Point","coordinates":[-158.468597000319,59.042914000019]},"properties":{"Plant_Name":"Dillingham","State":"Alaska","PrimSource":"petroleum","Total_MW":11,"Install_MW":11,"City":"Dillingham","County":"Dillingham","Utility_Na":"Nushagak Electric Coop, Inc","Longitude":-158.468597,"Latitude":59.042914}},{"type":"Feature","geometry":{"type":"Point","coordinates":[-135.122750000119,56.9862839998689]},"properties":{"Plant_Name":"Green Lake","State":"Alaska","PrimSource":"hydroelectric","Total_MW":18.6,"Install_MW":18.6,"City":"Sitka","County":"Sitka","Utility_Na":"City & Borough of Sitka - (AK)","Longitude":-135.12275,"Latitude":56.986284}},{"type":"Feature","geometry":{"type":"Point","coordinates":[-146.30330000022,61.0827999998105]},"properties":{"Plant_Name":"Solomon Gulch","State":"Alaska","PrimSource":"hydroelectric","Total_MW":12,"Install_MW":12,"City":"Valdez","County":"Valdez Cordova","Utility_Na":"Copper Valley Elec Assn, Inc","Longitude":-146.3033,"Latitude":61.0828}},{"type":"Feature","geometry":{"type":"Point","coordinates":[-142.999970000419,63.3355199998694]},"properties":{"Plant_Name":"Tok","State":"Alaska","PrimSource":"petroleum","Total_MW":7.9,"Install_MW":7.8,"City":"Tok","County":"Southeast Fairbanks","Utility_Na":"Alaska Power and Telephone Co","Longitude":-142.99997,"Latitude":63.33552}},{"type":"Feature","geometry":{"type":"Point","coordinates":[-133.148690000077,55.4769100001566]},"properties":{"Plant_Name":"Craig (AK)","State":"Alaska","PrimSource":"petroleum","Total_MW":2.8,"Install_MW":2.8,"City":"Craig","County":"Prince of Wales Ketchikan","Utility_Na":"Alaska Power and Telephone Co","Longitude":-133.14869,"Latitude":55.47691}},{"type":"Feature","geometry":{"type":"Point","coordinates":[-132.821434999714,55.204937000227]},"properties":{"Plant_Name":"Hydaburg","State":"Alaska","PrimSource":"petroleum","Total_MW":0.7,"Install_MW":0.7,"City":"Prince of Wales","County":"Prince of Wales Ketchikan","Utility_Na":"Alaska Power and Telephone Co","Longitude":-132.821435,"Latitude":55.204937}},{"type":"Feature","geometry":{"type":"Point","coordinates":[-145.752983000353,60.5558889999519]},"properties":{"Plant_Name":"Orca","State":"Alaska","PrimSource":"petroleum","Total_MW":8.7,"Install_MW":8.7,"City":"Cordova","County":"Valdez Cordova","Utility_Na":"Cordova Electric Coop, Inc","Longitude":-145.752983,"Latitude":60.555889}},{"type":"Feature","geometry":{"type":"Point","coordinates":[-152.396982000254,57.7899559998043]},"properties":{"Plant_Name":"Kodiak Microgrid","State":"Alaska","PrimSource":"petroleum","Total_MW":18.3,"Install_MW":18.3,"City":"Kodiak","County":"Kodiak Island","Utility_Na":"Kodiak Electric Assn Inc","Longitude":-152.396982,"Latitude":57.789956}},{"type":"Feature","geometry":{"type":"Point","coordinates":[-152.855440999989,57.8647750000695]},"properties":{"Plant_Name":"Port Lions Microgrid","State":"Alaska","PrimSource":"petroleum","Total_MW":0.5,"Install_MW":0.5,"City":"Port Lions","County":"Kodiak Island","Utility_Na":"Kodiak Electric Assn Inc","Longitude":-152.855441,"Latitude":57.864775}},{"type":"Feature","geometry":{"type":"Point","coordinates":[-151.713439000212,59.4395420002126]},"properties":{"Plant_Name":"Seldovia","State":"Alaska","PrimSource":"petroleum","Total_MW":2.2,"Install_MW":2.2,"City":"Seldovia","County":"Kenai Peninsula","Utility_Na":"Homer Electric Assn Inc","Longitude":-151.713439,"Latitude":59.439542}},{"type":"Feature","geometry":{"type":"Point","coordinates":[-147.348100000392,64.7355999998115]},"properties":{"Plant_Name":"North Pole","State":"Alaska","PrimSource":"petroleum","Total_MW":145,"Install_MW":181,"City":"North Pole","County":"Fairbanks North Star","Utility_Na":"Golden Valley Elec Assn Inc","Longitude":-147.3481,"Latitude":64.7356}},{"type":"Feature","geometry":{"type":"Point","coordinates":[-147.719350999705,64.8541709999904]},"properties":{"Plant_Name":"Fairbanks","State":"Alaska","PrimSource":"petroleum","Total_MW":36.1,"Install_MW":42.2,"City":"Fairbanks","County":"Fairbanks North Star","Utility_Na":"Golden Valley Elec Assn Inc","Longitude":-147.719351,"Latitude":64.854171}},{"type":"Feature","geometry":{"type":"Point","coordinates":[-148.950000000376,63.8541999999592]},"properties":{"Plant_Name":"Healy","State":"Alaska","PrimSource":"coal","Total_MW":77.8,"Install_MW":92.8,"City":"Healy","County":"Denali","Utility_Na":"Golden Valley Elec Assn Inc","Longitude":-148.95,"Latitude":63.8542}},{"type":"Feature","geometry":{"type":"Point","coordinates":[-149.665602999746,60.3923310002067]},"properties":{"Plant_Name":"Cooper Lake","State":"Alaska","PrimSource":"hydroelectric","Total_MW":19.4,"Install_MW":19.4,"City":"Cooper Landing","County":"Kenai Peninsula","Utility_Na":"Chugach Electric Assn Inc","Longitude":-149.665603,"Latitude":60.392331}},{"type":"Feature","geometry":{"type":"Point","coordinates":[-151.387399999842,60.6935000000676]},"properties":{"Plant_Name":"Bernice Lake","State":"Alaska","PrimSource":"natural gas","Total_MW":62.4,"Install_MW":76.7,"City":"Nikiski","County":"Kenai Peninsula","Utility_Na":"Homer Electric Assn Inc","Longitude":-151.3874,"Latitude":60.6935}},{"type":"Feature","geometry":{"type":"Point","coordinates":[-160.790413999823,63.8767890000219]},"properties":{"Plant_Name":"Unalakleet","State":"Alaska","PrimSource":"petroleum","Total_MW":1.6,"Install_MW":2,"City":"Unalakleet","County":"Nome","Utility_Na":"Unalakleet Valley Elec Coop","Longitude":-160.790414,"Latitude":63.876789}},{"type":"Feature","geometry":{"type":"Point","coordinates":[-157.007221999942,58.7304170001256]},"properties":{"Plant_Name":"Naknek","State":"Alaska","PrimSource":"petroleum","Total_MW":15.9,"Install_MW":16.5,"City":"Naknek","County":"Bristol Bay","Utility_Na":"Naknek Electric Assn, Inc","Longitude":-157.007222,"Latitude":58.730417}},{"type":"Feature","geometry":{"type":"Point","coordinates":[-131.544978000248,55.0912629998802]},"properties":{"Plant_Name":"Purple Lake","State":"Alaska","PrimSource":"hydroelectric","Total_MW":3.9,"Install_MW":3.9,"City":"Metlakatla","County":"Prince of Wales Ketchikan","Utility_Na":"Metlakatla Power & Light","Longitude":-131.544978,"Latitude":55.091263}},{"type":"Feature","geometry":{"type":"Point","coordinates":[-162.556944000084,66.8377780000304]},"properties":{"Plant_Name":"Kotzebue Hybrid","State":"Alaska","PrimSource":"petroleum","Total_MW":18,"Install_MW":18,"City":"Kotzebue","County":"NORTHWEST ARCTIC","Utility_Na":"Kotzebue Electric Assn Inc","Longitude":-162.556944,"Latitude":66.837778}},{"type":"Feature","geometry":{"type":"Point","coordinates":[-145.532528999665,62.1104149999649]},"properties":{"Plant_Name":"Glennallen","State":"Alaska","PrimSource":"petroleum","Total_MW":9,"Install_MW":9.2,"City":"Glennallen","County":"Valdez Cordova","Utility_Na":"Copper Valley Elec Assn, Inc","Longitude":-145.532529,"Latitude":62.110415}},{"type":"Feature","geometry":{"type":"Point","coordinates":[-146.364699999908,61.1302999998995]},"properties":{"Plant_Name":"Valdez","State":"Alaska","PrimSource":"petroleum","Total_MW":7.5,"Install_MW":8.6,"City":"Valdez","County":"Valdez Cordova","Utility_Na":"Copper Valley Elec Assn, Inc","Longitude":-146.3647,"Latitude":61.1303}},{"type":"Feature","geometry":{"type":"Point","coordinates":[-165.590151999813,61.5252969999669]},"properties":{"Plant_Name":"Chevak","State":"Alaska","PrimSource":"petroleum","Total_MW":1.8,"Install_MW":1.8,"City":"Chevak","County":"Bethel","Utility_Na":"Alaska Village Elec Coop, Inc","Longitude":-165.590152,"Latitude":61.525297}},{"type":"Feature","geometry":{"type":"Point","coordinates":[-164.531517000136,62.7776940001357]},"properties":{"Plant_Name":"Emmonak","State":"Alaska","PrimSource":"petroleum","Total_MW":1.4,"Install_MW":1.4,"City":"Emmonak","County":"Kusilvak","Utility_Na":"Alaska Village Elec Coop, Inc","Longitude":-164.531517,"Latitude":62.777694}},{"type":"Feature","geometry":{"type":"Point","coordinates":[-166.101944000424,61.5308580001975]},"properties":{"Plant_Name":"Hooper Bay","State":"Alaska","PrimSource":"petroleum","Total_MW":2.2,"Install_MW":2.2,"City":"Hooper Bay","County":"Bethel","Utility_Na":"Alaska Village Elec Coop, Inc","Longitude":-166.101944,"Latitude":61.530858}},{"type":"Feature","geometry":{"type":"Point","coordinates":[-160.428591999804,66.9738890000222]},"properties":{"Plant_Name":"Kiana","State":"Alaska","PrimSource":"petroleum","Total_MW":1.3,"Install_MW":1.3,"City":"Kiana","County":"Northwest Arctic","Utility_Na":"Alaska Village Elec Coop, Inc","Longitude":-160.428592,"Latitude":66.973889}},{"type":"Feature","geometry":{"type":"Point","coordinates":[-163.729072000043,62.0855690000876]},"properties":{"Plant_Name":"Mountain Village","State":"Alaska","PrimSource":"petroleum","Total_MW":1.8,"Install_MW":1.8,"City":"Mountain Village","County":"Bethel","Utility_Na":"Alaska Village Elec Coop, Inc","Longitude":-163.729072,"Latitude":62.085569}},{"type":"Feature","geometry":{"type":"Point","coordinates":[-161.038716999622,66.8345189998363]},"properties":{"Plant_Name":"Noorvik","State":"Alaska","PrimSource":"petroleum","Total_MW":1.9,"Install_MW":1.9,"City":"Noorvik","County":"Northwest Arctic","Utility_Na":"Alaska Village Elec Coop, Inc","Longitude":-161.038717,"Latitude":66.834519}},{"type":"Feature","geometry":{"type":"Point","coordinates":[-162.459755999825,60.8958800000764]},"properties":{"Plant_Name":"Nunapitchuk","State":"Alaska","PrimSource":"petroleum","Total_MW":0.5,"Install_MW":0.5,"City":"Nunapitchuk","County":"Bethel","Utility_Na":"Alaska Village Elec Coop, Inc","Longitude":-162.459756,"Latitude":60.89588}},{"type":"Feature","geometry":{"type":"Point","coordinates":[-163.172567000258,62.0515250000831]},"properties":{"Plant_Name":"St Marys IC","State":"Alaska","PrimSource":"petroleum","Total_MW":4.6,"Install_MW":4.6,"City":"St. Mary's","County":"Bethel","Utility_Na":"Alaska Village Elec Coop, Inc","Longitude":-163.172567,"Latitude":62.051525}},{"type":"Feature","geometry":{"type":"Point","coordinates":[-160.01480799961,66.6067780000203]},"properties":{"Plant_Name":"Selawik","State":"Alaska","PrimSource":"petroleum","Total_MW":1.8,"Install_MW":2.2,"City":"Selawik","County":"Northwest Arctic","Utility_Na":"Alaska Village Elec Coop, Inc","Longitude":-160.014808,"Latitude":66.606778}},{"type":"Feature","geometry":{"type":"Point","coordinates":[-166.073589000077,66.2550719998697]},"properties":{"Plant_Name":"Shishmaref","State":"Alaska","PrimSource":"petroleum","Total_MW":1.5,"Install_MW":1.5,"City":"Shishmaref","County":"Nome","Utility_Na":"Alaska Village Elec Coop, Inc","Longitude":-166.073589,"Latitude":66.255072}},{"type":"Feature","geometry":{"type":"Point","coordinates":[-160.380277999608,59.0597440001328]},"properties":{"Plant_Name":"Togiak","State":"Alaska","PrimSource":"petroleum","Total_MW":2.8,"Install_MW":2.8,"City":"Togiak","County":"Dillingham","Utility_Na":"Alaska Village Elec Coop, Inc","Longitude":-160.380278,"Latitude":59.059744}},{"type":"Feature","geometry":{"type":"Point","coordinates":[-155.594996999812,62.9569899998805]},"properties":{"Plant_Name":"McGrath","State":"Alaska","PrimSource":"petroleum","Total_MW":1.6,"Install_MW":1.6,"City":"McGrath","County":"Yukon Koyukuk","Utility_Na":"McGrath Light & Power Co","Longitude":-155.594997,"Latitude":62.95699}},{"type":"Feature","geometry":{"type":"Point","coordinates":[-149.716743999938,61.2297129998926]},"properties":{"Plant_Name":"George M Sullivan Generation Plant 2","State":"Alaska","PrimSource":"natural gas","Total_MW":309.3,"Install_MW":346.9,"City":"Anchorage","County":"Anchorage","Utility_Na":"Chugach Electric Assn Inc","Longitude":-149.716744,"Latitude":61.229713}},{"type":"Feature","geometry":{"type":"Point","coordinates":[-161.787777999684,60.7896999999699]},"properties":{"Plant_Name":"Bethel","State":"Alaska","PrimSource":"petroleum","Total_MW":10.8,"Install_MW":10.8,"City":"Bethel","County":"Bethel","Utility_Na":"Alaska Village Elec Coop, Inc","Longitude":-161.787778,"Latitude":60.7897}},{"type":"Feature","geometry":{"type":"Point","coordinates":[-131.470268999688,55.3797500001252]},"properties":{"Plant_Name":"Beaver Falls","State":"Alaska","PrimSource":"hydroelectric","Total_MW":5.4,"Install_MW":5.4,"City":"Ketchikan","County":"Ketchikan Gateway","Utility_Na":"Ketchikan Public Utilities","Longitude":-131.470269,"Latitude":55.37975}},{"type":"Feature","geometry":{"type":"Point","coordinates":[-131.517757999704,55.3814020001848]},"properties":{"Plant_Name":"Silvis","State":"Alaska","PrimSource":"hydroelectric","Total_MW":2.1,"Install_MW":2.1,"City":"Ketchikan","County":"Ketchikan Gateway","Utility_Na":"Ketchikan Public Utilities","Longitude":-131.517758,"Latitude":55.381402}},{"type":"Feature","geometry":{"type":"Point","coordinates":[-139.724306000328,59.5445530000819]},"properties":{"Plant_Name":"Yakutat","State":"Alaska","PrimSource":"petroleum","Total_MW":3.8,"Install_MW":3.8,"City":"Yakutat","County":"Yakutat","Utility_Na":"Alaska Village Elec Coop, Inc","Longitude":-139.724306,"Latitude":59.544553}},{"type":"Feature","geometry":{"type":"Point","coordinates":[-136.220094999898,57.9571970000616]},"properties":{"Plant_Name":"Pelican","State":"Alaska","PrimSource":"hydroelectric","Total_MW":1.6,"Install_MW":2.4,"City":"Pelican","County":"Skagway Hoonah Angoon","Utility_Na":"Pelican Utility","Longitude":-136.220095,"Latitude":57.957197}},{"type":"Feature","geometry":{"type":"Point","coordinates":[-135.312799999892,57.0497000000613]},"properties":{"Plant_Name":"Jarvis Street","State":"Alaska","PrimSource":"petroleum","Total_MW":25.1,"Install_MW":25.6,"City":"Sitka","County":"Sitka","Utility_Na":"City & Borough of Sitka - (AK)","Longitude":-135.3128,"Latitude":57.0497}},{"type":"Feature","geometry":{"type":"Point","coordinates":[-145.679411000144,60.6128219998494]},"properties":{"Plant_Name":"Humpback Creek","State":"Alaska","PrimSource":"hydroelectric","Total_MW":1,"Install_MW":1.2,"City":"Cordova","County":"Valdez Cordova","Utility_Na":"Cordova Electric Coop, Inc","Longitude":-145.679411,"Latitude":60.612822}},{"type":"Feature","geometry":{"type":"Point","coordinates":[-131.560267000295,55.1214329998665]},"properties":{"Plant_Name":"Centennial","State":"Alaska","PrimSource":"petroleum","Total_MW":1.8,"Install_MW":1.8,"City":"Metlakatla","County":"Prince of Wales Ketchikan","Utility_Na":"Metlakatla Power & Light","Longitude":-131.560267,"Latitude":55.121433}},{"type":"Feature","geometry":{"type":"Point","coordinates":[-131.545878999698,55.1168790000966]},"properties":{"Plant_Name":"Chester Lake","State":"Alaska","PrimSource":"hydroelectric","Total_MW":1.2,"Install_MW":1.3,"City":"Metlakatla","County":"Prince of Wales Ketchikan","Utility_Na":"Metlakatla Power & Light","Longitude":-131.545879,"Latitude":55.116879}},{"type":"Feature","geometry":{"type":"Point","coordinates":[-141.937199999793,62.9616999998786]},"properties":{"Plant_Name":"Northway","State":"Alaska","PrimSource":"petroleum","Total_MW":0.9,"Install_MW":1.1,"City":"Tok","County":"Southeast Fairbanks","Utility_Na":"Alaska Power and Telephone Co","Longitude":-141.9372,"Latitude":62.9617}},{"type":"Feature","geometry":{"type":"Point","coordinates":[-156.778600000159,71.2920000000226]},"properties":{"Plant_Name":"Barrow","State":"Alaska","PrimSource":"natural gas","Total_MW":17.3,"Install_MW":17.3,"City":"Barrow","County":"North Slope","Utility_Na":"Barrow Utils & Elec Coop, Inc","Longitude":-156.7786,"Latitude":71.292}},{"type":"Feature","geometry":{"type":"Point","coordinates":[-145.25305199992,66.5662869999553]},"properties":{"Plant_Name":"Gwitchyaa Zhee","State":"Alaska","PrimSource":"petroleum","Total_MW":1.2,"Install_MW":2.8,"City":"Fort Yukon","County":"Yukon Koyukuk","Utility_Na":"Gwitchyaa Zhee Utility Co","Longitude":-145.253052,"Latitude":66.566287}},{"type":"Feature","geometry":{"type":"Point","coordinates":[-159.535642999663,61.580678000035]},"properties":{"Plant_Name":"Aniak","State":"Alaska","PrimSource":"petroleum","Total_MW":1.7,"Install_MW":1.7,"City":"Aniak","County":"Bethel","Utility_Na":"Aniak Light & Power Co Inc","Longitude":-159.535643,"Latitude":61.580678}},{"type":"Feature","geometry":{"type":"Point","coordinates":[-154.698735000327,59.8990540001262]},"properties":{"Plant_Name":"Newhalen","State":"Alaska","PrimSource":"petroleum","Total_MW":1.7,"Install_MW":1.7,"City":"Iliamna","County":"Lake and Peninsula","Utility_Na":"I-N-N Electric Coop, Inc","Longitude":-154.698735,"Latitude":59.899054}},{"type":"Feature","geometry":{"type":"Point","coordinates":[-134.644600000323,58.3875000001839]},"properties":{"Plant_Name":"Auke Bay","State":"Alaska","PrimSource":"petroleum","Total_MW":28.3,"Install_MW":36.2,"City":"Juneau","County":"Juneau","Utility_Na":"Alaska Electric Light & Power Co.","Longitude":-134.6446,"Latitude":58.3875}},{"type":"Feature","geometry":{"type":"Point","coordinates":[-147.075988000201,64.6714099998881]},"properties":{"Plant_Name":"Eielson AFB Central Heat & Power Plant","State":"Alaska","PrimSource":"coal","Total_MW":24.6,"Install_MW":26,"City":"Eielson AFB","County":"Fairbanks North Star","Utility_Na":"U S Air Force-Eielson AFB","Longitude":-147.075988,"Latitude":64.67141}},{"type":"Feature","geometry":{"type":"Point","coordinates":[-147.822074999954,64.8541709999904]},"properties":{"Plant_Name":"University of Alaska Fairbanks","State":"Alaska","PrimSource":"coal","Total_MW":35.7,"Install_MW":39.6,"City":"Fairbanks","County":"Fairbanks North Star","Utility_Na":"University of Alaska","Longitude":-147.822075,"Latitude":64.854171}},{"type":"Feature","geometry":{"type":"Point","coordinates":[-151.381499999803,60.6770000001238]},"properties":{"Plant_Name":"Tesoro Kenai Cogeneration Plant","State":"Alaska","PrimSource":"natural gas","Total_MW":8.4,"Install_MW":8.6,"City":"Kenai","County":"Kenai Peninsula","Utility_Na":"Tesoro Alaska Company LLC","Longitude":-151.3815,"Latitude":60.677}},{"type":"Feature","geometry":{"type":"Point","coordinates":[-166.55288000042,53.85850800021]},"properties":{"Plant_Name":"Westward Seafoods","State":"Alaska","PrimSource":"petroleum","Total_MW":6.6,"Install_MW":6.6,"City":"Dutch Harbor","County":"Aleutians West","Utility_Na":"Westward Seafoods Inc","Longitude":-166.55288,"Latitude":53.858508}},{"type":"Feature","geometry":{"type":"Point","coordinates":[-150.940150000356,59.7786199999422]},"properties":{"Plant_Name":"Bradley Lake","State":"Alaska","PrimSource":"hydroelectric","Total_MW":126,"Install_MW":126,"City":"Homer","County":"Kenai Peninsula","Utility_Na":"Homer Electric Assn Inc","Longitude":-150.94015,"Latitude":59.77862}},{"type":"Feature","geometry":{"type":"Point","coordinates":[-132.528920000157,55.6858599997856]},"properties":{"Plant_Name":"Thorne Bay Plant","State":"Alaska","PrimSource":"petroleum","Total_MW":1,"Install_MW":1,"City":"Craig","County":"Prince of Wales Ketchikan","Utility_Na":"Alaska Power and Telephone Co","Longitude":-132.52892,"Latitude":55.68586}},{"type":"Feature","geometry":{"type":"Point","coordinates":[-156.873599999931,64.744169999977]},"properties":{"Plant_Name":"Galena Electric Utility","State":"Alaska","PrimSource":"petroleum","Total_MW":3.1,"Install_MW":3.1,"City":"Galena","County":"Yukon Koyukuk","Utility_Na":"Galena Electric Utility","Longitude":-156.8736,"Latitude":64.74417}},{"type":"Feature","geometry":{"type":"Point","coordinates":[-134.58613999971,57.4991660001136]},"properties":{"Plant_Name":"Angoon","State":"Alaska","PrimSource":"petroleum","Total_MW":1.5,"Install_MW":1.5,"City":"Angoon","County":"Skagway Hoonah Angoon","Utility_Na":"Inside Passage Elec Coop, Inc","Longitude":-134.58614,"Latitude":57.499166}},{"type":"Feature","geometry":{"type":"Point","coordinates":[-135.430740000393,58.1064320000178]},"properties":{"Plant_Name":"Hoonah","State":"Alaska","PrimSource":"petroleum","Total_MW":2,"Install_MW":2,"City":"Hoonah","County":"Skagway Hoonah Angoon","Utility_Na":"Inside Passage Elec Coop, Inc","Longitude":-135.43074,"Latitude":58.106432}},{"type":"Feature","geometry":{"type":"Point","coordinates":[-133.922557000241,56.962982999757]},"properties":{"Plant_Name":"Kake","State":"Alaska","PrimSource":"petroleum","Total_MW":3.1,"Install_MW":3.1,"City":"Kake","County":"Wrangell Petersburg","Utility_Na":"Inside Passage Elec Coop, Inc","Longitude":-133.922557,"Latitude":56.962983}},{"type":"Feature","geometry":{"type":"Point","coordinates":[-157.425199999737,70.482599999863]},"properties":{"Plant_Name":"NSB Atqasuk Utility","State":"Alaska","PrimSource":"petroleum","Total_MW":3.2,"Install_MW":3.2,"City":"Atqasuk","County":"North Slope","Utility_Na":"North Slope Borough Power & Light","Longitude":-157.4252,"Latitude":70.4826}},{"type":"Feature","geometry":{"type":"Point","coordinates":[-143.619033000159,70.125616999884]},"properties":{"Plant_Name":"NSB Kaktovik Utility","State":"Alaska","PrimSource":"petroleum","Total_MW":2.6,"Install_MW":2.6,"City":"Kaktovik","County":"North Slope","Utility_Na":"North Slope Borough Power & Light","Longitude":-143.619033,"Latitude":70.125617}},{"type":"Feature","geometry":{"type":"Point","coordinates":[-150.993491999657,70.2205650001054]},"properties":{"Plant_Name":"NSB Nuiqsut Utility","State":"Alaska","PrimSource":"natural gas","Total_MW":4.4,"Install_MW":4.4,"City":"Nuiqsut","County":"North Slope","Utility_Na":"North Slope Borough Power & Light","Longitude":-150.993492,"Latitude":70.220565}},{"type":"Feature","geometry":{"type":"Point","coordinates":[-166.737210999905,68.3484240000221]},"properties":{"Plant_Name":"NSB Point Hope Utility","State":"Alaska","PrimSource":"petroleum","Total_MW":3.1,"Install_MW":3.1,"City":"Pt Hope","County":"North Slope","Utility_Na":"North Slope Borough Power & Light","Longitude":-166.737211,"Latitude":68.348424}},{"type":"Feature","geometry":{"type":"Point","coordinates":[-163.005833000059,69.7408330000325]},"properties":{"Plant_Name":"NSB Point Lay Utility","State":"Alaska","PrimSource":"petroleum","Total_MW":2.4,"Install_MW":2.4,"City":"PT Lay","County":"North Slope","Utility_Na":"North Slope Borough Power & Light","Longitude":-163.005833,"Latitude":69.740833}},{"type":"Feature","geometry":{"type":"Point","coordinates":[-151.741017000059,68.1379500000473]},"properties":{"Plant_Name":"NSB Anaktuvuk Pass","State":"Alaska","PrimSource":"petroleum","Total_MW":2.7,"Install_MW":2.7,"City":"Anaktuvuk Pass","County":"North Slope","Utility_Na":"North Slope Borough Power & Light","Longitude":-151.741017,"Latitude":68.13795}},{"type":"Feature","geometry":{"type":"Point","coordinates":[-160.020460999776,70.6428769999889]},"properties":{"Plant_Name":"NSB Wainwright Utility","State":"Alaska","PrimSource":"petroleum","Total_MW":3,"Install_MW":3,"City":"Wainwright","County":"North Slope","Utility_Na":"North Slope Borough Power & Light","Longitude":-160.020461,"Latitude":70.642877}},{"type":"Feature","geometry":{"type":"Point","coordinates":[-162.310299999969,55.0616829999521]},"properties":{"Plant_Name":"King Cove","State":"Alaska","PrimSource":"hydroelectric","Total_MW":2.7,"Install_MW":3,"City":"King Cove","County":"Aleutians East","Utility_Na":"City of King Cove","Longitude":-162.3103,"Latitude":55.061683}},{"type":"Feature","geometry":{"type":"Point","coordinates":[-166.538184999677,53.892458999945]},"properties":{"Plant_Name":"Dutch Harbor","State":"Alaska","PrimSource":"petroleum","Total_MW":18.4,"Install_MW":21.9,"City":"Dutch Harbor","County":"Aleutians West","Utility_Na":"City of Unalaska - (AK)","Longitude":-166.538185,"Latitude":53.892459}},{"type":"Feature","geometry":{"type":"Point","coordinates":[-166.512591000102,53.8639929997947]},"properties":{"Plant_Name":"Unalaska Power Module","State":"Alaska","PrimSource":"petroleum","Total_MW":0.8,"Install_MW":1.1,"City":"Unalaska","County":"Aleutians West","Utility_Na":"City of Unalaska - (AK)","Longitude":-166.512591,"Latitude":53.863993}},{"type":"Feature","geometry":{"type":"Point","coordinates":[-152.507044000293,57.7316079998806]},"properties":{"Plant_Name":"Nymans Plant Microgrid","State":"Alaska","PrimSource":"petroleum","Total_MW":9.8,"Install_MW":10,"City":"Kodiak","County":"Kodiak Island","Utility_Na":"Kodiak Electric Assn Inc","Longitude":-152.507044,"Latitude":57.731608}},{"type":"Feature","geometry":{"type":"Point","coordinates":[-135.212300000114,59.5356999999319]},"properties":{"Plant_Name":"Goat Lake Hydro","State":"Alaska","PrimSource":"hydroelectric","Total_MW":4,"Install_MW":4,"City":"Skagway","County":"Skagway Hoonah Angoon","Utility_Na":"Alaska Power and Telephone Co","Longitude":-135.2123,"Latitude":59.5357}},{"type":"Feature","geometry":{"type":"Point","coordinates":[-133.147720000131,55.4764719999679]},"properties":{"Plant_Name":"Black Bear Lake","State":"Alaska","PrimSource":"hydroelectric","Total_MW":4.5,"Install_MW":4.5,"City":"Craig","County":"Prince of Wales Ketchikan","Utility_Na":"Alaska Power and Telephone Co","Longitude":-133.14772,"Latitude":55.476472}},{"type":"Feature","geometry":{"type":"Point","coordinates":[-146.252899999645,61.0839000001741]},"properties":{"Plant_Name":"Valdez Cogen","State":"Alaska","PrimSource":"petroleum","Total_MW":5.1,"Install_MW":5.3,"City":"Valdez","County":"Valdez Cordova","Utility_Na":"Copper Valley Elec Assn, Inc","Longitude":-146.2529,"Latitude":61.0839}},{"type":"Feature","geometry":{"type":"Point","coordinates":[-145.604539000275,60.5886860001523]},"properties":{"Plant_Name":"Power Creek","State":"Alaska","PrimSource":"hydroelectric","Total_MW":5.6,"Install_MW":6,"City":"Cordova","County":"Valdez Cordova","Utility_Na":"Cordova Electric Coop, Inc","Longitude":-145.604539,"Latitude":60.588686}},{"type":"Feature","geometry":{"type":"Point","coordinates":[-147.648627000306,64.8256010000888]},"properties":{"Plant_Name":"Utility Plants Section","State":"Alaska","PrimSource":"coal","Total_MW":22.1,"Install_MW":20,"City":"Fort Wainwright","County":"Fairbanks North Star","Utility_Na":"Doyon Utilities - Ft. Wainwright","Longitude":-147.648627,"Latitude":64.825601}},{"type":"Feature","geometry":{"type":"Point","coordinates":[-166.553200000088,53.8796000000224]},"properties":{"Plant_Name":"Unisea G 2","State":"Alaska","PrimSource":"petroleum","Total_MW":15.5,"Install_MW":17.5,"City":"Dutch Harbor","County":"Aleutians West","Utility_Na":"Unisea Inc","Longitude":-166.5532,"Latitude":53.8796}},{"type":"Feature","geometry":{"type":"Point","coordinates":[-151.378399999996,60.673200000104]},"properties":{"Plant_Name":"Nutrien Kenai Nitrogen Operations","State":"Alaska","PrimSource":"natural gas","Total_MW":12.5,"Install_MW":12.5,"City":"Kenai","County":"Kenai Peninsula","Utility_Na":"Nutrien US LLC","Longitude":-151.3784,"Latitude":60.6732}},{"type":"Feature","geometry":{"type":"Point","coordinates":[-145.716581000388,63.9735719999592]},"properties":{"Plant_Name":"Fort Greely Power Plant","State":"Alaska","PrimSource":"petroleum","Total_MW":7.4,"Install_MW":7.4,"City":"Delta Jct","County":"Southeast Fairbanks","Utility_Na":"Doyon Utilities - Fort Greely","Longitude":-145.716581,"Latitude":63.973572}},{"type":"Feature","geometry":{"type":"Point","coordinates":[-151.377712999907,60.6765389999186]},"properties":{"Plant_Name":"Nikiski Combined Cycle","State":"Alaska","PrimSource":"natural gas","Total_MW":75.9,"Install_MW":80.8,"City":"Nikiski","County":"Kenai Peninsula","Utility_Na":"Homer Electric Assn Inc","Longitude":-151.377713,"Latitude":60.676539}},{"type":"Feature","geometry":{"type":"Point","coordinates":[-133.134499999847,55.4891799999954]},"properties":{"Plant_Name":"False Island","State":"Alaska","PrimSource":"petroleum","Total_MW":3.8,"Install_MW":3.8,"City":"Thorne Bay","County":"Prince of Wales Ketchikan","Utility_Na":"Alaska Power and Telephone Co","Longitude":-133.1345,"Latitude":55.48918}},{"type":"Feature","geometry":{"type":"Point","coordinates":[-133.102344000259,55.5407079999296]},"properties":{"Plant_Name":"Viking","State":"Alaska","PrimSource":"petroleum","Total_MW":1,"Install_MW":1,"City":"Craig","County":"Prince of Wales Ketchikan","Utility_Na":"Alaska Power and Telephone Co","Longitude":-133.102344,"Latitude":55.540708}},{"type":"Feature","geometry":{"type":"Point","coordinates":[-132.891111000248,55.5633330002505]},"properties":{"Plant_Name":"South Fork","State":"Alaska","PrimSource":"hydroelectric","Total_MW":1.9,"Install_MW":2,"City":"Klawock","County":"Prince of Wales Ketchikan","Utility_Na":"Alaska Power and Telephone Co","Longitude":-132.891111,"Latitude":55.563333}},{"type":"Feature","geometry":{"type":"Point","coordinates":[-145.719444000369,64.0280560001447]},"properties":{"Plant_Name":"Delta Power","State":"Alaska","PrimSource":"petroleum","Total_MW":23.1,"Install_MW":23.1,"City":"Delta Junction","County":"Southeast Fairbanks","Utility_Na":"Golden Valley Elec Assn Inc","Longitude":-145.719444,"Latitude":64.028056}},{"type":"Feature","geometry":{"type":"Point","coordinates":[-135.340800000411,59.4072000000637]},"properties":{"Plant_Name":"Kasidaya Creek Hydro","State":"Alaska","PrimSource":"hydroelectric","Total_MW":3,"Install_MW":3,"City":"Skagway","County":"Skagway Hoonah Angoon","Utility_Na":"Alaska Power and Telephone Co","Longitude":-135.3408,"Latitude":59.4072}},{"type":"Feature","geometry":{"type":"Point","coordinates":[-147.724999999674,64.8167000001045]},"properties":{"Plant_Name":"Battery Energy Storage System","State":"Alaska","PrimSource":"batteries","Total_MW":40,"Install_MW":40,"City":"Fairbanks","County":"Fairbanks North Star","Utility_Na":"Golden Valley Elec Assn Inc","Longitude":-147.725,"Latitude":64.8167}},{"type":"Feature","geometry":{"type":"Point","coordinates":[-148.899999999834,64.05833299983]},"properties":{"Plant_Name":"Eva Creek Wind","State":"Alaska","PrimSource":"wind","Total_MW":24.6,"Install_MW":24.6,"City":"Healy","County":"Denali","Utility_Na":"Golden Valley Elec Assn Inc","Longitude":-148.9,"Latitude":64.058333}},{"type":"Feature","geometry":{"type":"Point","coordinates":[-148.46666699987,70.2000000001482]},"properties":{"Plant_Name":"TNSG South Plant","State":"Alaska","PrimSource":"natural gas","Total_MW":7.2,"Install_MW":7.8,"City":"Deadhorse","County":"North Slope","Utility_Na":"TDX North Slope Generating Inc.","Longitude":-148.466667,"Latitude":70.2}},{"type":"Feature","geometry":{"type":"Point","coordinates":[-148.383611000115,70.2352780000135]},"properties":{"Plant_Name":"TNSG North Plant","State":"Alaska","PrimSource":"natural gas","Total_MW":23.1,"Install_MW":25.7,"City":"Deadhorse","County":"North Slope","Utility_Na":"TDX North Slope Generating Inc.","Longitude":-148.383611,"Latitude":70.235278}},{"type":"Feature","geometry":{"type":"Point","coordinates":[-149.610000000165,61.286000000137]},"properties":{"Plant_Name":"JBER Landfill Gas Power Plant","State":"Alaska","PrimSource":"biomass","Total_MW":7,"Install_MW":11.5,"City":"Anchorage","County":"Anchorage","Utility_Na":"Doyon Utilities, LLC","Longitude":-149.61,"Latitude":61.286}},{"type":"Feature","geometry":{"type":"Point","coordinates":[-152.404166999883,57.7991670001835]},"properties":{"Plant_Name":"ESS Battery Microgrid","State":"Alaska","PrimSource":"batteries","Total_MW":3,"Install_MW":3,"City":"Kodiak","County":"Kodiak Island","Utility_Na":"Kodiak Electric Assn Inc","Longitude":-152.404167,"Latitude":57.799167}},{"type":"Feature","geometry":{"type":"Point","coordinates":[-150.243611000335,61.1299999998303]},"properties":{"Plant_Name":"Fire Island Wind","State":"Alaska","PrimSource":"wind","Total_MW":18,"Install_MW":18,"City":"Anchorage","County":"Anchorage","Utility_Na":"Fire Island Wind LLC","Longitude":-150.243611,"Latitude":61.13}},{"type":"Feature","geometry":{"type":"Point","coordinates":[-145.59666699966,64.0138889998037]},"properties":{"Plant_Name":"Delta Wind Farm","State":"Alaska","PrimSource":"wind","Total_MW":1.9,"Install_MW":1.9,"City":"Delta Junction","County":"Southeast Fairbanks","Utility_Na":"Alaska Environmental Power","Longitude":-145.596667,"Latitude":64.013889}},{"type":"Feature","geometry":{"type":"Point","coordinates":[-149.905304000082,61.1674169999444]},"properties":{"Plant_Name":"Southcentral Power Project","State":"Alaska","PrimSource":"natural gas","Total_MW":169.7,"Install_MW":203.9,"City":"Anchorage","County":"Anchorage","Utility_Na":"Chugach Electric Assn Inc","Longitude":-149.905304,"Latitude":61.167417}},{"type":"Feature","geometry":{"type":"Point","coordinates":[-162.965727999864,67.5709309999516]},"properties":{"Plant_Name":"Noatak","State":"Alaska","PrimSource":"petroleum","Total_MW":1.3,"Install_MW":1.3,"City":"Noatak","County":"Northwest Arctic","Utility_Na":"Alaska Village Elec Coop, Inc","Longitude":-162.965728,"Latitude":67.570931}},{"type":"Feature","geometry":{"type":"Point","coordinates":[-170.475661000299,63.6952669999805]},"properties":{"Plant_Name":"Savoonga","State":"Alaska","PrimSource":"petroleum","Total_MW":1.7,"Install_MW":1.7,"City":"Savoonga","County":"Nome","Utility_Na":"Alaska Village Elec Coop, Inc","Longitude":-170.475661,"Latitude":63.695267}},{"type":"Feature","geometry":{"type":"Point","coordinates":[-164.654400000252,62.6833000000986]},"properties":{"Plant_Name":"Alakanuk","State":"Alaska","PrimSource":"petroleum","Total_MW":0.8,"Install_MW":0.8,"City":"Alakanuk","County":"Kusilvak","Utility_Na":"Alaska Village Elec Coop, Inc","Longitude":-164.6544,"Latitude":62.6833}},{"type":"Feature","geometry":{"type":"Point","coordinates":[-160.348127999868,61.5268580000657]},"properties":{"Plant_Name":"Upper Kalskag","State":"Alaska","PrimSource":"petroleum","Total_MW":1.1,"Install_MW":1.1,"City":"Upper Kalskag","County":"Bethel","Utility_Na":"Alaska Village Elec Coop, Inc","Longitude":-160.348128,"Latitude":61.526858}},{"type":"Feature","geometry":{"type":"Point","coordinates":[-162.28632200042,63.5210469999873]},"properties":{"Plant_Name":"Stebbins","State":"Alaska","PrimSource":"petroleum","Total_MW":2,"Install_MW":2,"City":"Stebbins","County":"Nome","Utility_Na":"Alaska Village Elec Coop, Inc","Longitude":-162.286322,"Latitude":63.521047}},{"type":"Feature","geometry":{"type":"Point","coordinates":[-165.581496999749,61.8430359999357]},"properties":{"Plant_Name":"Scammon Bay","State":"Alaska","PrimSource":"petroleum","Total_MW":1.3,"Install_MW":1.3,"City":"Scammon Bay","County":"Kusilvak","Utility_Na":"Alaska Village Elec Coop, Inc","Longitude":-165.581497,"Latitude":61.843036}},{"type":"Feature","geometry":{"type":"Point","coordinates":[-161.910646999556,59.747436000139]},"properties":{"Plant_Name":"Quinhagak","State":"Alaska","PrimSource":"petroleum","Total_MW":1.3,"Install_MW":1.3,"City":"Quinhagak","County":"Bethel","Utility_Na":"Alaska Village Elec Coop, Inc","Longitude":-161.910647,"Latitude":59.747436}},{"type":"Feature","geometry":{"type":"Point","coordinates":[-162.880706000279,61.9364560000471]},"properties":{"Plant_Name":"Pilot Station","State":"Alaska","PrimSource":"petroleum","Total_MW":1.3,"Install_MW":1.3,"City":"Pilot Station","County":"Kusilvak","Utility_Na":"Alaska Village Elec Coop, Inc","Longitude":-162.880706,"Latitude":61.936456}},{"type":"Feature","geometry":{"type":"Point","coordinates":[-161.167103000116,64.9320889998279]},"properties":{"Plant_Name":"Koyuk","State":"Alaska","PrimSource":"petroleum","Total_MW":1.1,"Install_MW":1.1,"City":"Koyuk","County":"Nome","Utility_Na":"Alaska Village Elec Coop, Inc","Longitude":-161.167103,"Latitude":64.932089}},{"type":"Feature","geometry":{"type":"Point","coordinates":[-162.263717000325,64.6165579998544]},"properties":{"Plant_Name":"Elim","State":"Alaska","PrimSource":"petroleum","Total_MW":1.1,"Install_MW":1.1,"City":"Elim","County":"Nome","Utility_Na":"Alaska Village Elec Coop, Inc","Longitude":-162.263717,"Latitude":64.616558}},{"type":"Feature","geometry":{"type":"Point","coordinates":[-162.038299999931,63.4775000000618]},"properties":{"Plant_Name":"St. Michael","State":"Alaska","PrimSource":"petroleum","Total_MW":0.7,"Install_MW":0.7,"City":"St. Michael","County":"Nome","Utility_Na":"Alaska Village Elec Coop, Inc","Longitude":-162.0383,"Latitude":63.4775}},{"type":"Feature","geometry":{"type":"Point","coordinates":[-171.71243900044,63.7770579999198]},"properties":{"Plant_Name":"Gambell","State":"Alaska","PrimSource":"petroleum","Total_MW":1.8,"Install_MW":1.8,"City":"Gambell","County":"Nome","Utility_Na":"Alaska Village Elec Coop, Inc","Longitude":-171.712439,"Latitude":63.777058}},{"type":"Feature","geometry":{"type":"Point","coordinates":[-157.140206000269,66.8881140000132]},"properties":{"Plant_Name":"Shungnak","State":"Alaska","PrimSource":"petroleum","Total_MW":1.2,"Install_MW":1.2,"City":"Shungnak","County":"Northwest Arctic","Utility_Na":"Alaska Village Elec Coop, Inc","Longitude":-157.140206,"Latitude":66.888114}},{"type":"Feature","geometry":{"type":"Point","coordinates":[-163.553106000195,63.0321500000183]},"properties":{"Plant_Name":"Kotlik","State":"Alaska","PrimSource":"petroleum","Total_MW":1.6,"Install_MW":1.4,"City":"Kotlik","County":"Kusilvak","Utility_Na":"Alaska Village Elec Coop, Inc","Longitude":-163.553106,"Latitude":63.03215}},{"type":"Feature","geometry":{"type":"Point","coordinates":[-164.538447000395,67.7266439998788]},"properties":{"Plant_Name":"Kivalina","State":"Alaska","PrimSource":"petroleum","Total_MW":1.1,"Install_MW":1.1,"City":"Kivalina","County":"Northwest Arctic","Utility_Na":"Alaska Village Elec Coop, Inc","Longitude":-164.538447,"Latitude":67.726644}},{"type":"Feature","geometry":{"type":"Point","coordinates":[-162.519700000219,60.8731000000854]},"properties":{"Plant_Name":"Kasigluk","State":"Alaska","PrimSource":"petroleum","Total_MW":2,"Install_MW":2,"City":"Kasigluk","County":"Bethel","Utility_Na":"Alaska Village Elec Coop, Inc","Longitude":-162.5197,"Latitude":60.8731}},{"type":"Feature","geometry":{"type":"Point","coordinates":[-165.108574999973,60.530141999917]},"properties":{"Plant_Name":"Toksook Bay","State":"Alaska","PrimSource":"petroleum","Total_MW":2.1,"Install_MW":2.1,"City":"Toksook Bay","County":"Bethel","Utility_Na":"Alaska Village Elec Coop, Inc","Longitude":-165.108575,"Latitude":60.530142}},{"type":"Feature","geometry":{"type":"Point","coordinates":[-134.053300000378,58.2325000000847]},"properties":{"Plant_Name":"Lake Dorothy Hydroelectric Project","State":"Alaska","PrimSource":"hydroelectric","Total_MW":14.3,"Install_MW":14.3,"City":"Juneau","County":"Juneau","Utility_Na":"Alaska Electric Light & Power Co.","Longitude":-134.0533,"Latitude":58.2325}},{"type":"Feature","geometry":{"type":"Point","coordinates":[-152.44059999981,57.7868999998717]},"properties":{"Plant_Name":"Pillar Mountain Wind Project Microgrid","State":"Alaska","PrimSource":"wind","Total_MW":9,"Install_MW":9,"City":"Kodiak","County":"Kodiak Island","Utility_Na":"Kodiak Electric Assn Inc","Longitude":-152.4406,"Latitude":57.7869}},{"type":"Feature","geometry":{"type":"Point","coordinates":[-150.997221999651,60.4994439999324]},"properties":{"Plant_Name":"Soldotna","State":"Alaska","PrimSource":"natural gas","Total_MW":90.5,"Install_MW":96.5,"City":"Soldotna","County":"Kenai Peninsula","Utility_Na":"Homer Electric Assn Inc","Longitude":-150.997222,"Latitude":60.499444}},{"type":"Feature","geometry":{"type":"Point","coordinates":[-131.530833000224,55.3280560000147]},"properties":{"Plant_Name":"Whitman","State":"Alaska","PrimSource":"hydroelectric","Total_MW":4.8,"Install_MW":4.8,"City":"Ketchikan","County":"Ketchikan Gateway","Utility_Na":"Ketchikan Public Utilities","Longitude":-131.530833,"Latitude":55.328056}},{"type":"Feature","geometry":{"type":"Point","coordinates":[-146.353333000374,61.0844439999782]},"properties":{"Plant_Name":"Allison Creek Hydro","State":"Alaska","PrimSource":"hydroelectric","Total_MW":6.5,"Install_MW":6.5,"City":"Valdez","County":"Valdez Cordova","Utility_Na":"Copper Valley Elec Assn, Inc","Longitude":-146.353333,"Latitude":61.084444}},{"type":"Feature","geometry":{"type":"Point","coordinates":[-149.351388999568,61.4577779998876]},"properties":{"Plant_Name":"Eklutna Generation Station","State":"Alaska","PrimSource":"natural gas","Total_MW":165,"Install_MW":171,"City":"Chugiak","County":"Anchorage","Utility_Na":"Matanuska Electric Assn Inc","Longitude":-149.351389,"Latitude":61.457778}},{"type":"Feature","geometry":{"type":"Point","coordinates":[-132.610030000173,55.217253999938]},"properties":{"Plant_Name":"Hiilangaay Hydro","State":"Alaska","PrimSource":"hydroelectric","Total_MW":5,"Install_MW":5,"City":"Hydaburg","County":"Prince of Wales Ketchikan","Utility_Na":"Haida Energy, Inc.","Longitude":-132.61003,"Latitude":55.217254}},{"type":"Feature","geometry":{"type":"Point","coordinates":[-134.608020000083,58.3676349999425]},"properties":{"Plant_Name":"Industrial Plant","State":"Alaska","PrimSource":"petroleum","Total_MW":23.5,"Install_MW":41.7,"City":"Juneau","County":"Juneau","Utility_Na":"Alaska Electric Light & Power Co.","Longitude":-134.60802,"Latitude":58.367635}},{"type":"Feature","geometry":{"type":"Point","coordinates":[-157.856719000208,67.0879799998427]},"properties":{"Plant_Name":"Ambler","State":"Alaska","PrimSource":"petroleum","Total_MW":1.1,"Install_MW":1.1,"City":"Ambler","County":"Northwest Arctic","Utility_Na":"Alaska Village Elec Coop, Inc","Longitude":-157.856719,"Latitude":67.08798}},{"type":"Feature","geometry":{"type":"Point","coordinates":[-162.085147000064,61.8781859999929]},"properties":{"Plant_Name":"Marshall","State":"Alaska","PrimSource":"petroleum","Total_MW":1.1,"Install_MW":1.1,"City":"Marshall","County":"Kusilvak","Utility_Na":"Alaska Village Elec Coop, Inc","Longitude":-162.085147,"Latitude":61.878186}},{"type":"Feature","geometry":{"type":"Point","coordinates":[-157.325527999615,59.4483579997846]},"properties":{"Plant_Name":"New Stuyahok","State":"Alaska","PrimSource":"petroleum","Total_MW":1.3,"Install_MW":1.3,"City":"New Stuyahok","County":"Dillingham","Utility_Na":"Alaska Village Elec Coop, Inc","Longitude":-157.325528,"Latitude":59.448358}},{"type":"Feature","geometry":{"type":"Point","coordinates":[-152.480279999858,57.7755600000988]},"properties":{"Plant_Name":"Swampy Acres Microgrid","State":"Alaska","PrimSource":"petroleum","Total_MW":8.4,"Install_MW":8.4,"City":"Kodiak","County":"Kodiak Island","Utility_Na":"Kodiak Electric Assn Inc","Longitude":-152.48028,"Latitude":57.77556}},{"type":"Feature","geometry":{"type":"Point","coordinates":[-166.479505999679,65.331716000032]},"properties":{"Plant_Name":"Brevig Mission","State":"Alaska","PrimSource":"petroleum","Total_MW":1,"Install_MW":1,"City":"Brevig Mission","County":"Nome","Utility_Na":"Alaska Village Elec Coop, Inc","Longitude":-166.479506,"Latitude":65.331716}},{"type":"Feature","geometry":{"type":"Point","coordinates":[-152.443783000357,57.780113999858]},"properties":{"Plant_Name":"Flywheel Energy Storage System Microgrid","State":"Alaska","PrimSource":"other","Total_MW":2,"Install_MW":2,"City":"Kodiak","County":"Kodiak Island","Utility_Na":"Kodiak Electric Assn Inc","Longitude":-152.443783,"Latitude":57.780114}},{"type":"Feature","geometry":{"type":"Point","coordinates":[-131.504344000148,56.2164029997725]},"properties":{"Plant_Name":"Tyee Lake Hydroelectric Facility","State":"Alaska","PrimSource":"hydroelectric","Total_MW":22.6,"Install_MW":22.6,"City":"Wrangell","County":"Wrangell Petersburg","Utility_Na":"Southeast Alaska Power Agency","Longitude":-131.504344,"Latitude":56.216403}},{"type":"Feature","geometry":{"type":"Point","coordinates":[-133.085349999599,55.5531970000994]},"properties":{"Plant_Name":"Klawock Power Generation Station","State":"Alaska","PrimSource":"petroleum","Total_MW":2.5,"Install_MW":2.5,"City":"Klawock","County":"Prince of Wales Ketchikan","Utility_Na":"Alaska Power and Telephone Co","Longitude":-133.08535,"Latitude":55.553197}},{"type":"Feature","geometry":{"type":"Point","coordinates":[-143.588869000341,62.5927560001428]},"properties":{"Plant_Name":"Slana Generating Station\t","State":"Alaska","PrimSource":"petroleum","Total_MW":1.2,"Install_MW":1.2,"City":"Slana","County":"Southeast Fairbanks","Utility_Na":"Alaska Power and Telephone Co","Longitude":-143.588869,"Latitude":62.592756}},{"type":"Feature","geometry":{"type":"Point","coordinates":[-145.740789999915,60.5404699998427]},"properties":{"Plant_Name":"Eyak Service Center BESS","State":"Alaska","PrimSource":"batteries","Total_MW":1,"Install_MW":1,"City":"Cordova","County":"Valdez Cordova","Utility_Na":"Cordova Electric Coop, Inc","Longitude":-145.74079,"Latitude":60.54047}},{"type":"Feature","geometry":{"type":"Point","coordinates":[-135.707370000051,58.4194969998357]},"properties":{"Plant_Name":"Gustavus","State":"Alaska","PrimSource":"petroleum","Total_MW":1.4,"Install_MW":1.4,"City":"Gustavus","County":"Skagway Hoonah Angoon","Utility_Na":"Alaska Power and Telephone Co","Longitude":-135.70737,"Latitude":58.419497}},{"type":"Feature","geometry":{"type":"Point","coordinates":[-149.78999999978,61.5900000001017]},"properties":{"Plant_Name":"Houston Solar","State":"Alaska","PrimSource":"solar","Total_MW":6,"Install_MW":6,"City":"Houston","County":"Matanuska Susitna","Utility_Na":"Energy 49, LLC","Longitude":-149.79,"Latitude":61.59}},{"type":"Feature","geometry":{"type":"Point","coordinates":[-149.913071000217,61.1698859998829]},"properties":{"Plant_Name":"International Battery Substation (IBSS)","State":"Alaska","PrimSource":"batteries","Total_MW":40,"Install_MW":40,"City":" ","County":" ","Utility_Na":"Chugach Electric Assn Inc","Longitude":-149.913071,"Latitude":61.169886}}]}