{"type":"FeatureCollection","features":[{"type":"Feature","geometry":{"type":"Point","coordinates":[-120.076883,38.2029042]},"properties":{"NAME":"OSM-94633368","STATE":"","TYPE":"SUBSTATION","STATUS":"IN SERVICE","MAX_VOLT":null,"CITY":"","COUNTY":"","ZIP":"","LINES":null,"SOURCE":"OpenStreetMap"}},{"type":"Feature","geometry":{"type":"Point","coordinates":[-120.1121235,38.1865762]},"properties":{"NAME":"OSM-94735758","STATE":"","TYPE":"SUBSTATION","STATUS":"IN SERVICE","MAX_VOLT":null,"CITY":"","COUNTY":"","ZIP":"","LINES":null,"SOURCE":"OpenStreetMap"}},{"type":"Feature","geometry":{"type":"Point","coordinates":[-120.299624,37.8092396]},"properties":{"NAME":"Moccasin Creek Power House","STATE":"CA","TYPE":"SUBSTATION","STATUS":"IN SERVICE","MAX_VOLT":null,"CITY":"","COUNTY":"","ZIP":"","LINES":null,"SOURCE":"OpenStreetMap"}},{"type":"Feature","geometry":{"type":"Point","coordinates":[-122.3602971,41.985419]},"properties":{"NAME":"Fall Creek Powerhouse","STATE":"CA","TYPE":"SUBSTATION","STATUS":"IN SERVICE","MAX_VOLT":null,"CITY":"","COUNTY":"","ZIP":"","LINES":null,"SOURCE":"OpenStreetMap"}},{"type":"Feature","geometry":{"type":"Point","coordinates":[-122.4775233,37.8402168]},"properties":{"NAME":"OSM-669137776","STATE":"","TYPE":"SUBSTATION","STATUS":"IN SERVICE","MAX_VOLT":null,"CITY":"","COUNTY":"","ZIP":"","LINES":null,"SOURCE":"OpenStreetMap"}},{"type":"Feature","geometry":{"type":"Point","coordinates":[-115.4084507,32.6556153]},"properties":{"NAME":"OSM-1227434285","STATE":"","TYPE":"SUBSTATION","STATUS":"IN SERVICE","MAX_VOLT":null,"CITY":"","COUNTY":"","ZIP":"","LINES":null,"SOURCE":"OpenStreetMap"}},{"type":"Feature","geometry":{"type":"Point","coordinates":[-122.2309582,37.8055733]},"properties":{"NAME":"OSM-1276842136","STATE":"","TYPE":"SUBSTATION","STATUS":"IN SERVICE","MAX_VOLT":null,"CITY":"","COUNTY":"","ZIP":"","LINES":null,"SOURCE":"OpenStreetMap"}},{"type":"Feature","geometry":{"type":"Point","coordinates":[-121.249325,38.7474344]},"properties":{"NAME":"Central Utilities Plant","STATE":"","TYPE":"SUBSTATION","STATUS":"IN SERVICE","MAX_VOLT":null,"CITY":"","COUNTY":"","ZIP":"","LINES":null,"SOURCE":"OpenStreetMap"}},{"type":"Feature","geometry":{"type":"Point","coordinates":[-116.643398,32.5749586]},"properties":{"NAME":"OSM-1641497721","STATE":"","TYPE":"SUBSTATION","STATUS":"IN SERVICE","MAX_VOLT":null,"CITY":"","COUNTY":"","ZIP":"","LINES":null,"SOURCE":"OpenStreetMap"}},{"type":"Feature","geometry":{"type":"Point","coordinates":[-118.4397801,34.6748642]},"properties":{"NAME":"OSM-1742528740","STATE":"","TYPE":"SUBSTATION","STATUS":"IN SERVICE","MAX_VOLT":null,"CITY":"","COUNTY":"","ZIP":"","LINES":null,"SOURCE":"OpenStreetMap"}},{"type":"Feature","geometry":{"type":"Point","coordinates":[-122.2400995,37.5467053]},"properties":{"NAME":"OSM-1743314005","STATE":"","TYPE":"SUBSTATION","STATUS":"IN SERVICE","MAX_VOLT":null,"CITY":"","COUNTY":"","ZIP":"","LINES":null,"SOURCE":"OpenStreetMap"}},{"type":"Feature","geometry":{"type":"Point","coordinates":[-108.383059,49.2040685]},"properties":{"NAME":"OSM-2057688575","STATE":"","TYPE":"SUBSTATION","STATUS":"IN SERVICE","MAX_VOLT":null,"CITY":"","COUNTY":"","ZIP":"","LINES":null,"SOURCE":"OpenStreetMap"}},{"type":"Feature","geometry":{"type":"Point","coordinates":[-122.055005,36.9980188]},"properties":{"NAME":"OSM-2079483484","STATE":"","TYPE":"SUBSTATION","STATUS":"IN SERVICE","MAX_VOLT":null,"CITY":"","COUNTY":"","ZIP":"","LINES":null,"SOURCE":"OpenStreetMap"}},{"type":"Feature","geometry":{"type":"Point","coordinates":[-122.3877677,47.6382423]},"properties":{"NAME":"OSM-2308991672","STATE":"","TYPE":"SUBSTATION","STATUS":"IN SERVICE","MAX_VOLT":null,"CITY":"Seattle","COUNTY":"","ZIP":"98199","LINES":null,"SOURCE":"OpenStreetMap"}},{"type":"Feature","geometry":{"type":"Point","coordinates":[-122.2019201,47.5773834]},"properties":{"NAME":"OSM-2498568227","STATE":"","TYPE":"SUBSTATION","STATUS":"IN SERVICE","MAX_VOLT":null,"CITY":"","COUNTY":"","ZIP":"","LINES":null,"SOURCE":"OpenStreetMap"}},{"type":"Feature","geometry":{"type":"Point","coordinates":[-104.903292,39.6768334]},"properties":{"NAME":"OSM-3450087846","STATE":"","TYPE":"SUBSTATION","STATUS":"IN SERVICE","MAX_VOLT":null,"CITY":"","COUNTY":"","ZIP":"","LINES":null,"SOURCE":"OpenStreetMap"}},{"type":"Feature","geometry":{"type":"Point","coordinates":[-105.1000268,39.9224422]},"properties":{"NAME":"OSM-3705030095","STATE":"","TYPE":"SUBSTATION","STATUS":"IN SERVICE","MAX_VOLT":null,"CITY":"","COUNTY":"","ZIP":"","LINES":null,"SOURCE":"OpenStreetMap"}},{"type":"Feature","geometry":{"type":"Point","coordinates":[-116.6672785,31.8693372]},"properties":{"NAME":"OSM-3860746288","STATE":"","TYPE":"SUBSTATION","STATUS":"IN SERVICE","MAX_VOLT":null,"CITY":"","COUNTY":"","ZIP":"","LINES":null,"SOURCE":"OpenStreetMap"}},{"type":"Feature","geometry":{"type":"Point","coordinates":[-116.9438971,32.5667881]},"properties":{"NAME":"OSM-4173398686","STATE":"","TYPE":"SUBSTATION","STATUS":"IN SERVICE","MAX_VOLT":null,"CITY":"","COUNTY":"","ZIP":"","LINES":null,"SOURCE":"OpenStreetMap"}},{"type":"Feature","geometry":{"type":"Point","coordinates":[-116.9445154,32.5667994]},"properties":{"NAME":"OSM-4173398687","STATE":"","TYPE":"SUBSTATION","STATUS":"IN SERVICE","MAX_VOLT":null,"CITY":"","COUNTY":"","ZIP":"","LINES":null,"SOURCE":"OpenStreetMap"}},{"type":"Feature","geometry":{"type":"Point","coordinates":[-122.478269,37.7543759]},"properties":{"NAME":"21st Avenue Substation","STATE":"","TYPE":"DISTRIBUTION","STATUS":"IN SERVICE","MAX_VOLT":null,"CITY":"","COUNTY":"","ZIP":"","LINES":null,"SOURCE":"OpenStreetMap"}},{"type":"Feature","geometry":{"type":"Point","coordinates":[-122.5047413,37.7527592]},"properties":{"NAME":"Noriega Substation","STATE":"","TYPE":"DISTRIBUTION","STATUS":"IN SERVICE","MAX_VOLT":null,"CITY":"","COUNTY":"","ZIP":"","LINES":null,"SOURCE":"OpenStreetMap"}},{"type":"Feature","geometry":{"type":"Point","coordinates":[-120.4464808,38.146948]},"properties":{"NAME":"OSM-4216517005","STATE":"","TYPE":"SUBSTATION","STATUS":"IN SERVICE","MAX_VOLT":null,"CITY":"","COUNTY":"","ZIP":"","LINES":null,"SOURCE":"OpenStreetMap"}},{"type":"Feature","geometry":{"type":"Point","coordinates":[-121.6202781,37.1391711]},"properties":{"NAME":"Geocache in Electrical Box","STATE":"","TYPE":"MINOR_DISTRIBUTION","STATUS":"IN SERVICE","MAX_VOLT":null,"CITY":"","COUNTY":"","ZIP":"","LINES":null,"SOURCE":"OpenStreetMap"}},{"type":"Feature","geometry":{"type":"Point","coordinates":[-122.3780869,40.6078953]},"properties":{"NAME":"OSM-5405428826","STATE":"","TYPE":"SUBSTATION","STATUS":"IN SERVICE","MAX_VOLT":null,"CITY":"","COUNTY":"","ZIP":"","LINES":null,"SOURCE":"OpenStreetMap"}},{"type":"Feature","geometry":{"type":"Point","coordinates":[-122.3248437,47.6323284]},"properties":{"NAME":"OSM-5479023932","STATE":"","TYPE":"SUBSTATION","STATUS":"IN SERVICE","MAX_VOLT":null,"CITY":"","COUNTY":"","ZIP":"","LINES":null,"SOURCE":"OpenStreetMap"}},{"type":"Feature","geometry":{"type":"Point","coordinates":[-122.3202242,47.6175286]},"properties":{"NAME":"TPSS #66","STATE":"","TYPE":"TRACTION","STATUS":"IN SERVICE","MAX_VOLT":null,"CITY":"","COUNTY":"","ZIP":"","LINES":null,"SOURCE":"OpenStreetMap"}},{"type":"Feature","geometry":{"type":"Point","coordinates":[-109.5294037,40.462757]},"properties":{"NAME":"OSM-5802557674","STATE":"","TYPE":"SUBSTATION","STATUS":"IN SERVICE","MAX_VOLT":null,"CITY":"","COUNTY":"","ZIP":"","LINES":null,"SOURCE":"OpenStreetMap"}},{"type":"Feature","geometry":{"type":"Point","coordinates":[-117.5071909,49.0353392]},"properties":{"NAME":"OSM-5813642233","STATE":"","TYPE":"SUBSTATION","STATUS":"IN SERVICE","MAX_VOLT":null,"CITY":"","COUNTY":"","ZIP":"","LINES":null,"SOURCE":"OpenStreetMap"}},{"type":"Feature","geometry":{"type":"Point","coordinates":[-122.3581774,40.6644992]},"properties":{"NAME":"OSM-5839180485","STATE":"","TYPE":"MINOR_DISTRIBUTION","STATUS":"IN SERVICE","MAX_VOLT":null,"CITY":"","COUNTY":"","ZIP":"","LINES":null,"SOURCE":"OpenStreetMap"}},{"type":"Feature","geometry":{"type":"Point","coordinates":[-122.3648136,40.6806955]},"properties":{"NAME":"2618","STATE":"","TYPE":"SUBSTATION","STATUS":"IN SERVICE","MAX_VOLT":208,"CITY":"","COUNTY":"","ZIP":"","LINES":null,"SOURCE":"OpenStreetMap"}},{"type":"Feature","geometry":{"type":"Point","coordinates":[-122.363615,40.6803742]},"properties":{"NAME":"4600","STATE":"","TYPE":"MINOR_DISTRIBUTION","STATUS":"IN SERVICE","MAX_VOLT":null,"CITY":"","COUNTY":"","ZIP":"","LINES":null,"SOURCE":"OpenStreetMap"}},{"type":"Feature","geometry":{"type":"Point","coordinates":[-122.3798643,40.6093546]},"properties":{"NAME":"T5512","STATE":"","TYPE":"SUBSTATION","STATUS":"IN SERVICE","MAX_VOLT":null,"CITY":"","COUNTY":"","ZIP":"","LINES":null,"SOURCE":"OpenStreetMap"}},{"type":"Feature","geometry":{"type":"Point","coordinates":[-109.58578,40.4631074]},"properties":{"NAME":"OSM-5849990488","STATE":"","TYPE":"SUBSTATION","STATUS":"IN SERVICE","MAX_VOLT":null,"CITY":"","COUNTY":"","ZIP":"","LINES":null,"SOURCE":"OpenStreetMap"}},{"type":"Feature","geometry":{"type":"Point","coordinates":[-122.9598758,47.0572709]},"properties":{"NAME":"OSM-5917957736","STATE":"","TYPE":"DISTRIBUTION","STATUS":"IN SERVICE","MAX_VOLT":null,"CITY":"","COUNTY":"","ZIP":"","LINES":null,"SOURCE":"OpenStreetMap"}},{"type":"Feature","geometry":{"type":"Point","coordinates":[-122.3706781,40.6814882]},"properties":{"NAME":"2404","STATE":"","TYPE":"MINOR_DISTRIBUTION","STATUS":"IN SERVICE","MAX_VOLT":null,"CITY":"","COUNTY":"","ZIP":"","LINES":null,"SOURCE":"OpenStreetMap"}},{"type":"Feature","geometry":{"type":"Point","coordinates":[-122.4036381,40.6242603]},"properties":{"NAME":"T4227L","STATE":"","TYPE":"MINOR_DISTRIBUTION","STATUS":"IN SERVICE","MAX_VOLT":112,"CITY":"","COUNTY":"","ZIP":"","LINES":null,"SOURCE":"OpenStreetMap"}},{"type":"Feature","geometry":{"type":"Point","coordinates":[-122.3947015,40.5941285]},"properties":{"NAME":"T7987L","STATE":"","TYPE":"MINOR_DISTRIBUTION","STATUS":"IN SERVICE","MAX_VOLT":null,"CITY":"","COUNTY":"","ZIP":"","LINES":null,"SOURCE":"OpenStreetMap"}},{"type":"Feature","geometry":{"type":"Point","coordinates":[-122.4024836,40.6242431]},"properties":{"NAME":"T7910L","STATE":"","TYPE":"MINOR_DISTRIBUTION","STATUS":"IN SERVICE","MAX_VOLT":112,"CITY":"","COUNTY":"","ZIP":"","LINES":null,"SOURCE":"OpenStreetMap"}},{"type":"Feature","geometry":{"type":"Point","coordinates":[-122.3950031,40.6228469]},"properties":{"NAME":"T3779L","STATE":"","TYPE":"MINOR_DISTRIBUTION","STATUS":"IN SERVICE","MAX_VOLT":null,"CITY":"","COUNTY":"","ZIP":"","LINES":null,"SOURCE":"OpenStreetMap"}},{"type":"Feature","geometry":{"type":"Point","coordinates":[-122.3973098,40.6234433]},"properties":{"NAME":"T4331L","STATE":"","TYPE":"MINOR_DISTRIBUTION","STATUS":"IN SERVICE","MAX_VOLT":null,"CITY":"","COUNTY":"","ZIP":"","LINES":null,"SOURCE":"OpenStreetMap"}},{"type":"Feature","geometry":{"type":"Point","coordinates":[-122.3992456,40.6236663]},"properties":{"NAME":"T4328L","STATE":"","TYPE":"SUBSTATION","STATUS":"IN SERVICE","MAX_VOLT":null,"CITY":"","COUNTY":"","ZIP":"","LINES":null,"SOURCE":"OpenStreetMap"}},{"type":"Feature","geometry":{"type":"Point","coordinates":[-122.3612144,40.6554243]},"properties":{"NAME":"1156","STATE":"","TYPE":"YES","STATUS":"IN SERVICE","MAX_VOLT":null,"CITY":"","COUNTY":"","ZIP":"","LINES":null,"SOURCE":"OpenStreetMap"}},{"type":"Feature","geometry":{"type":"Point","coordinates":[-122.3597235,40.6556003]},"properties":{"NAME":"1521","STATE":"","TYPE":"YES","STATUS":"IN SERVICE","MAX_VOLT":null,"CITY":"","COUNTY":"","ZIP":"","LINES":null,"SOURCE":"OpenStreetMap"}},{"type":"Feature","geometry":{"type":"Point","coordinates":[-122.362328,40.6554845]},"properties":{"NAME":"129","STATE":"","TYPE":"YES","STATUS":"IN SERVICE","MAX_VOLT":null,"CITY":"","COUNTY":"","ZIP":"","LINES":null,"SOURCE":"OpenStreetMap"}},{"type":"Feature","geometry":{"type":"Point","coordinates":[-122.363438,40.6558105]},"properties":{"NAME":"130","STATE":"","TYPE":"YES","STATUS":"IN SERVICE","MAX_VOLT":null,"CITY":"","COUNTY":"","ZIP":"","LINES":null,"SOURCE":"OpenStreetMap"}},{"type":"Feature","geometry":{"type":"Point","coordinates":[-122.36504,40.655318]},"properties":{"NAME":"2407","STATE":"","TYPE":"YES","STATUS":"IN SERVICE","MAX_VOLT":null,"CITY":"","COUNTY":"","ZIP":"","LINES":null,"SOURCE":"OpenStreetMap"}},{"type":"Feature","geometry":{"type":"Point","coordinates":[-122.364732,40.6568052]},"properties":{"NAME":"961","STATE":"","TYPE":"YES","STATUS":"IN SERVICE","MAX_VOLT":null,"CITY":"","COUNTY":"","ZIP":"","LINES":null,"SOURCE":"OpenStreetMap"}},{"type":"Feature","geometry":{"type":"Point","coordinates":[-122.363915,40.657301]},"properties":{"NAME":"957","STATE":"","TYPE":"YES","STATUS":"IN SERVICE","MAX_VOLT":null,"CITY":"","COUNTY":"","ZIP":"","LINES":null,"SOURCE":"OpenStreetMap"}},{"type":"Feature","geometry":{"type":"Point","coordinates":[-122.364198,40.6584042]},"properties":{"NAME":"446","STATE":"","TYPE":"YES","STATUS":"IN SERVICE","MAX_VOLT":null,"CITY":"","COUNTY":"","ZIP":"","LINES":null,"SOURCE":"OpenStreetMap"}},{"type":"Feature","geometry":{"type":"Point","coordinates":[-122.369063,40.6607788]},"properties":{"NAME":"C456","STATE":"","TYPE":"YES","STATUS":"IN SERVICE","MAX_VOLT":null,"CITY":"","COUNTY":"","ZIP":"","LINES":null,"SOURCE":"OpenStreetMap"}},{"type":"Feature","geometry":{"type":"Point","coordinates":[-122.3697185,40.6607367]},"properties":{"NAME":"1932","STATE":"","TYPE":"YES","STATUS":"IN SERVICE","MAX_VOLT":null,"CITY":"","COUNTY":"","ZIP":"","LINES":null,"SOURCE":"OpenStreetMap"}},{"type":"Feature","geometry":{"type":"Point","coordinates":[-122.3712965,40.6610664]},"properties":{"NAME":"1939","STATE":"","TYPE":"YES","STATUS":"IN SERVICE","MAX_VOLT":null,"CITY":"","COUNTY":"","ZIP":"","LINES":null,"SOURCE":"OpenStreetMap"}},{"type":"Feature","geometry":{"type":"Point","coordinates":[-122.3703122,40.6616477]},"properties":{"NAME":"1944","STATE":"","TYPE":"YES","STATUS":"IN SERVICE","MAX_VOLT":null,"CITY":"","COUNTY":"","ZIP":"","LINES":null,"SOURCE":"OpenStreetMap"}},{"type":"Feature","geometry":{"type":"Point","coordinates":[-122.3724265,40.6613336]},"properties":{"NAME":"1947","STATE":"","TYPE":"YES","STATUS":"IN SERVICE","MAX_VOLT":null,"CITY":"","COUNTY":"","ZIP":"","LINES":null,"SOURCE":"OpenStreetMap"}},{"type":"Feature","geometry":{"type":"Point","coordinates":[-122.3724132,40.6613633]},"properties":{"NAME":"OSM-6401887766","STATE":"","TYPE":"YES","STATUS":"IN SERVICE","MAX_VOLT":null,"CITY":"","COUNTY":"","ZIP":"","LINES":null,"SOURCE":"OpenStreetMap"}},{"type":"Feature","geometry":{"type":"Point","coordinates":[-122.3736425,40.6605504]},"properties":{"NAME":"1936","STATE":"","TYPE":"YES","STATUS":"IN SERVICE","MAX_VOLT":null,"CITY":"","COUNTY":"","ZIP":"","LINES":null,"SOURCE":"OpenStreetMap"}},{"type":"Feature","geometry":{"type":"Point","coordinates":[-122.373839,40.6598765]},"properties":{"NAME":"1937","STATE":"","TYPE":"YES","STATUS":"IN SERVICE","MAX_VOLT":null,"CITY":"","COUNTY":"","ZIP":"","LINES":null,"SOURCE":"OpenStreetMap"}},{"type":"Feature","geometry":{"type":"Point","coordinates":[-122.3726945,40.6597552]},"properties":{"NAME":"1950","STATE":"","TYPE":"YES","STATUS":"IN SERVICE","MAX_VOLT":null,"CITY":"","COUNTY":"","ZIP":"","LINES":null,"SOURCE":"OpenStreetMap"}},{"type":"Feature","geometry":{"type":"Point","coordinates":[-122.3708763,40.6593265]},"properties":{"NAME":"1933","STATE":"","TYPE":"YES","STATUS":"IN SERVICE","MAX_VOLT":null,"CITY":"","COUNTY":"","ZIP":"","LINES":null,"SOURCE":"OpenStreetMap"}},{"type":"Feature","geometry":{"type":"Point","coordinates":[-122.369789,40.6594157]},"properties":{"NAME":"2018","STATE":"","TYPE":"YES","STATUS":"IN SERVICE","MAX_VOLT":null,"CITY":"","COUNTY":"","ZIP":"","LINES":null,"SOURCE":"OpenStreetMap"}},{"type":"Feature","geometry":{"type":"Point","coordinates":[-122.368314,40.6597686]},"properties":{"NAME":"1755","STATE":"","TYPE":"SUBSTATION","STATUS":"IN SERVICE","MAX_VOLT":null,"CITY":"","COUNTY":"","ZIP":"","LINES":null,"SOURCE":"OpenStreetMap"}},{"type":"Feature","geometry":{"type":"Point","coordinates":[-122.368579,40.6584847]},"properties":{"NAME":"1940","STATE":"","TYPE":"YES","STATUS":"IN SERVICE","MAX_VOLT":null,"CITY":"","COUNTY":"","ZIP":"","LINES":null,"SOURCE":"OpenStreetMap"}},{"type":"Feature","geometry":{"type":"Point","coordinates":[-122.367991,40.6577649]},"properties":{"NAME":"1756","STATE":"","TYPE":"YES","STATUS":"IN SERVICE","MAX_VOLT":null,"CITY":"","COUNTY":"","ZIP":"","LINES":null,"SOURCE":"OpenStreetMap"}},{"type":"Feature","geometry":{"type":"Point","coordinates":[-122.3504015,40.6802038]},"properties":{"NAME":"1673","STATE":"","TYPE":"SUBSTATION","STATUS":"IN SERVICE","MAX_VOLT":null,"CITY":"","COUNTY":"","ZIP":"","LINES":null,"SOURCE":"OpenStreetMap"}},{"type":"Feature","geometry":{"type":"Point","coordinates":[-122.3607341,40.6645763]},"properties":{"NAME":"2025","STATE":"","TYPE":"SUBSTATION","STATUS":"IN SERVICE","MAX_VOLT":null,"CITY":"","COUNTY":"","ZIP":"","LINES":null,"SOURCE":"OpenStreetMap"}},{"type":"Feature","geometry":{"type":"Point","coordinates":[-122.3607319,40.6641747]},"properties":{"NAME":"2023","STATE":"","TYPE":"SUBSTATION","STATUS":"IN SERVICE","MAX_VOLT":null,"CITY":"","COUNTY":"","ZIP":"","LINES":null,"SOURCE":"OpenStreetMap"}},{"type":"Feature","geometry":{"type":"Point","coordinates":[-122.3699569,40.6570527]},"properties":{"NAME":"1614","STATE":"","TYPE":"SUBSTATION","STATUS":"IN SERVICE","MAX_VOLT":null,"CITY":"","COUNTY":"","ZIP":"","LINES":null,"SOURCE":"OpenStreetMap"}},{"type":"Feature","geometry":{"type":"Point","coordinates":[-122.3702245,40.655703]},"properties":{"NAME":"1943","STATE":"","TYPE":"SUBSTATION","STATUS":"IN SERVICE","MAX_VOLT":null,"CITY":"","COUNTY":"","ZIP":"","LINES":null,"SOURCE":"OpenStreetMap"}},{"type":"Feature","geometry":{"type":"Point","coordinates":[-122.3802995,40.6097235]},"properties":{"NAME":"T7060L","STATE":"","TYPE":"SUBSTATION","STATUS":"IN SERVICE","MAX_VOLT":150,"CITY":"","COUNTY":"","ZIP":"","LINES":null,"SOURCE":"OpenStreetMap"}},{"type":"Feature","geometry":{"type":"Point","coordinates":[-122.3805116,40.6090821]},"properties":{"NAME":"T2082L","STATE":"","TYPE":"SUBSTATION","STATUS":"IN SERVICE","MAX_VOLT":null,"CITY":"","COUNTY":"","ZIP":"","LINES":null,"SOURCE":"OpenStreetMap"}},{"type":"Feature","geometry":{"type":"Point","coordinates":[-122.368787,40.6560619]},"properties":{"NAME":"1703","STATE":"","TYPE":"SUBSTATION","STATUS":"IN SERVICE","MAX_VOLT":null,"CITY":"","COUNTY":"","ZIP":"","LINES":null,"SOURCE":"OpenStreetMap"}},{"type":"Feature","geometry":{"type":"Point","coordinates":[-122.36743,40.6551692]},"properties":{"NAME":"S355","STATE":"","TYPE":"YES","STATUS":"IN SERVICE","MAX_VOLT":null,"CITY":"","COUNTY":"","ZIP":"","LINES":null,"SOURCE":"OpenStreetMap"}},{"type":"Feature","geometry":{"type":"Point","coordinates":[-122.392786,40.5962601]},"properties":{"NAME":"T9128L","STATE":"","TYPE":"SUBSTATION","STATUS":"IN SERVICE","MAX_VOLT":50,"CITY":"","COUNTY":"","ZIP":"","LINES":null,"SOURCE":"OpenStreetMap"}},{"type":"Feature","geometry":{"type":"Point","coordinates":[-122.393026,40.5962899]},"properties":{"NAME":"T8902L","STATE":"","TYPE":"SUBSTATION","STATUS":"IN SERVICE","MAX_VOLT":50,"CITY":"","COUNTY":"","ZIP":"","LINES":null,"SOURCE":"OpenStreetMap"}},{"type":"Feature","geometry":{"type":"Point","coordinates":[-122.393724,40.5964986]},"properties":{"NAME":"T9131L","STATE":"","TYPE":"SUBSTATION","STATUS":"IN SERVICE","MAX_VOLT":50,"CITY":"","COUNTY":"","ZIP":"","LINES":null,"SOURCE":"OpenStreetMap"}},{"type":"Feature","geometry":{"type":"Point","coordinates":[-122.394331,40.5966571]},"properties":{"NAME":"T7593L","STATE":"","TYPE":"SUBSTATION","STATUS":"IN SERVICE","MAX_VOLT":null,"CITY":"","COUNTY":"","ZIP":"","LINES":null,"SOURCE":"OpenStreetMap"}},{"type":"Feature","geometry":{"type":"Point","coordinates":[-122.394446,40.5966859]},"properties":{"NAME":"T9132L","STATE":"","TYPE":"SUBSTATION","STATUS":"IN SERVICE","MAX_VOLT":50,"CITY":"","COUNTY":"","ZIP":"","LINES":null,"SOURCE":"OpenStreetMap"}},{"type":"Feature","geometry":{"type":"Point","coordinates":[-122.394981,40.5968339]},"properties":{"NAME":"T9135L","STATE":"","TYPE":"SUBSTATION","STATUS":"IN SERVICE","MAX_VOLT":50,"CITY":"","COUNTY":"","ZIP":"","LINES":null,"SOURCE":"OpenStreetMap"}},{"type":"Feature","geometry":{"type":"Point","coordinates":[-122.3952708,40.5968995]},"properties":{"NAME":"T8481L","STATE":"","TYPE":"SUBSTATION","STATUS":"IN SERVICE","MAX_VOLT":25,"CITY":"","COUNTY":"","ZIP":"","LINES":null,"SOURCE":"OpenStreetMap"}},{"type":"Feature","geometry":{"type":"Point","coordinates":[-122.3959821,40.5969387]},"properties":{"NAME":"T9142L","STATE":"","TYPE":"SUBSTATION","STATUS":"IN SERVICE","MAX_VOLT":50,"CITY":"","COUNTY":"","ZIP":"","LINES":null,"SOURCE":"OpenStreetMap"}},{"type":"Feature","geometry":{"type":"Point","coordinates":[-122.4000812,40.5966711]},"properties":{"NAME":"T9539L","STATE":"","TYPE":"SUBSTATION","STATUS":"IN SERVICE","MAX_VOLT":25,"CITY":"","COUNTY":"","ZIP":"","LINES":null,"SOURCE":"OpenStreetMap"}},{"type":"Feature","geometry":{"type":"Point","coordinates":[-122.3930964,40.5944741]},"properties":{"NAME":"T6262L","STATE":"","TYPE":"SUBSTATION","STATUS":"IN SERVICE","MAX_VOLT":null,"CITY":"","COUNTY":"","ZIP":"","LINES":null,"SOURCE":"OpenStreetMap"}},{"type":"Feature","geometry":{"type":"Point","coordinates":[-122.4062593,40.5943909]},"properties":{"NAME":"T6890L","STATE":"","TYPE":"SUBSTATION","STATUS":"IN SERVICE","MAX_VOLT":50,"CITY":"","COUNTY":"","ZIP":"","LINES":null,"SOURCE":"OpenStreetMap"}},{"type":"Feature","geometry":{"type":"Point","coordinates":[-122.4096039,40.5945863]},"properties":{"NAME":"T2659L","STATE":"","TYPE":"SUBSTATION","STATUS":"IN SERVICE","MAX_VOLT":null,"CITY":"","COUNTY":"","ZIP":"","LINES":null,"SOURCE":"OpenStreetMap"}},{"type":"Feature","geometry":{"type":"Point","coordinates":[-122.4095628,40.5961671]},"properties":{"NAME":"T3221L","STATE":"","TYPE":"SUBSTATION","STATUS":"IN SERVICE","MAX_VOLT":75,"CITY":"","COUNTY":"","ZIP":"","LINES":null,"SOURCE":"OpenStreetMap"}},{"type":"Feature","geometry":{"type":"Point","coordinates":[-122.4084947,40.5963849]},"properties":{"NAME":"T3220L","STATE":"","TYPE":"SUBSTATION","STATUS":"IN SERVICE","MAX_VOLT":75,"CITY":"","COUNTY":"","ZIP":"","LINES":null,"SOURCE":"OpenStreetMap"}},{"type":"Feature","geometry":{"type":"Point","coordinates":[-122.4065471,40.5952621]},"properties":{"NAME":"T9441L","STATE":"","TYPE":"SUBSTATION","STATUS":"IN SERVICE","MAX_VOLT":75,"CITY":"","COUNTY":"","ZIP":"","LINES":null,"SOURCE":"OpenStreetMap"}},{"type":"Feature","geometry":{"type":"Point","coordinates":[-122.404709,40.5978867]},"properties":{"NAME":"T4084","STATE":"","TYPE":"SUBSTATION","STATUS":"IN SERVICE","MAX_VOLT":50,"CITY":"","COUNTY":"","ZIP":"","LINES":null,"SOURCE":"OpenStreetMap"}},{"type":"Feature","geometry":{"type":"Point","coordinates":[-122.4070422,40.5967611]},"properties":{"NAME":"T2668L","STATE":"","TYPE":"SUBSTATION","STATUS":"IN SERVICE","MAX_VOLT":null,"CITY":"","COUNTY":"","ZIP":"","LINES":null,"SOURCE":"OpenStreetMap"}},{"type":"Feature","geometry":{"type":"Point","coordinates":[-122.3859909,40.5777829]},"properties":{"NAME":"T10504L","STATE":"","TYPE":"SUBSTATION","STATUS":"IN SERVICE","MAX_VOLT":150,"CITY":"","COUNTY":"","ZIP":"","LINES":null,"SOURCE":"OpenStreetMap"}},{"type":"Feature","geometry":{"type":"Point","coordinates":[-122.4035505,40.5966094]},"properties":{"NAME":"T2660L","STATE":"","TYPE":"SUBSTATION","STATUS":"IN SERVICE","MAX_VOLT":null,"CITY":"","COUNTY":"","ZIP":"","LINES":null,"SOURCE":"OpenStreetMap"}},{"type":"Feature","geometry":{"type":"Point","coordinates":[-122.4040986,40.5959228]},"properties":{"NAME":"T3286L","STATE":"","TYPE":"SUBSTATION","STATUS":"IN SERVICE","MAX_VOLT":75,"CITY":"","COUNTY":"","ZIP":"","LINES":null,"SOURCE":"OpenStreetMap"}},{"type":"Feature","geometry":{"type":"Point","coordinates":[-122.363756,40.5699714]},"properties":{"NAME":"T10516L","STATE":"","TYPE":"YES","STATUS":"IN SERVICE","MAX_VOLT":null,"CITY":"","COUNTY":"","ZIP":"","LINES":null,"SOURCE":"OpenStreetMap"}},{"type":"Feature","geometry":{"type":"Point","coordinates":[-122.364852,40.5684237]},"properties":{"NAME":"T9762L","STATE":"","TYPE":"SUBSTATION","STATUS":"IN SERVICE","MAX_VOLT":100,"CITY":"","COUNTY":"","ZIP":"","LINES":null,"SOURCE":"OpenStreetMap"}},{"type":"Feature","geometry":{"type":"Point","coordinates":[-122.387999,40.5881383]},"properties":{"NAME":"T9768L","STATE":"","TYPE":"SUBSTATION","STATUS":"IN SERVICE","MAX_VOLT":100,"CITY":"","COUNTY":"","ZIP":"","LINES":null,"SOURCE":"OpenStreetMap"}},{"type":"Feature","geometry":{"type":"Point","coordinates":[-122.364499,40.5712025]},"properties":{"NAME":"T2933L","STATE":"","TYPE":"SUBSTATION","STATUS":"IN SERVICE","MAX_VOLT":null,"CITY":"","COUNTY":"","ZIP":"","LINES":null,"SOURCE":"OpenStreetMap"}},{"type":"Feature","geometry":{"type":"Point","coordinates":[-122.365151,40.5719871]},"properties":{"NAME":"T8518L","STATE":"","TYPE":"SUBSTATION","STATUS":"IN SERVICE","MAX_VOLT":null,"CITY":"","COUNTY":"","ZIP":"","LINES":null,"SOURCE":"OpenStreetMap"}},{"type":"Feature","geometry":{"type":"Point","coordinates":[-122.3591313,40.5995076]},"properties":{"NAME":"T10596L","STATE":"","TYPE":"SUBSTATION","STATUS":"IN SERVICE","MAX_VOLT":null,"CITY":"","COUNTY":"","ZIP":"","LINES":null,"SOURCE":"OpenStreetMap"}},{"type":"Feature","geometry":{"type":"Point","coordinates":[-122.3590938,40.600526]},"properties":{"NAME":"T10546L","STATE":"","TYPE":"SUBSTATION","STATUS":"IN SERVICE","MAX_VOLT":null,"CITY":"","COUNTY":"","ZIP":"","LINES":null,"SOURCE":"OpenStreetMap"}},{"type":"Feature","geometry":{"type":"Point","coordinates":[-122.3578782,40.6000113]},"properties":{"NAME":"T9442L","STATE":"","TYPE":"SUBSTATION","STATUS":"IN SERVICE","MAX_VOLT":75,"CITY":"","COUNTY":"","ZIP":"","LINES":null,"SOURCE":"OpenStreetMap"}},{"type":"Feature","geometry":{"type":"Point","coordinates":[-122.3562078,40.5993362]},"properties":{"NAME":"T6356L","STATE":"","TYPE":"SUBSTATION","STATUS":"IN SERVICE","MAX_VOLT":null,"CITY":"","COUNTY":"","ZIP":"","LINES":null,"SOURCE":"OpenStreetMap"}},{"type":"Feature","geometry":{"type":"Point","coordinates":[-122.3562032,40.5999443]},"properties":{"NAME":"T6357L","STATE":"","TYPE":"SUBSTATION","STATUS":"IN SERVICE","MAX_VOLT":null,"CITY":"","COUNTY":"","ZIP":"","LINES":null,"SOURCE":"OpenStreetMap"}},{"type":"Feature","geometry":{"type":"Point","coordinates":[-122.3542001,40.5996992]},"properties":{"NAME":"T6862L","STATE":"","TYPE":"SUBSTATION","STATUS":"IN SERVICE","MAX_VOLT":null,"CITY":"","COUNTY":"","ZIP":"","LINES":null,"SOURCE":"OpenStreetMap"}},{"type":"Feature","geometry":{"type":"Point","coordinates":[-122.3560046,40.5978911]},"properties":{"NAME":"T2705L","STATE":"","TYPE":"SUBSTATION","STATUS":"IN SERVICE","MAX_VOLT":null,"CITY":"","COUNTY":"","ZIP":"","LINES":null,"SOURCE":"OpenStreetMap"}},{"type":"Feature","geometry":{"type":"Point","coordinates":[-122.3569083,40.597921]},"properties":{"NAME":"T2697L","STATE":"","TYPE":"SUBSTATION","STATUS":"IN SERVICE","MAX_VOLT":null,"CITY":"","COUNTY":"","ZIP":"","LINES":null,"SOURCE":"OpenStreetMap"}},{"type":"Feature","geometry":{"type":"Point","coordinates":[-122.3576272,40.5979449]},"properties":{"NAME":"T6858L","STATE":"","TYPE":"SUBSTATION","STATUS":"IN SERVICE","MAX_VOLT":null,"CITY":"","COUNTY":"","ZIP":"","LINES":null,"SOURCE":"OpenStreetMap"}},{"type":"Feature","geometry":{"type":"Point","coordinates":[-122.3582996,40.5973131]},"properties":{"NAME":"OSM-6894656421","STATE":"","TYPE":"SUBSTATION","STATUS":"IN SERVICE","MAX_VOLT":null,"CITY":"","COUNTY":"","ZIP":"","LINES":null,"SOURCE":"OpenStreetMap"}},{"type":"Feature","geometry":{"type":"Point","coordinates":[-122.3577465,40.5779663]},"properties":{"NAME":"T10598L","STATE":"","TYPE":"SUBSTATION","STATUS":"IN SERVICE","MAX_VOLT":150,"CITY":"","COUNTY":"","ZIP":"","LINES":null,"SOURCE":"OpenStreetMap"}},{"type":"Feature","geometry":{"type":"Point","coordinates":[-122.3576375,40.5808361]},"properties":{"NAME":"1803","STATE":"","TYPE":"SUBSTATION","STATUS":"IN SERVICE","MAX_VOLT":150,"CITY":"","COUNTY":"","ZIP":"","LINES":null,"SOURCE":"OpenStreetMap"}},{"type":"Feature","geometry":{"type":"Point","coordinates":[-122.3574474,40.5807551]},"properties":{"NAME":"T2153L","STATE":"","TYPE":"SUBSTATION","STATUS":"IN SERVICE","MAX_VOLT":300,"CITY":"","COUNTY":"","ZIP":"","LINES":null,"SOURCE":"OpenStreetMap"}},{"type":"Feature","geometry":{"type":"Point","coordinates":[-122.3829835,40.6218875]},"properties":{"NAME":"T8677L","STATE":"","TYPE":"SUBSTATION","STATUS":"IN SERVICE","MAX_VOLT":75,"CITY":"","COUNTY":"","ZIP":"","LINES":null,"SOURCE":"OpenStreetMap"}},{"type":"Feature","geometry":{"type":"Point","coordinates":[-122.385549,40.6243078]},"properties":{"NAME":"T7925L","STATE":"","TYPE":"SUBSTATION","STATUS":"IN SERVICE","MAX_VOLT":50,"CITY":"","COUNTY":"","ZIP":"","LINES":null,"SOURCE":"OpenStreetMap"}},{"type":"Feature","geometry":{"type":"Point","coordinates":[-122.3840698,40.6244817]},"properties":{"NAME":"T7938L","STATE":"","TYPE":"SUBSTATION","STATUS":"IN SERVICE","MAX_VOLT":50,"CITY":"","COUNTY":"","ZIP":"","LINES":null,"SOURCE":"OpenStreetMap"}},{"type":"Feature","geometry":{"type":"Point","coordinates":[-122.3720172,40.5765797]},"properties":{"NAME":"T9274L","STATE":"","TYPE":"SUBSTATION","STATUS":"IN SERVICE","MAX_VOLT":225,"CITY":"","COUNTY":"","ZIP":"","LINES":null,"SOURCE":"OpenStreetMap"}},{"type":"Feature","geometry":{"type":"Point","coordinates":[-122.3726964,40.5754398]},"properties":{"NAME":"T9935L","STATE":"","TYPE":"SUBSTATION","STATUS":"IN SERVICE","MAX_VOLT":225,"CITY":"","COUNTY":"","ZIP":"","LINES":null,"SOURCE":"OpenStreetMap"}},{"type":"Feature","geometry":{"type":"Point","coordinates":[-122.3743356,40.574511]},"properties":{"NAME":"T8474L","STATE":"","TYPE":"SUBSTATION","STATUS":"IN SERVICE","MAX_VOLT":25,"CITY":"","COUNTY":"","ZIP":"","LINES":null,"SOURCE":"OpenStreetMap"}},{"type":"Feature","geometry":{"type":"Point","coordinates":[-122.3731889,40.5738887]},"properties":{"NAME":"T8642L","STATE":"","TYPE":"SUBSTATION","STATUS":"IN SERVICE","MAX_VOLT":225,"CITY":"","COUNTY":"","ZIP":"","LINES":null,"SOURCE":"OpenStreetMap"}},{"type":"Feature","geometry":{"type":"Point","coordinates":[-122.3715379,40.5782942]},"properties":{"NAME":"T8322L","STATE":"","TYPE":"SUBSTATION","STATUS":"IN SERVICE","MAX_VOLT":null,"CITY":"","COUNTY":"","ZIP":"","LINES":null,"SOURCE":"OpenStreetMap"}},{"type":"Feature","geometry":{"type":"Point","coordinates":[-122.4025103,40.5965097]},"properties":{"NAME":"6080L","STATE":"","TYPE":"SUBSTATION","STATUS":"IN SERVICE","MAX_VOLT":25,"CITY":"","COUNTY":"","ZIP":"","LINES":null,"SOURCE":"OpenStreetMap"}},{"type":"Feature","geometry":{"type":"Point","coordinates":[-122.4033685,40.5979295]},"properties":{"NAME":"T4085L","STATE":"","TYPE":"SUBSTATION","STATUS":"IN SERVICE","MAX_VOLT":50,"CITY":"","COUNTY":"","ZIP":"","LINES":null,"SOURCE":"OpenStreetMap"}},{"type":"Feature","geometry":{"type":"Point","coordinates":[-122.4103537,40.596571]},"properties":{"NAME":"T7302L","STATE":"","TYPE":"SUBSTATION","STATUS":"IN SERVICE","MAX_VOLT":38,"CITY":"","COUNTY":"","ZIP":"","LINES":null,"SOURCE":"OpenStreetMap"}},{"type":"Feature","geometry":{"type":"Point","coordinates":[-122.4035075,40.5972097]},"properties":{"NAME":"T8799L","STATE":"","TYPE":"SUBSTATION","STATUS":"IN SERVICE","MAX_VOLT":38,"CITY":"","COUNTY":"","ZIP":"","LINES":null,"SOURCE":"OpenStreetMap"}},{"type":"Feature","geometry":{"type":"Point","coordinates":[-122.406112,40.5965506]},"properties":{"NAME":"T2753L","STATE":"","TYPE":"SUBSTATION","STATUS":"IN SERVICE","MAX_VOLT":null,"CITY":"","COUNTY":"","ZIP":"","LINES":null,"SOURCE":"OpenStreetMap"}},{"type":"Feature","geometry":{"type":"Point","coordinates":[-122.4047321,40.5965441]},"properties":{"NAME":"OSM-6988493638","STATE":"","TYPE":"SUBSTATION","STATUS":"IN SERVICE","MAX_VOLT":null,"CITY":"","COUNTY":"","ZIP":"","LINES":null,"SOURCE":"OpenStreetMap"}},{"type":"Feature","geometry":{"type":"Point","coordinates":[-122.4008727,40.5969187]},"properties":{"NAME":"4323","STATE":"","TYPE":"SUBSTATION","STATUS":"IN SERVICE","MAX_VOLT":null,"CITY":"","COUNTY":"","ZIP":"","LINES":null,"SOURCE":"OpenStreetMap"}},{"type":"Feature","geometry":{"type":"Point","coordinates":[-122.4008598,40.5969153]},"properties":{"NAME":"4324","STATE":"","TYPE":"SUBSTATION","STATUS":"IN SERVICE","MAX_VOLT":null,"CITY":"","COUNTY":"","ZIP":"","LINES":null,"SOURCE":"OpenStreetMap"}},{"type":"Feature","geometry":{"type":"Point","coordinates":[-122.35713,40.5991815]},"properties":{"NAME":"T6299L","STATE":"","TYPE":"SUBSTATION","STATUS":"IN SERVICE","MAX_VOLT":null,"CITY":"","COUNTY":"","ZIP":"","LINES":null,"SOURCE":"OpenStreetMap"}},{"type":"Feature","geometry":{"type":"Point","coordinates":[-122.3550101,40.6000096]},"properties":{"NAME":"T6358L","STATE":"","TYPE":"SUBSTATION","STATUS":"IN SERVICE","MAX_VOLT":null,"CITY":"","COUNTY":"","ZIP":"","LINES":null,"SOURCE":"OpenStreetMap"}},{"type":"Feature","geometry":{"type":"Point","coordinates":[-122.3553622,40.5716018]},"properties":{"NAME":"T7848L","STATE":"","TYPE":"SUBSTATION","STATUS":"IN SERVICE","MAX_VOLT":null,"CITY":"","COUNTY":"","ZIP":"","LINES":null,"SOURCE":"OpenStreetMap"}},{"type":"Feature","geometry":{"type":"Point","coordinates":[-122.3449428,40.586759]},"properties":{"NAME":"T5972L","STATE":"","TYPE":"SUBSTATION","STATUS":"IN SERVICE","MAX_VOLT":null,"CITY":"","COUNTY":"","ZIP":"","LINES":null,"SOURCE":"OpenStreetMap"}},{"type":"Feature","geometry":{"type":"Point","coordinates":[-122.3824171,40.5731229]},"properties":{"NAME":"T6787L","STATE":"","TYPE":"SUBSTATION","STATUS":"IN SERVICE","MAX_VOLT":null,"CITY":"","COUNTY":"","ZIP":"","LINES":null,"SOURCE":"OpenStreetMap"}},{"type":"Feature","geometry":{"type":"Point","coordinates":[-122.379476,40.5736689]},"properties":{"NAME":"220","STATE":"","TYPE":"SUBSTATION","STATUS":"IN SERVICE","MAX_VOLT":null,"CITY":"","COUNTY":"","ZIP":"","LINES":null,"SOURCE":"OpenStreetMap"}},{"type":"Feature","geometry":{"type":"Point","coordinates":[-122.401259,40.5860761]},"properties":{"NAME":"T3153L","STATE":"","TYPE":"SUBSTATION","STATUS":"IN SERVICE","MAX_VOLT":225,"CITY":"","COUNTY":"","ZIP":"","LINES":null,"SOURCE":"OpenStreetMap"}},{"type":"Feature","geometry":{"type":"Point","coordinates":[-122.315276,40.5364831]},"properties":{"NAME":"T8693L","STATE":"","TYPE":"SUBSTATION","STATUS":"IN SERVICE","MAX_VOLT":75,"CITY":"","COUNTY":"","ZIP":"","LINES":null,"SOURCE":"OpenStreetMap"}},{"type":"Feature","geometry":{"type":"Point","coordinates":[-122.317775,40.5397482]},"properties":{"NAME":"T8842L","STATE":"","TYPE":"SUBSTATION","STATUS":"IN SERVICE","MAX_VOLT":75,"CITY":"","COUNTY":"","ZIP":"","LINES":null,"SOURCE":"OpenStreetMap"}},{"type":"Feature","geometry":{"type":"Point","coordinates":[-122.31727,40.5404639]},"properties":{"NAME":"T1808L","STATE":"","TYPE":"SUBSTATION","STATUS":"IN SERVICE","MAX_VOLT":50,"CITY":"","COUNTY":"","ZIP":"","LINES":null,"SOURCE":"OpenStreetMap"}},{"type":"Feature","geometry":{"type":"Point","coordinates":[-122.318073,40.5428993]},"properties":{"NAME":"T9059L","STATE":"","TYPE":"SUBSTATION","STATUS":"IN SERVICE","MAX_VOLT":100,"CITY":"","COUNTY":"","ZIP":"","LINES":null,"SOURCE":"OpenStreetMap"}},{"type":"Feature","geometry":{"type":"Point","coordinates":[-122.315458,40.5443276]},"properties":{"NAME":"T8873L","STATE":"","TYPE":"SUBSTATION","STATUS":"IN SERVICE","MAX_VOLT":100,"CITY":"","COUNTY":"","ZIP":"","LINES":null,"SOURCE":"OpenStreetMap"}},{"type":"Feature","geometry":{"type":"Point","coordinates":[-122.402229,40.5864296]},"properties":{"NAME":"T7603L","STATE":"","TYPE":"SUBSTATION","STATUS":"IN SERVICE","MAX_VOLT":null,"CITY":"","COUNTY":"","ZIP":"","LINES":null,"SOURCE":"OpenStreetMap"}},{"type":"Feature","geometry":{"type":"Point","coordinates":[-122.4158837,40.5777875]},"properties":{"NAME":"T2449","STATE":"","TYPE":"SUBSTATION","STATUS":"IN SERVICE","MAX_VOLT":25,"CITY":"","COUNTY":"","ZIP":"","LINES":null,"SOURCE":"OpenStreetMap"}},{"type":"Feature","geometry":{"type":"Point","coordinates":[-122.4171128,40.5775644]},"properties":{"NAME":"T7336L","STATE":"","TYPE":"SUBSTATION","STATUS":"IN SERVICE","MAX_VOLT":null,"CITY":"","COUNTY":"","ZIP":"","LINES":null,"SOURCE":"OpenStreetMap"}},{"type":"Feature","geometry":{"type":"Point","coordinates":[-122.4155696,40.5803936]},"properties":{"NAME":"T8854L","STATE":"","TYPE":"SUBSTATION","STATUS":"IN SERVICE","MAX_VOLT":50,"CITY":"","COUNTY":"","ZIP":"","LINES":null,"SOURCE":"OpenStreetMap"}},{"type":"Feature","geometry":{"type":"Point","coordinates":[-122.4143895,40.5829859]},"properties":{"NAME":"T2711L","STATE":"","TYPE":"SUBSTATION","STATUS":"IN SERVICE","MAX_VOLT":50,"CITY":"","COUNTY":"","ZIP":"","LINES":null,"SOURCE":"OpenStreetMap"}},{"type":"Feature","geometry":{"type":"Point","coordinates":[-122.392717,40.5818485]},"properties":{"NAME":"T8528L","STATE":"","TYPE":"SUBSTATION","STATUS":"IN SERVICE","MAX_VOLT":null,"CITY":"","COUNTY":"","ZIP":"","LINES":null,"SOURCE":"OpenStreetMap"}},{"type":"Feature","geometry":{"type":"Point","coordinates":[-122.4111216,40.5947624]},"properties":{"NAME":"T2436L","STATE":"","TYPE":"SUBSTATION","STATUS":"IN SERVICE","MAX_VOLT":100,"CITY":"","COUNTY":"","ZIP":"","LINES":null,"SOURCE":"OpenStreetMap"}},{"type":"Feature","geometry":{"type":"Point","coordinates":[-122.3487814,40.5956644]},"properties":{"NAME":"T3784L","STATE":"","TYPE":"SUBSTATION","STATUS":"IN SERVICE","MAX_VOLT":75,"CITY":"","COUNTY":"","ZIP":"","LINES":null,"SOURCE":"OpenStreetMap"}},{"type":"Feature","geometry":{"type":"Point","coordinates":[-122.3478858,40.5931432]},"properties":{"NAME":"T4483L","STATE":"","TYPE":"SUBSTATION","STATUS":"IN SERVICE","MAX_VOLT":50,"CITY":"","COUNTY":"","ZIP":"","LINES":null,"SOURCE":"OpenStreetMap"}},{"type":"Feature","geometry":{"type":"Point","coordinates":[-122.3468159,40.5926257]},"properties":{"NAME":"T6909L","STATE":"","TYPE":"SUBSTATION","STATUS":"IN SERVICE","MAX_VOLT":50,"CITY":"","COUNTY":"","ZIP":"","LINES":null,"SOURCE":"OpenStreetMap"}},{"type":"Feature","geometry":{"type":"Point","coordinates":[-122.3459757,40.5922994]},"properties":{"NAME":"T6900L","STATE":"","TYPE":"SUBSTATION","STATUS":"IN SERVICE","MAX_VOLT":50,"CITY":"","COUNTY":"","ZIP":"","LINES":null,"SOURCE":"OpenStreetMap"}},{"type":"Feature","geometry":{"type":"Point","coordinates":[-122.3452693,40.5918447]},"properties":{"NAME":"T6897L","STATE":"","TYPE":"SUBSTATION","STATUS":"IN SERVICE","MAX_VOLT":50,"CITY":"","COUNTY":"","ZIP":"","LINES":null,"SOURCE":"OpenStreetMap"}},{"type":"Feature","geometry":{"type":"Point","coordinates":[-122.325378,40.5569298]},"properties":{"NAME":"T5614L","STATE":"","TYPE":"SUBSTATION","STATUS":"IN SERVICE","MAX_VOLT":null,"CITY":"","COUNTY":"","ZIP":"","LINES":null,"SOURCE":"OpenStreetMap"}},{"type":"Feature","geometry":{"type":"Point","coordinates":[-122.325768,40.557385]},"properties":{"NAME":"T5432L","STATE":"","TYPE":"SUBSTATION","STATUS":"IN SERVICE","MAX_VOLT":50,"CITY":"","COUNTY":"","ZIP":"","LINES":null,"SOURCE":"OpenStreetMap"}},{"type":"Feature","geometry":{"type":"Point","coordinates":[-122.323934,40.5582569]},"properties":{"NAME":"T5245L","STATE":"","TYPE":"SUBSTATION","STATUS":"IN SERVICE","MAX_VOLT":50,"CITY":"","COUNTY":"","ZIP":"","LINES":null,"SOURCE":"OpenStreetMap"}},{"type":"Feature","geometry":{"type":"Point","coordinates":[-122.326693,40.557192]},"properties":{"NAME":"T9463L","STATE":"","TYPE":"SUBSTATION","STATUS":"IN SERVICE","MAX_VOLT":50,"CITY":"","COUNTY":"","ZIP":"","LINES":null,"SOURCE":"OpenStreetMap"}},{"type":"Feature","geometry":{"type":"Point","coordinates":[-122.328775,40.5573199]},"properties":{"NAME":"T9295L","STATE":"","TYPE":"SUBSTATION","STATUS":"IN SERVICE","MAX_VOLT":100,"CITY":"","COUNTY":"","ZIP":"","LINES":null,"SOURCE":"OpenStreetMap"}},{"type":"Feature","geometry":{"type":"Point","coordinates":[-122.332616,40.557291]},"properties":{"NAME":"T9438L","STATE":"","TYPE":"SUBSTATION","STATUS":"IN SERVICE","MAX_VOLT":75,"CITY":"","COUNTY":"","ZIP":"","LINES":null,"SOURCE":"OpenStreetMap"}},{"type":"Feature","geometry":{"type":"Point","coordinates":[-122.334832,40.5537061]},"properties":{"NAME":"T9611L","STATE":"","TYPE":"SUBSTATION","STATUS":"IN SERVICE","MAX_VOLT":75,"CITY":"","COUNTY":"","ZIP":"","LINES":null,"SOURCE":"OpenStreetMap"}},{"type":"Feature","geometry":{"type":"Point","coordinates":[-121.0189791,38.9139964]},"properties":{"NAME":"Mountain Quarries Substation","STATE":"","TYPE":"SUBSTATION","STATUS":"IN SERVICE","MAX_VOLT":null,"CITY":"","COUNTY":"","ZIP":"","LINES":null,"SOURCE":"OpenStreetMap"}},{"type":"Feature","geometry":{"type":"Point","coordinates":[-122.324996,40.5573892]},"properties":{"NAME":"T5791L","STATE":"","TYPE":"SUBSTATION","STATUS":"IN SERVICE","MAX_VOLT":null,"CITY":"","COUNTY":"","ZIP":"","LINES":null,"SOURCE":"OpenStreetMap"}},{"type":"Feature","geometry":{"type":"Point","coordinates":[-122.324993,40.5583704]},"properties":{"NAME":"T5616L","STATE":"","TYPE":"SUBSTATION","STATUS":"IN SERVICE","MAX_VOLT":38,"CITY":"","COUNTY":"","ZIP":"","LINES":null,"SOURCE":"OpenStreetMap"}},{"type":"Feature","geometry":{"type":"Point","coordinates":[-122.332632,40.5584394]},"properties":{"NAME":"T9664L","STATE":"","TYPE":"SUBSTATION","STATUS":"IN SERVICE","MAX_VOLT":38,"CITY":"","COUNTY":"","ZIP":"","LINES":null,"SOURCE":"OpenStreetMap"}},{"type":"Feature","geometry":{"type":"Point","coordinates":[-122.3559683,40.5789228]},"properties":{"NAME":"T7857L","STATE":"","TYPE":"SUBSTATION","STATUS":"IN SERVICE","MAX_VOLT":null,"CITY":"","COUNTY":"","ZIP":"","LINES":null,"SOURCE":"OpenStreetMap"}},{"type":"Feature","geometry":{"type":"Point","coordinates":[-122.3524962,40.5894798]},"properties":{"NAME":"T10134L","STATE":"","TYPE":"SUBSTATION","STATUS":"IN SERVICE","MAX_VOLT":null,"CITY":"","COUNTY":"","ZIP":"","LINES":null,"SOURCE":"OpenStreetMap"}},{"type":"Feature","geometry":{"type":"Point","coordinates":[-122.354259,40.5856467]},"properties":{"NAME":"T8323L","STATE":"","TYPE":"SUBSTATION","STATUS":"IN SERVICE","MAX_VOLT":225,"CITY":"","COUNTY":"","ZIP":"","LINES":null,"SOURCE":"OpenStreetMap"}},{"type":"Feature","geometry":{"type":"Point","coordinates":[-122.3520886,40.5755598]},"properties":{"NAME":"T7878L","STATE":"","TYPE":"SUBSTATION","STATUS":"IN SERVICE","MAX_VOLT":25,"CITY":"","COUNTY":"","ZIP":"","LINES":null,"SOURCE":"OpenStreetMap"}},{"type":"Feature","geometry":{"type":"Point","coordinates":[-122.3519964,40.5757522]},"properties":{"NAME":"T7059L","STATE":"","TYPE":"SUBSTATION","STATUS":"IN SERVICE","MAX_VOLT":null,"CITY":"","COUNTY":"","ZIP":"","LINES":null,"SOURCE":"OpenStreetMap"}},{"type":"Feature","geometry":{"type":"Point","coordinates":[-122.3576716,40.58025]},"properties":{"NAME":"T3033L","STATE":"","TYPE":"SUBSTATION","STATUS":"IN SERVICE","MAX_VOLT":150,"CITY":"","COUNTY":"","ZIP":"","LINES":null,"SOURCE":"OpenStreetMap"}},{"type":"Feature","geometry":{"type":"Point","coordinates":[-122.3451691,40.5929027]},"properties":{"NAME":"T6281L","STATE":"","TYPE":"SUBSTATION","STATUS":"IN SERVICE","MAX_VOLT":null,"CITY":"","COUNTY":"","ZIP":"","LINES":null,"SOURCE":"OpenStreetMap"}},{"type":"Feature","geometry":{"type":"Point","coordinates":[-122.3429088,40.5926564]},"properties":{"NAME":"T7320L","STATE":"","TYPE":"SUBSTATION","STATUS":"IN SERVICE","MAX_VOLT":38,"CITY":"","COUNTY":"","ZIP":"","LINES":null,"SOURCE":"OpenStreetMap"}},{"type":"Feature","geometry":{"type":"Point","coordinates":[-122.3425248,40.5920662]},"properties":{"NAME":"T7321L","STATE":"","TYPE":"SUBSTATION","STATUS":"IN SERVICE","MAX_VOLT":38,"CITY":"","COUNTY":"","ZIP":"","LINES":null,"SOURCE":"OpenStreetMap"}},{"type":"Feature","geometry":{"type":"Point","coordinates":[-122.3462858,40.5931716]},"properties":{"NAME":"T6276L","STATE":"","TYPE":"SUBSTATION","STATUS":"IN SERVICE","MAX_VOLT":50,"CITY":"","COUNTY":"","ZIP":"","LINES":null,"SOURCE":"OpenStreetMap"}},{"type":"Feature","geometry":{"type":"Point","coordinates":[-122.3471421,40.5936265]},"properties":{"NAME":"T6337L","STATE":"","TYPE":"SUBSTATION","STATUS":"IN SERVICE","MAX_VOLT":50,"CITY":"","COUNTY":"","ZIP":"","LINES":null,"SOURCE":"OpenStreetMap"}},{"type":"Feature","geometry":{"type":"Point","coordinates":[-122.3478453,40.5941377]},"properties":{"NAME":"T6336L","STATE":"","TYPE":"SUBSTATION","STATUS":"IN SERVICE","MAX_VOLT":50,"CITY":"","COUNTY":"","ZIP":"","LINES":null,"SOURCE":"OpenStreetMap"}},{"type":"Feature","geometry":{"type":"Point","coordinates":[-122.3488041,40.5939351]},"properties":{"NAME":"T3754L","STATE":"","TYPE":"SUBSTATION","STATUS":"IN SERVICE","MAX_VOLT":50,"CITY":"","COUNTY":"","ZIP":"","LINES":null,"SOURCE":"OpenStreetMap"}},{"type":"Feature","geometry":{"type":"Point","coordinates":[-122.3488601,40.5945644]},"properties":{"NAME":"T3104L","STATE":"","TYPE":"SUBSTATION","STATUS":"IN SERVICE","MAX_VOLT":25,"CITY":"","COUNTY":"","ZIP":"","LINES":null,"SOURCE":"OpenStreetMap"}},{"type":"Feature","geometry":{"type":"Point","coordinates":[-122.3476816,40.5953119]},"properties":{"NAME":"T6387L","STATE":"","TYPE":"SUBSTATION","STATUS":"IN SERVICE","MAX_VOLT":null,"CITY":"","COUNTY":"","ZIP":"","LINES":null,"SOURCE":"OpenStreetMap"}},{"type":"Feature","geometry":{"type":"Point","coordinates":[-122.3457491,40.5938949]},"properties":{"NAME":"T6341L","STATE":"","TYPE":"SUBSTATION","STATUS":"IN SERVICE","MAX_VOLT":null,"CITY":"","COUNTY":"","ZIP":"","LINES":null,"SOURCE":"OpenStreetMap"}},{"type":"Feature","geometry":{"type":"Point","coordinates":[-122.3506649,40.571391]},"properties":{"NAME":"T5842L","STATE":"","TYPE":"SUBSTATION","STATUS":"IN SERVICE","MAX_VOLT":150,"CITY":"","COUNTY":"","ZIP":"","LINES":null,"SOURCE":"OpenStreetMap"}},{"type":"Feature","geometry":{"type":"Point","coordinates":[-122.3512096,40.5732061]},"properties":{"NAME":"T9004L","STATE":"","TYPE":"SUBSTATION","STATUS":"IN SERVICE","MAX_VOLT":500,"CITY":"","COUNTY":"","ZIP":"","LINES":null,"SOURCE":"OpenStreetMap"}},{"type":"Feature","geometry":{"type":"Point","coordinates":[-122.3512847,40.5731954]},"properties":{"NAME":"98729L","STATE":"","TYPE":"SUBSTATION","STATUS":"IN SERVICE","MAX_VOLT":500,"CITY":"","COUNTY":"","ZIP":"","LINES":null,"SOURCE":"OpenStreetMap"}},{"type":"Feature","geometry":{"type":"Point","coordinates":[-122.3497872,40.5713448]},"properties":{"NAME":"T9804L","STATE":"","TYPE":"SUBSTATION","STATUS":"IN SERVICE","MAX_VOLT":300,"CITY":"","COUNTY":"","ZIP":"","LINES":null,"SOURCE":"OpenStreetMap"}},{"type":"Feature","geometry":{"type":"Point","coordinates":[-122.3551784,40.5778873]},"properties":{"NAME":"T10156L","STATE":"","TYPE":"SUBSTATION","STATUS":"IN SERVICE","MAX_VOLT":150,"CITY":"","COUNTY":"","ZIP":"","LINES":null,"SOURCE":"OpenStreetMap"}},{"type":"Feature","geometry":{"type":"Point","coordinates":[-122.356773,40.5783305]},"properties":{"NAME":"T4396L","STATE":"","TYPE":"SUBSTATION","STATUS":"IN SERVICE","MAX_VOLT":150,"CITY":"","COUNTY":"","ZIP":"","LINES":null,"SOURCE":"OpenStreetMap"}},{"type":"Feature","geometry":{"type":"Point","coordinates":[-122.7089676,38.440261]},"properties":{"NAME":"OSM-7706614950","STATE":"","TYPE":"SUBSTATION","STATUS":"IN SERVICE","MAX_VOLT":null,"CITY":"","COUNTY":"","ZIP":"","LINES":null,"SOURCE":"OpenStreetMap"}},{"type":"Feature","geometry":{"type":"Point","coordinates":[-122.3508426,40.5972736]},"properties":{"NAME":"T3760L","STATE":"","TYPE":"SUBSTATION","STATUS":"IN SERVICE","MAX_VOLT":50,"CITY":"","COUNTY":"","ZIP":"","LINES":null,"SOURCE":"OpenStreetMap"}},{"type":"Feature","geometry":{"type":"Point","coordinates":[-122.35471,40.5928463]},"properties":{"NAME":"T9814L","STATE":"","TYPE":"SUBSTATION","STATUS":"IN SERVICE","MAX_VOLT":112,"CITY":"","COUNTY":"","ZIP":"","LINES":null,"SOURCE":"OpenStreetMap"}},{"type":"Feature","geometry":{"type":"Point","coordinates":[-122.3540644,40.5929114]},"properties":{"NAME":"T8470L","STATE":"","TYPE":"SUBSTATION","STATUS":"IN SERVICE","MAX_VOLT":null,"CITY":"","COUNTY":"","ZIP":"","LINES":null,"SOURCE":"OpenStreetMap"}},{"type":"Feature","geometry":{"type":"Point","coordinates":[-122.3522904,40.5927079]},"properties":{"NAME":"T8305L","STATE":"","TYPE":"SUBSTATION","STATUS":"IN SERVICE","MAX_VOLT":112,"CITY":"","COUNTY":"","ZIP":"","LINES":null,"SOURCE":"OpenStreetMap"}},{"type":"Feature","geometry":{"type":"Point","coordinates":[-122.3419373,40.5920747]},"properties":{"NAME":"T5617L","STATE":"","TYPE":"SUBSTATION","STATUS":"IN SERVICE","MAX_VOLT":38,"CITY":"","COUNTY":"","ZIP":"","LINES":null,"SOURCE":"OpenStreetMap"}},{"type":"Feature","geometry":{"type":"Point","coordinates":[-122.896973,49.2485211]},"properties":{"NAME":"LHZ","STATE":"","TYPE":"TRACTION","STATUS":"IN SERVICE","MAX_VOLT":12,"CITY":"","COUNTY":"","ZIP":"","LINES":null,"SOURCE":"OpenStreetMap"}},{"type":"Feature","geometry":{"type":"Point","coordinates":[-122.370667,40.5761853]},"properties":{"NAME":"T9801L","STATE":"","TYPE":"SUBSTATION","STATUS":"IN SERVICE","MAX_VOLT":150,"CITY":"","COUNTY":"","ZIP":"","LINES":null,"SOURCE":"OpenStreetMap"}},{"type":"Feature","geometry":{"type":"Point","coordinates":[-123.1135504,49.2825778]},"properties":{"NAME":"Cathedral Square Substation","STATE":"","TYPE":"DISTRIBUTION","STATUS":"IN SERVICE","MAX_VOLT":230,"CITY":"","COUNTY":"","ZIP":"","LINES":null,"SOURCE":"OpenStreetMap"}},{"type":"Feature","geometry":{"type":"Point","coordinates":[-122.36806,40.6568142]},"properties":{"NAME":"1754","STATE":"","TYPE":"YES","STATUS":"IN SERVICE","MAX_VOLT":null,"CITY":"","COUNTY":"","ZIP":"","LINES":null,"SOURCE":"OpenStreetMap"}},{"type":"Feature","geometry":{"type":"Point","coordinates":[-122.366199,40.6576253]},"properties":{"NAME":"965","STATE":"","TYPE":"YES","STATUS":"IN SERVICE","MAX_VOLT":null,"CITY":"","COUNTY":"","ZIP":"","LINES":null,"SOURCE":"OpenStreetMap"}},{"type":"Feature","geometry":{"type":"Point","coordinates":[-122.363444,40.6567326]},"properties":{"NAME":"960","STATE":"","TYPE":"YES","STATUS":"IN SERVICE","MAX_VOLT":null,"CITY":"","COUNTY":"","ZIP":"","LINES":null,"SOURCE":"OpenStreetMap"}},{"type":"Feature","geometry":{"type":"Point","coordinates":[-122.365085,40.6592338]},"properties":{"NAME":"444","STATE":"","TYPE":"YES","STATUS":"IN SERVICE","MAX_VOLT":null,"CITY":"","COUNTY":"","ZIP":"","LINES":null,"SOURCE":"OpenStreetMap"}},{"type":"Feature","geometry":{"type":"Point","coordinates":[-122.362618,40.6576631]},"properties":{"NAME":"959","STATE":"","TYPE":"YES","STATUS":"IN SERVICE","MAX_VOLT":null,"CITY":"","COUNTY":"","ZIP":"","LINES":null,"SOURCE":"OpenStreetMap"}},{"type":"Feature","geometry":{"type":"Point","coordinates":[-122.3983822,40.5852264]},"properties":{"NAME":"T7601L","STATE":"","TYPE":"SUBSTATION","STATUS":"IN SERVICE","MAX_VOLT":null,"CITY":"","COUNTY":"","ZIP":"","LINES":null,"SOURCE":"OpenStreetMap"}},{"type":"Feature","geometry":{"type":"Point","coordinates":[-122.3963882,40.5839896]},"properties":{"NAME":"T8483L","STATE":"","TYPE":"SUBSTATION","STATUS":"IN SERVICE","MAX_VOLT":25,"CITY":"","COUNTY":"","ZIP":"","LINES":null,"SOURCE":"OpenStreetMap"}},{"type":"Feature","geometry":{"type":"Point","coordinates":[-122.3983215,40.5867525]},"properties":{"NAME":"T5752L","STATE":"","TYPE":"SUBSTATION","STATUS":"IN SERVICE","MAX_VOLT":null,"CITY":"","COUNTY":"","ZIP":"","LINES":null,"SOURCE":"OpenStreetMap"}},{"type":"Feature","geometry":{"type":"Point","coordinates":[-122.3978945,40.5865151]},"properties":{"NAME":"T8524L","STATE":"","TYPE":"SUBSTATION","STATUS":"IN SERVICE","MAX_VOLT":null,"CITY":"","COUNTY":"","ZIP":"","LINES":null,"SOURCE":"OpenStreetMap"}},{"type":"Feature","geometry":{"type":"Point","coordinates":[-122.353278,40.5690363]},"properties":{"NAME":"T7836L","STATE":"","TYPE":"SUBSTATION","STATUS":"IN SERVICE","MAX_VOLT":null,"CITY":"","COUNTY":"","ZIP":"","LINES":null,"SOURCE":"OpenStreetMap"}},{"type":"Feature","geometry":{"type":"Point","coordinates":[-122.3488678,40.5859324]},"properties":{"NAME":"T11022L","STATE":"","TYPE":"SUBSTATION","STATUS":"IN SERVICE","MAX_VOLT":300,"CITY":"","COUNTY":"","ZIP":"","LINES":null,"SOURCE":"OpenStreetMap"}},{"type":"Feature","geometry":{"type":"Point","coordinates":[-122.372827,40.5737022]},"properties":{"NAME":"T8532L","STATE":"","TYPE":"SUBSTATION","STATUS":"IN SERVICE","MAX_VOLT":300,"CITY":"","COUNTY":"","ZIP":"","LINES":null,"SOURCE":"OpenStreetMap"}},{"type":"Feature","geometry":{"type":"Point","coordinates":[-122.3743085,40.5771135]},"properties":{"NAME":"T9807L","STATE":"","TYPE":"SUBSTATION","STATUS":"IN SERVICE","MAX_VOLT":500,"CITY":"","COUNTY":"","ZIP":"","LINES":null,"SOURCE":"OpenStreetMap"}},{"type":"Feature","geometry":{"type":"Point","coordinates":[-122.3124862,47.6212704]},"properties":{"NAME":"Capitol Rectifier Sub. No. 6","STATE":"","TYPE":"SUBSTATION","STATUS":"IN SERVICE","MAX_VOLT":null,"CITY":"","COUNTY":"","ZIP":"","LINES":null,"SOURCE":"OpenStreetMap"}},{"type":"Feature","geometry":{"type":"Point","coordinates":[-123.118817,49.2880586]},"properties":{"NAME":"Waterfront Substation","STATE":"","TYPE":"TRACTION","STATUS":"IN SERVICE","MAX_VOLT":null,"CITY":"","COUNTY":"","ZIP":"","LINES":null,"SOURCE":"OpenStreetMap"}},{"type":"Feature","geometry":{"type":"Point","coordinates":[-123.067828,49.2626872]},"properties":{"NAME":"Commercial Substation","STATE":"","TYPE":"TRACTION","STATUS":"IN SERVICE","MAX_VOLT":null,"CITY":"","COUNTY":"","ZIP":"","LINES":null,"SOURCE":"OpenStreetMap"}},{"type":"Feature","geometry":{"type":"Point","coordinates":[-122.2395556,37.5465735]},"properties":{"NAME":"OSM-8616725549","STATE":"","TYPE":"DISTRIBUTION","STATUS":"IN SERVICE","MAX_VOLT":null,"CITY":"","COUNTY":"","ZIP":"","LINES":null,"SOURCE":"OpenStreetMap"}},{"type":"Feature","geometry":{"type":"Point","coordinates":[-122.2406243,37.5444082]},"properties":{"NAME":"OSM-8616725553","STATE":"","TYPE":"DISTRIBUTION","STATUS":"IN SERVICE","MAX_VOLT":null,"CITY":"","COUNTY":"","ZIP":"","LINES":null,"SOURCE":"OpenStreetMap"}},{"type":"Feature","geometry":{"type":"Point","coordinates":[-122.2436985,37.5436072]},"properties":{"NAME":"OSM-8616725555","STATE":"","TYPE":"DISTRIBUTION","STATUS":"IN SERVICE","MAX_VOLT":null,"CITY":"","COUNTY":"","ZIP":"","LINES":null,"SOURCE":"OpenStreetMap"}},{"type":"Feature","geometry":{"type":"Point","coordinates":[-122.2450246,37.5449764]},"properties":{"NAME":"OSM-8616725556","STATE":"","TYPE":"DISTRIBUTION","STATUS":"IN SERVICE","MAX_VOLT":null,"CITY":"","COUNTY":"","ZIP":"","LINES":null,"SOURCE":"OpenStreetMap"}},{"type":"Feature","geometry":{"type":"Point","coordinates":[-122.2440582,37.5449978]},"properties":{"NAME":"OSM-8616725557","STATE":"","TYPE":"DISTRIBUTION","STATUS":"IN SERVICE","MAX_VOLT":null,"CITY":"","COUNTY":"","ZIP":"","LINES":null,"SOURCE":"OpenStreetMap"}},{"type":"Feature","geometry":{"type":"Point","coordinates":[-122.2453433,37.5428108]},"properties":{"NAME":"OSM-8616725560","STATE":"","TYPE":"DISTRIBUTION","STATUS":"IN SERVICE","MAX_VOLT":null,"CITY":"","COUNTY":"","ZIP":"","LINES":null,"SOURCE":"OpenStreetMap"}},{"type":"Feature","geometry":{"type":"Point","coordinates":[-122.2577481,37.5311139]},"properties":{"NAME":"OSM-8617955560","STATE":"","TYPE":"MINOR_DISTRIBUTION","STATUS":"IN SERVICE","MAX_VOLT":null,"CITY":"","COUNTY":"","ZIP":"","LINES":null,"SOURCE":"OpenStreetMap"}},{"type":"Feature","geometry":{"type":"Point","coordinates":[-122.2571786,37.5310442]},"properties":{"NAME":"OSM-8617955561","STATE":"","TYPE":"MINOR_DISTRIBUTION","STATUS":"IN SERVICE","MAX_VOLT":null,"CITY":"","COUNTY":"","ZIP":"","LINES":null,"SOURCE":"OpenStreetMap"}},{"type":"Feature","geometry":{"type":"Point","coordinates":[-122.2575906,37.5313879]},"properties":{"NAME":"OSM-8619299346","STATE":"","TYPE":"DISTRIBUTION","STATUS":"IN SERVICE","MAX_VOLT":null,"CITY":"","COUNTY":"","ZIP":"","LINES":null,"SOURCE":"OpenStreetMap"}},{"type":"Feature","geometry":{"type":"Point","coordinates":[-122.2438698,37.5439971]},"properties":{"NAME":"OSM-8622682227","STATE":"","TYPE":"SUBSTATION","STATUS":"IN SERVICE","MAX_VOLT":null,"CITY":"","COUNTY":"","ZIP":"","LINES":null,"SOURCE":"OpenStreetMap"}},{"type":"Feature","geometry":{"type":"Point","coordinates":[-122.253183,37.5359951]},"properties":{"NAME":"OSM-8633692826","STATE":"","TYPE":"DISTRIBUTION","STATUS":"IN SERVICE","MAX_VOLT":null,"CITY":"","COUNTY":"","ZIP":"","LINES":null,"SOURCE":"OpenStreetMap"}},{"type":"Feature","geometry":{"type":"Point","coordinates":[-122.2445364,37.5441413]},"properties":{"NAME":"OSM-8636616443","STATE":"","TYPE":"DISTRIBUTION","STATUS":"IN SERVICE","MAX_VOLT":null,"CITY":"","COUNTY":"","ZIP":"","LINES":null,"SOURCE":"OpenStreetMap"}},{"type":"Feature","geometry":{"type":"Point","coordinates":[-122.237717,37.5413593]},"properties":{"NAME":"OSM-8636637762","STATE":"","TYPE":"DISTRIBUTION","STATUS":"IN SERVICE","MAX_VOLT":null,"CITY":"","COUNTY":"","ZIP":"","LINES":null,"SOURCE":"OpenStreetMap"}},{"type":"Feature","geometry":{"type":"Point","coordinates":[-122.2361413,37.5363529]},"properties":{"NAME":"OSM-8636676770","STATE":"","TYPE":"DISTRIBUTION","STATUS":"IN SERVICE","MAX_VOLT":null,"CITY":"","COUNTY":"","ZIP":"","LINES":null,"SOURCE":"OpenStreetMap"}},{"type":"Feature","geometry":{"type":"Point","coordinates":[-122.2596294,37.5286166]},"properties":{"NAME":"OSM-8639220347","STATE":"","TYPE":"DISTRIBUTION","STATUS":"IN SERVICE","MAX_VOLT":null,"CITY":"","COUNTY":"","ZIP":"","LINES":null,"SOURCE":"OpenStreetMap"}},{"type":"Feature","geometry":{"type":"Point","coordinates":[-122.2425278,37.5334083]},"properties":{"NAME":"OSM-8639220404","STATE":"","TYPE":"DISTRIBUTION","STATUS":"IN SERVICE","MAX_VOLT":null,"CITY":"","COUNTY":"","ZIP":"","LINES":null,"SOURCE":"OpenStreetMap"}},{"type":"Feature","geometry":{"type":"Point","coordinates":[-122.2506177,37.5264513]},"properties":{"NAME":"OSM-8639220413","STATE":"","TYPE":"DISTRIBUTION","STATUS":"IN SERVICE","MAX_VOLT":null,"CITY":"","COUNTY":"","ZIP":"","LINES":null,"SOURCE":"OpenStreetMap"}},{"type":"Feature","geometry":{"type":"Point","coordinates":[-122.2525528,37.5278296]},"properties":{"NAME":"OSM-8639220416","STATE":"","TYPE":"DISTRIBUTION","STATUS":"IN SERVICE","MAX_VOLT":null,"CITY":"","COUNTY":"","ZIP":"","LINES":null,"SOURCE":"OpenStreetMap"}},{"type":"Feature","geometry":{"type":"Point","coordinates":[-122.2538898,37.5287559]},"properties":{"NAME":"OSM-8639242720","STATE":"","TYPE":"DISTRIBUTION","STATUS":"IN SERVICE","MAX_VOLT":null,"CITY":"","COUNTY":"","ZIP":"","LINES":null,"SOURCE":"OpenStreetMap"}},{"type":"Feature","geometry":{"type":"Point","coordinates":[-122.2518722,37.525331]},"properties":{"NAME":"OSM-8639242723","STATE":"","TYPE":"DISTRIBUTION","STATUS":"IN SERVICE","MAX_VOLT":null,"CITY":"","COUNTY":"","ZIP":"","LINES":null,"SOURCE":"OpenStreetMap"}},{"type":"Feature","geometry":{"type":"Point","coordinates":[-122.2526843,37.5246699]},"properties":{"NAME":"OSM-8639242725","STATE":"","TYPE":"DISTRIBUTION","STATUS":"IN SERVICE","MAX_VOLT":null,"CITY":"","COUNTY":"","ZIP":"","LINES":null,"SOURCE":"OpenStreetMap"}},{"type":"Feature","geometry":{"type":"Point","coordinates":[-122.2586034,37.5218323]},"properties":{"NAME":"OSM-8663833304","STATE":"","TYPE":"SUBSTATION","STATUS":"IN SERVICE","MAX_VOLT":null,"CITY":"","COUNTY":"","ZIP":"","LINES":null,"SOURCE":"OpenStreetMap"}},{"type":"Feature","geometry":{"type":"Point","coordinates":[-122.2530267,37.5211684]},"properties":{"NAME":"OSM-8665326300","STATE":"","TYPE":"DISTRIBUTION","STATUS":"IN SERVICE","MAX_VOLT":null,"CITY":"","COUNTY":"","ZIP":"","LINES":null,"SOURCE":"OpenStreetMap"}},{"type":"Feature","geometry":{"type":"Point","coordinates":[-122.2557198,37.5199691]},"properties":{"NAME":"OSM-8665420823","STATE":"","TYPE":"SUBSTATION","STATUS":"IN SERVICE","MAX_VOLT":null,"CITY":"","COUNTY":"","ZIP":"","LINES":null,"SOURCE":"OpenStreetMap"}},{"type":"Feature","geometry":{"type":"Point","coordinates":[-117.22372,32.8711785]},"properties":{"NAME":"OSM-8692039105","STATE":"","TYPE":"MINOR_DISTRIBUTION","STATUS":"IN SERVICE","MAX_VOLT":null,"CITY":"","COUNTY":"","ZIP":"","LINES":null,"SOURCE":"OpenStreetMap"}},{"type":"Feature","geometry":{"type":"Point","coordinates":[-117.223679,32.8711619]},"properties":{"NAME":"OSM-8692039106","STATE":"","TYPE":"MINOR_DISTRIBUTION","STATUS":"IN SERVICE","MAX_VOLT":null,"CITY":"","COUNTY":"","ZIP":"","LINES":null,"SOURCE":"OpenStreetMap"}},{"type":"Feature","geometry":{"type":"Point","coordinates":[-122.3525162,40.5899356]},"properties":{"NAME":"T10161L","STATE":"","TYPE":"YES","STATUS":"IN SERVICE","MAX_VOLT":null,"CITY":"","COUNTY":"","ZIP":"","LINES":null,"SOURCE":"OpenStreetMap"}},{"type":"Feature","geometry":{"type":"Point","coordinates":[-122.3519136,40.5894196]},"properties":{"NAME":"T7629L","STATE":"","TYPE":"YES","STATUS":"IN SERVICE","MAX_VOLT":null,"CITY":"","COUNTY":"","ZIP":"","LINES":null,"SOURCE":"OpenStreetMap"}},{"type":"Feature","geometry":{"type":"Point","coordinates":[-122.3564008,40.5985688]},"properties":{"NAME":"T6296L","STATE":"","TYPE":"SUBSTATION","STATUS":"IN SERVICE","MAX_VOLT":75,"CITY":"","COUNTY":"","ZIP":"","LINES":null,"SOURCE":"OpenStreetMap"}},{"type":"Feature","geometry":{"type":"Point","coordinates":[-122.3869722,40.5739553]},"properties":{"NAME":"T9665L","STATE":"","TYPE":"SUBSTATION","STATUS":"IN SERVICE","MAX_VOLT":100,"CITY":"","COUNTY":"","ZIP":"","LINES":null,"SOURCE":"OpenStreetMap"}},{"type":"Feature","geometry":{"type":"Point","coordinates":[-122.3586175,40.5912097]},"properties":{"NAME":"T11017","STATE":"","TYPE":"SUBSTATION","STATUS":"IN SERVICE","MAX_VOLT":112,"CITY":"","COUNTY":"","ZIP":"","LINES":null,"SOURCE":"OpenStreetMap"}},{"type":"Feature","geometry":{"type":"Point","coordinates":[-122.365166,40.6560421]},"properties":{"NAME":"963","STATE":"","TYPE":"YES","STATUS":"IN SERVICE","MAX_VOLT":null,"CITY":"","COUNTY":"","ZIP":"","LINES":null,"SOURCE":"OpenStreetMap"}},{"type":"Feature","geometry":{"type":"Point","coordinates":[-122.366264,40.6557627]},"properties":{"NAME":"964","STATE":"","TYPE":"YES","STATUS":"IN SERVICE","MAX_VOLT":null,"CITY":"","COUNTY":"","ZIP":"","LINES":null,"SOURCE":"OpenStreetMap"}},{"type":"Feature","geometry":{"type":"Point","coordinates":[-122.366753,40.6564449]},"properties":{"NAME":"1942","STATE":"","TYPE":"YES","STATUS":"IN SERVICE","MAX_VOLT":null,"CITY":"","COUNTY":"","ZIP":"","LINES":null,"SOURCE":"OpenStreetMap"}},{"type":"Feature","geometry":{"type":"Point","coordinates":[-122.366729,40.657293]},"properties":{"NAME":"1704","STATE":"","TYPE":"YES","STATUS":"IN SERVICE","MAX_VOLT":null,"CITY":"","COUNTY":"","ZIP":"","LINES":null,"SOURCE":"OpenStreetMap"}},{"type":"Feature","geometry":{"type":"Point","coordinates":[-122.367269,40.6602779]},"properties":{"NAME":"2405","STATE":"","TYPE":"SUBSTATION","STATUS":"IN SERVICE","MAX_VOLT":null,"CITY":"","COUNTY":"","ZIP":"","LINES":null,"SOURCE":"OpenStreetMap"}},{"type":"Feature","geometry":{"type":"Point","coordinates":[-122.366336,40.6585088]},"properties":{"NAME":"1759","STATE":"","TYPE":"SUBSTATION","STATUS":"IN SERVICE","MAX_VOLT":null,"CITY":"","COUNTY":"","ZIP":"","LINES":null,"SOURCE":"OpenStreetMap"}},{"type":"Feature","geometry":{"type":"Point","coordinates":[-122.3593965,40.6647522]},"properties":{"NAME":"934","STATE":"","TYPE":"SUBSTATION","STATUS":"IN SERVICE","MAX_VOLT":null,"CITY":"","COUNTY":"","ZIP":"","LINES":null,"SOURCE":"OpenStreetMap"}},{"type":"Feature","geometry":{"type":"Point","coordinates":[-122.3616756,40.6643365]},"properties":{"NAME":"2024","STATE":"","TYPE":"SUBSTATION","STATUS":"IN SERVICE","MAX_VOLT":null,"CITY":"","COUNTY":"","ZIP":"","LINES":null,"SOURCE":"OpenStreetMap"}},{"type":"Feature","geometry":{"type":"Point","coordinates":[-122.4062271,40.626268]},"properties":{"NAME":"T11015L","STATE":"","TYPE":"SUBSTATION","STATUS":"IN SERVICE","MAX_VOLT":null,"CITY":"","COUNTY":"","ZIP":"","LINES":null,"SOURCE":"OpenStreetMap"}},{"type":"Feature","geometry":{"type":"Point","coordinates":[-122.3835128,40.5725104]},"properties":{"NAME":"4109","STATE":"","TYPE":"SUBSTATION","STATUS":"IN SERVICE","MAX_VOLT":null,"CITY":"","COUNTY":"","ZIP":"","LINES":null,"SOURCE":"OpenStreetMap"}},{"type":"Feature","geometry":{"type":"Point","coordinates":[-122.3805917,40.5750062]},"properties":{"NAME":"T10204L","STATE":"","TYPE":"SUBSTATION","STATUS":"IN SERVICE","MAX_VOLT":150,"CITY":"","COUNTY":"","ZIP":"","LINES":null,"SOURCE":"OpenStreetMap"}},{"type":"Feature","geometry":{"type":"Point","coordinates":[-122.3801784,40.5749083]},"properties":{"NAME":"T9926L","STATE":"","TYPE":"SUBSTATION","STATUS":"IN SERVICE","MAX_VOLT":500,"CITY":"","COUNTY":"","ZIP":"","LINES":null,"SOURCE":"OpenStreetMap"}},{"type":"Feature","geometry":{"type":"Point","coordinates":[-122.3809191,40.5742893]},"properties":{"NAME":"T9213L","STATE":"","TYPE":"SUBSTATION","STATUS":"IN SERVICE","MAX_VOLT":50,"CITY":"","COUNTY":"","ZIP":"","LINES":null,"SOURCE":"OpenStreetMap"}},{"type":"Feature","geometry":{"type":"Point","coordinates":[-122.3816403,40.5744984]},"properties":{"NAME":"OSM-8826227047","STATE":"","TYPE":"SUBSTATION","STATUS":"IN SERVICE","MAX_VOLT":null,"CITY":"","COUNTY":"","ZIP":"","LINES":null,"SOURCE":"OpenStreetMap"}},{"type":"Feature","geometry":{"type":"Point","coordinates":[-122.379748,40.576249]},"properties":{"NAME":"T8310L","STATE":"","TYPE":"SUBSTATION","STATUS":"IN SERVICE","MAX_VOLT":225,"CITY":"","COUNTY":"","ZIP":"","LINES":null,"SOURCE":"OpenStreetMap"}},{"type":"Feature","geometry":{"type":"Point","coordinates":[-122.385785,40.5764464]},"properties":{"NAME":"OSM-8826274907","STATE":"","TYPE":"SUBSTATION","STATUS":"IN SERVICE","MAX_VOLT":null,"CITY":"","COUNTY":"","ZIP":"","LINES":null,"SOURCE":"OpenStreetMap"}},{"type":"Feature","geometry":{"type":"Point","coordinates":[-122.3846422,40.5760608]},"properties":{"NAME":"OSM-8826274910","STATE":"","TYPE":"SUBSTATION","STATUS":"IN SERVICE","MAX_VOLT":null,"CITY":"","COUNTY":"","ZIP":"","LINES":null,"SOURCE":"OpenStreetMap"}},{"type":"Feature","geometry":{"type":"Point","coordinates":[-122.3835021,40.5759654]},"properties":{"NAME":"OSM-8826274911","STATE":"","TYPE":"SUBSTATION","STATUS":"IN SERVICE","MAX_VOLT":null,"CITY":"","COUNTY":"","ZIP":"","LINES":null,"SOURCE":"OpenStreetMap"}},{"type":"Feature","geometry":{"type":"Point","coordinates":[-122.384972,40.5997032]},"properties":{"NAME":"T8821L","STATE":"","TYPE":"SUBSTATION","STATUS":"IN SERVICE","MAX_VOLT":250,"CITY":"","COUNTY":"","ZIP":"","LINES":null,"SOURCE":"OpenStreetMap"}},{"type":"Feature","geometry":{"type":"Point","coordinates":[-122.4012564,40.5948964]},"properties":{"NAME":"T7874L","STATE":"","TYPE":"SUBSTATION","STATUS":"IN SERVICE","MAX_VOLT":null,"CITY":"","COUNTY":"","ZIP":"","LINES":null,"SOURCE":"OpenStreetMap"}},{"type":"Feature","geometry":{"type":"Point","coordinates":[-122.3577369,40.5716387]},"properties":{"NAME":"T9100L","STATE":"","TYPE":"SUBSTATION","STATUS":"IN SERVICE","MAX_VOLT":150,"CITY":"","COUNTY":"","ZIP":"","LINES":null,"SOURCE":"OpenStreetMap"}},{"type":"Feature","geometry":{"type":"Point","coordinates":[-122.3566276,40.5777889]},"properties":{"NAME":"T2214L","STATE":"","TYPE":"SUBSTATION","STATUS":"IN SERVICE","MAX_VOLT":null,"CITY":"","COUNTY":"","ZIP":"","LINES":null,"SOURCE":"OpenStreetMap"}},{"type":"Feature","geometry":{"type":"Point","coordinates":[-122.3545952,40.5825394]},"properties":{"NAME":"T8817L","STATE":"","TYPE":"SUBSTATION","STATUS":"IN SERVICE","MAX_VOLT":null,"CITY":"","COUNTY":"","ZIP":"","LINES":null,"SOURCE":"OpenStreetMap"}},{"type":"Feature","geometry":{"type":"Point","coordinates":[-122.3545963,40.5825633]},"properties":{"NAME":"T7258L","STATE":"","TYPE":"SUBSTATION","STATUS":"IN SERVICE","MAX_VOLT":null,"CITY":"","COUNTY":"","ZIP":"","LINES":null,"SOURCE":"OpenStreetMap"}},{"type":"Feature","geometry":{"type":"Point","coordinates":[-122.3543225,40.5780023]},"properties":{"NAME":"T7061L","STATE":"","TYPE":"SUBSTATION","STATUS":"IN SERVICE","MAX_VOLT":75,"CITY":"","COUNTY":"","ZIP":"","LINES":null,"SOURCE":"OpenStreetMap"}},{"type":"Feature","geometry":{"type":"Point","coordinates":[-122.3546411,40.5783122]},"properties":{"NAME":"T2819L","STATE":"","TYPE":"SUBSTATION","STATUS":"IN SERVICE","MAX_VOLT":null,"CITY":"","COUNTY":"","ZIP":"","LINES":null,"SOURCE":"OpenStreetMap"}},{"type":"Feature","geometry":{"type":"Point","coordinates":[-122.3571258,40.579731]},"properties":{"NAME":"OSM-8848120466","STATE":"","TYPE":"SUBSTATION","STATUS":"IN SERVICE","MAX_VOLT":null,"CITY":"","COUNTY":"","ZIP":"","LINES":null,"SOURCE":"OpenStreetMap"}},{"type":"Feature","geometry":{"type":"Point","coordinates":[-122.368609,40.5709896]},"properties":{"NAME":"T5219L","STATE":"","TYPE":"SUBSTATION","STATUS":"IN SERVICE","MAX_VOLT":null,"CITY":"","COUNTY":"","ZIP":"","LINES":null,"SOURCE":"OpenStreetMap"}},{"type":"Feature","geometry":{"type":"Point","coordinates":[-122.3718599,40.5741747]},"properties":{"NAME":"T6461L","STATE":"","TYPE":"SUBSTATION","STATUS":"IN SERVICE","MAX_VOLT":null,"CITY":"","COUNTY":"","ZIP":"","LINES":null,"SOURCE":"OpenStreetMap"}},{"type":"Feature","geometry":{"type":"Point","coordinates":[-122.3729461,40.574391]},"properties":{"NAME":"T6461L","STATE":"","TYPE":"SUBSTATION","STATUS":"IN SERVICE","MAX_VOLT":150,"CITY":"","COUNTY":"","ZIP":"","LINES":null,"SOURCE":"OpenStreetMap"}},{"type":"Feature","geometry":{"type":"Point","coordinates":[-122.3783,40.5733534]},"properties":{"NAME":"T9219L","STATE":"","TYPE":"SUBSTATION","STATUS":"IN SERVICE","MAX_VOLT":50,"CITY":"","COUNTY":"","ZIP":"","LINES":null,"SOURCE":"OpenStreetMap"}},{"type":"Feature","geometry":{"type":"Point","coordinates":[-122.3768384,40.5753856]},"properties":{"NAME":"OSM-8848120475","STATE":"","TYPE":"SUBSTATION","STATUS":"IN SERVICE","MAX_VOLT":null,"CITY":"","COUNTY":"","ZIP":"","LINES":null,"SOURCE":"OpenStreetMap"}},{"type":"Feature","geometry":{"type":"Point","coordinates":[-122.3861254,40.6000282]},"properties":{"NAME":"OSM-8848120491","STATE":"","TYPE":"SUBSTATION","STATUS":"IN SERVICE","MAX_VOLT":null,"CITY":"","COUNTY":"","ZIP":"","LINES":null,"SOURCE":"OpenStreetMap"}},{"type":"Feature","geometry":{"type":"Point","coordinates":[-122.3781068,40.5741164]},"properties":{"NAME":"T10760L R","STATE":"","TYPE":"SUBSTATION","STATUS":"IN SERVICE","MAX_VOLT":112,"CITY":"","COUNTY":"","ZIP":"","LINES":null,"SOURCE":"OpenStreetMap"}},{"type":"Feature","geometry":{"type":"Point","coordinates":[-122.3868417,40.573082]},"properties":{"NAME":"T5397L","STATE":"","TYPE":"SUBSTATION","STATUS":"IN SERVICE","MAX_VOLT":null,"CITY":"","COUNTY":"","ZIP":"","LINES":null,"SOURCE":"OpenStreetMap"}},{"type":"Feature","geometry":{"type":"Point","coordinates":[-122.3548637,40.5761326]},"properties":{"NAME":"T7864L","STATE":"","TYPE":"SUBSTATION","STATUS":"IN SERVICE","MAX_VOLT":300,"CITY":"","COUNTY":"","ZIP":"","LINES":null,"SOURCE":"OpenStreetMap"}},{"type":"Feature","geometry":{"type":"Point","coordinates":[-122.3457709,40.5886426]},"properties":{"NAME":"T6856L","STATE":"","TYPE":"SUBSTATION","STATUS":"IN SERVICE","MAX_VOLT":25,"CITY":"","COUNTY":"","ZIP":"","LINES":null,"SOURCE":"OpenStreetMap"}},{"type":"Feature","geometry":{"type":"Point","coordinates":[-122.3788104,40.6091702]},"properties":{"NAME":"T5267L","STATE":"","TYPE":"SUBSTATION","STATUS":"IN SERVICE","MAX_VOLT":300,"CITY":"","COUNTY":"","ZIP":"","LINES":null,"SOURCE":"OpenStreetMap"}},{"type":"Feature","geometry":{"type":"Point","coordinates":[-122.3848775,40.5841851]},"properties":{"NAME":"T9803L","STATE":"","TYPE":"SUBSTATION","STATUS":"IN SERVICE","MAX_VOLT":225,"CITY":"","COUNTY":"","ZIP":"","LINES":null,"SOURCE":"OpenStreetMap"}},{"type":"Feature","geometry":{"type":"Point","coordinates":[-122.3888185,40.586661]},"properties":{"NAME":"T2413L","STATE":"","TYPE":"SUBSTATION","STATUS":"IN SERVICE","MAX_VOLT":null,"CITY":"","COUNTY":"","ZIP":"","LINES":null,"SOURCE":"OpenStreetMap"}},{"type":"Feature","geometry":{"type":"Point","coordinates":[-123.002044,44.9501116]},"properties":{"NAME":"OSM-8915522348","STATE":"","TYPE":"SUBSTATION","STATUS":"IN SERVICE","MAX_VOLT":null,"CITY":"","COUNTY":"","ZIP":"","LINES":null,"SOURCE":"OpenStreetMap"}},{"type":"Feature","geometry":{"type":"Point","coordinates":[-123.338071,49.3795603]},"properties":{"NAME":"OSM-9200927568","STATE":"","TYPE":"DISTRIBUTION","STATUS":"IN SERVICE","MAX_VOLT":25,"CITY":"","COUNTY":"","ZIP":"","LINES":null,"SOURCE":"OpenStreetMap"}},{"type":"Feature","geometry":{"type":"Point","coordinates":[-123.330224,49.3760896]},"properties":{"NAME":"OSM-9200927569","STATE":"","TYPE":"DISTRIBUTION","STATUS":"IN SERVICE","MAX_VOLT":25,"CITY":"","COUNTY":"","ZIP":"","LINES":null,"SOURCE":"OpenStreetMap"}},{"type":"Feature","geometry":{"type":"Point","coordinates":[-123.3321218,49.3703876]},"properties":{"NAME":"OSM-9206515872","STATE":"","TYPE":"DISTRIBUTION","STATUS":"IN SERVICE","MAX_VOLT":null,"CITY":"","COUNTY":"","ZIP":"","LINES":null,"SOURCE":"OpenStreetMap"}},{"type":"Feature","geometry":{"type":"Point","coordinates":[-118.283028,34.0341613]},"properties":{"NAME":"Distributing Station 31","STATE":"","TYPE":"DISTRIBUTION","STATUS":"IN SERVICE","MAX_VOLT":34,"CITY":"","COUNTY":"","ZIP":"","LINES":null,"SOURCE":"OpenStreetMap"}},{"type":"Feature","geometry":{"type":"Point","coordinates":[-103.5529299,32.0507618]},"properties":{"NAME":"OSM-9645264070","STATE":"","TYPE":"SUBSTATION","STATUS":"IN SERVICE","MAX_VOLT":null,"CITY":"","COUNTY":"","ZIP":"","LINES":null,"SOURCE":"OpenStreetMap"}},{"type":"Feature","geometry":{"type":"Point","coordinates":[-122.316604,40.5451785]},"properties":{"NAME":"T7964L","STATE":"","TYPE":"SUBSTATION","STATUS":"IN SERVICE","MAX_VOLT":100,"CITY":"","COUNTY":"","ZIP":"","LINES":null,"SOURCE":"OpenStreetMap"}},{"type":"Feature","geometry":{"type":"Point","coordinates":[-122.32131,40.5499507]},"properties":{"NAME":"T7901L","STATE":"","TYPE":"SUBSTATION","STATUS":"IN SERVICE","MAX_VOLT":38,"CITY":"","COUNTY":"","ZIP":"","LINES":null,"SOURCE":"OpenStreetMap"}},{"type":"Feature","geometry":{"type":"Point","coordinates":[-122.9902981,49.3245719]},"properties":{"NAME":"OSM-9775452857","STATE":"","TYPE":"SUBSTATION","STATUS":"IN SERVICE","MAX_VOLT":null,"CITY":"","COUNTY":"","ZIP":"","LINES":null,"SOURCE":"OpenStreetMap"}},{"type":"Feature","geometry":{"type":"Point","coordinates":[-122.319385,40.5487521]},"properties":{"NAME":"OSM-9797238832","STATE":"","TYPE":"SUBSTATION","STATUS":"IN SERVICE","MAX_VOLT":null,"CITY":"","COUNTY":"","ZIP":"","LINES":null,"SOURCE":"OpenStreetMap"}},{"type":"Feature","geometry":{"type":"Point","coordinates":[-123.3316745,49.3712412]},"properties":{"NAME":"OSM-9877521240","STATE":"","TYPE":"DISTRIBUTION","STATUS":"IN SERVICE","MAX_VOLT":null,"CITY":"","COUNTY":"","ZIP":"","LINES":null,"SOURCE":"OpenStreetMap"}},{"type":"Feature","geometry":{"type":"Point","coordinates":[-122.316843,40.5476804]},"properties":{"NAME":"OSM-10005458412","STATE":"","TYPE":"SUBSTATION","STATUS":"IN SERVICE","MAX_VOLT":null,"CITY":"","COUNTY":"","ZIP":"","LINES":null,"SOURCE":"OpenStreetMap"}},{"type":"Feature","geometry":{"type":"Point","coordinates":[-122.317993,40.5481953]},"properties":{"NAME":"OSM-10005458413","STATE":"","TYPE":"SUBSTATION","STATUS":"IN SERVICE","MAX_VOLT":null,"CITY":"","COUNTY":"","ZIP":"","LINES":null,"SOURCE":"OpenStreetMap"}},{"type":"Feature","geometry":{"type":"Point","coordinates":[-122.319219,40.5500378]},"properties":{"NAME":"T2318LR","STATE":"","TYPE":"SUBSTATION","STATUS":"IN SERVICE","MAX_VOLT":null,"CITY":"","COUNTY":"","ZIP":"","LINES":null,"SOURCE":"OpenStreetMap"}},{"type":"Feature","geometry":{"type":"Point","coordinates":[-122.319369,40.549617]},"properties":{"NAME":"OSM-10005458415","STATE":"","TYPE":"SUBSTATION","STATUS":"IN SERVICE","MAX_VOLT":null,"CITY":"","COUNTY":"","ZIP":"","LINES":null,"SOURCE":"OpenStreetMap"}},{"type":"Feature","geometry":{"type":"Point","coordinates":[-122.319986,40.5514665]},"properties":{"NAME":"OSM-10005461818","STATE":"","TYPE":"SUBSTATION","STATUS":"IN SERVICE","MAX_VOLT":null,"CITY":"","COUNTY":"","ZIP":"","LINES":null,"SOURCE":"OpenStreetMap"}},{"type":"Feature","geometry":{"type":"Point","coordinates":[-122.323127,40.5489266]},"properties":{"NAME":"T5811L","STATE":"","TYPE":"SUBSTATION","STATUS":"IN SERVICE","MAX_VOLT":null,"CITY":"","COUNTY":"","ZIP":"","LINES":null,"SOURCE":"OpenStreetMap"}},{"type":"Feature","geometry":{"type":"Point","coordinates":[-122.325478,40.5489423]},"properties":{"NAME":"T6090L","STATE":"","TYPE":"SUBSTATION","STATUS":"IN SERVICE","MAX_VOLT":null,"CITY":"","COUNTY":"","ZIP":"","LINES":null,"SOURCE":"OpenStreetMap"}},{"type":"Feature","geometry":{"type":"Point","coordinates":[-122.334509,40.5366735]},"properties":{"NAME":"T9222L","STATE":"","TYPE":"SUBSTATION","STATUS":"IN SERVICE","MAX_VOLT":50,"CITY":"","COUNTY":"","ZIP":"","LINES":null,"SOURCE":"OpenStreetMap"}},{"type":"Feature","geometry":{"type":"Point","coordinates":[-122.334514,40.5374211]},"properties":{"NAME":"OSM-10005478564","STATE":"","TYPE":"SUBSTATION","STATUS":"IN SERVICE","MAX_VOLT":null,"CITY":"","COUNTY":"","ZIP":"","LINES":null,"SOURCE":"OpenStreetMap"}},{"type":"Feature","geometry":{"type":"Point","coordinates":[-122.335442,40.5380769]},"properties":{"NAME":"OSM-10005478568","STATE":"","TYPE":"SUBSTATION","STATUS":"IN SERVICE","MAX_VOLT":null,"CITY":"","COUNTY":"","ZIP":"","LINES":null,"SOURCE":"OpenStreetMap"}},{"type":"Feature","geometry":{"type":"Point","coordinates":[-122.196264,47.5789829]},"properties":{"NAME":"OSM-10128979853","STATE":"","TYPE":"SUBSTATION","STATUS":"IN SERVICE","MAX_VOLT":null,"CITY":"","COUNTY":"","ZIP":"","LINES":null,"SOURCE":"OpenStreetMap"}},{"type":"Feature","geometry":{"type":"Point","coordinates":[-122.3870008,40.5790785]},"properties":{"NAME":"OSM-10297384376","STATE":"","TYPE":"SUBSTATION","STATUS":"IN SERVICE","MAX_VOLT":500,"CITY":"","COUNTY":"","ZIP":"","LINES":null,"SOURCE":"OpenStreetMap"}},{"type":"Feature","geometry":{"type":"Point","coordinates":[-122.367787,40.569925]},"properties":{"NAME":"T5586L","STATE":"","TYPE":"SUBSTATION","STATUS":"IN SERVICE","MAX_VOLT":null,"CITY":"","COUNTY":"","ZIP":"","LINES":null,"SOURCE":"OpenStreetMap"}},{"type":"Feature","geometry":{"type":"Point","coordinates":[-122.3338125,40.593068]},"properties":{"NAME":"T4470L","STATE":"","TYPE":"SUBSTATION","STATUS":"IN SERVICE","MAX_VOLT":38,"CITY":"","COUNTY":"","ZIP":"","LINES":null,"SOURCE":"OpenStreetMap"}},{"type":"Feature","geometry":{"type":"Point","coordinates":[-122.3348466,40.5942373]},"properties":{"NAME":"T4116L","STATE":"","TYPE":"SUBSTATION","STATUS":"IN SERVICE","MAX_VOLT":100,"CITY":"","COUNTY":"","ZIP":"","LINES":null,"SOURCE":"OpenStreetMap"}},{"type":"Feature","geometry":{"type":"Point","coordinates":[-122.3346316,40.5930822]},"properties":{"NAME":"T4453L","STATE":"","TYPE":"SUBSTATION","STATUS":"IN SERVICE","MAX_VOLT":75,"CITY":"","COUNTY":"","ZIP":"","LINES":null,"SOURCE":"OpenStreetMap"}},{"type":"Feature","geometry":{"type":"Point","coordinates":[-122.34056,40.5877563]},"properties":{"NAME":"T11227L","STATE":"","TYPE":"SUBSTATION","STATUS":"IN SERVICE","MAX_VOLT":50,"CITY":"","COUNTY":"","ZIP":"","LINES":null,"SOURCE":"OpenStreetMap"}},{"type":"Feature","geometry":{"type":"Point","coordinates":[-122.3333835,40.5893113]},"properties":{"NAME":"T6958L","STATE":"","TYPE":"SUBSTATION","STATUS":"IN SERVICE","MAX_VOLT":null,"CITY":"","COUNTY":"","ZIP":"","LINES":null,"SOURCE":"OpenStreetMap"}},{"type":"Feature","geometry":{"type":"Point","coordinates":[-122.3900984,40.5877683]},"properties":{"NAME":"OSM-10585539826","STATE":"","TYPE":"SUBSTATION","STATUS":"IN SERVICE","MAX_VOLT":null,"CITY":"","COUNTY":"","ZIP":"","LINES":null,"SOURCE":"OpenStreetMap"}},{"type":"Feature","geometry":{"type":"Point","coordinates":[-122.4651758,37.8019613]},"properties":{"NAME":"Battery Substation","STATE":"","TYPE":"SUBSTATION","STATUS":"IN SERVICE","MAX_VOLT":null,"CITY":"","COUNTY":"","ZIP":"","LINES":null,"SOURCE":"OpenStreetMap"}},{"type":"Feature","geometry":{"type":"Point","coordinates":[-122.216434,37.8264986]},"properties":{"NAME":"Wood Substation","STATE":"","TYPE":"YES","STATUS":"IN SERVICE","MAX_VOLT":null,"CITY":"","COUNTY":"","ZIP":"","LINES":null,"SOURCE":"OpenStreetMap"}},{"type":"Feature","geometry":{"type":"Point","coordinates":[-123.3316795,49.3712227]},"properties":{"NAME":"OSM-11201101315","STATE":"","TYPE":"DISTRIBUTION","STATUS":"IN SERVICE","MAX_VOLT":null,"CITY":"","COUNTY":"","ZIP":"","LINES":null,"SOURCE":"OpenStreetMap"}},{"type":"Feature","geometry":{"type":"Point","coordinates":[-122.3659484,37.8114674]},"properties":{"NAME":"OSM-11545612406","STATE":"","TYPE":"MINOR_DISTRIBUTION","STATUS":"IN SERVICE","MAX_VOLT":null,"CITY":"","COUNTY":"","ZIP":"","LINES":null,"SOURCE":"OpenStreetMap"}},{"type":"Feature","geometry":{"type":"Point","coordinates":[-122.3679989,37.8111878]},"properties":{"NAME":"OSM-11545612407","STATE":"","TYPE":"MINOR_DISTRIBUTION","STATUS":"IN SERVICE","MAX_VOLT":null,"CITY":"","COUNTY":"","ZIP":"","LINES":null,"SOURCE":"OpenStreetMap"}},{"type":"Feature","geometry":{"type":"Point","coordinates":[-122.3695972,37.8117849]},"properties":{"NAME":"OSM-11545612408","STATE":"","TYPE":"MINOR_DISTRIBUTION","STATUS":"IN SERVICE","MAX_VOLT":null,"CITY":"","COUNTY":"","ZIP":"","LINES":null,"SOURCE":"OpenStreetMap"}},{"type":"Feature","geometry":{"type":"Point","coordinates":[-122.3622382,37.8136793]},"properties":{"NAME":"OSM-11545612409","STATE":"","TYPE":"MINOR_DISTRIBUTION","STATUS":"IN SERVICE","MAX_VOLT":null,"CITY":"","COUNTY":"","ZIP":"","LINES":null,"SOURCE":"OpenStreetMap"}},{"type":"Feature","geometry":{"type":"Point","coordinates":[-122.3695948,37.8167884]},"properties":{"NAME":"OSM-11545612410","STATE":"","TYPE":"MINOR_DISTRIBUTION","STATUS":"IN SERVICE","MAX_VOLT":null,"CITY":"","COUNTY":"","ZIP":"","LINES":null,"SOURCE":"OpenStreetMap"}},{"type":"Feature","geometry":{"type":"Point","coordinates":[-122.3706011,37.8288328]},"properties":{"NAME":"OSM-11545780147","STATE":"","TYPE":"MINOR_DISTRIBUTION","STATUS":"IN SERVICE","MAX_VOLT":null,"CITY":"","COUNTY":"","ZIP":"","LINES":null,"SOURCE":"OpenStreetMap"}},{"type":"Feature","geometry":{"type":"Point","coordinates":[-122.3633452,37.8231528]},"properties":{"NAME":"OSM-11545794505","STATE":"","TYPE":"MINOR_DISTRIBUTION","STATUS":"IN SERVICE","MAX_VOLT":null,"CITY":"","COUNTY":"","ZIP":"","LINES":null,"SOURCE":"OpenStreetMap"}},{"type":"Feature","geometry":{"type":"Point","coordinates":[-122.3632636,37.823034]},"properties":{"NAME":"OSM-11545794506","STATE":"","TYPE":"MINOR_DISTRIBUTION","STATUS":"IN SERVICE","MAX_VOLT":null,"CITY":"","COUNTY":"","ZIP":"","LINES":null,"SOURCE":"OpenStreetMap"}},{"type":"Feature","geometry":{"type":"Point","coordinates":[-122.3758176,37.8225696]},"properties":{"NAME":"OSM-11545854463","STATE":"","TYPE":"MINOR_DISTRIBUTION","STATUS":"IN SERVICE","MAX_VOLT":null,"CITY":"","COUNTY":"","ZIP":"","LINES":null,"SOURCE":"OpenStreetMap"}},{"type":"Feature","geometry":{"type":"Point","coordinates":[-122.375851,37.8225606]},"properties":{"NAME":"OSM-11545854464","STATE":"","TYPE":"MINOR_DISTRIBUTION","STATUS":"IN SERVICE","MAX_VOLT":null,"CITY":"","COUNTY":"","ZIP":"","LINES":null,"SOURCE":"OpenStreetMap"}},{"type":"Feature","geometry":{"type":"Point","coordinates":[-122.3745776,37.8213133]},"properties":{"NAME":"OSM-11545854524","STATE":"","TYPE":"MINOR_DISTRIBUTION","STATUS":"IN SERVICE","MAX_VOLT":null,"CITY":"","COUNTY":"","ZIP":"","LINES":null,"SOURCE":"OpenStreetMap"}},{"type":"Feature","geometry":{"type":"Point","coordinates":[-122.3677277,37.8099251]},"properties":{"NAME":"OSM-11545903478","STATE":"","TYPE":"MINOR_DISTRIBUTION","STATUS":"IN SERVICE","MAX_VOLT":null,"CITY":"","COUNTY":"","ZIP":"","LINES":null,"SOURCE":"OpenStreetMap"}},{"type":"Feature","geometry":{"type":"Point","coordinates":[-122.3752457,37.8311948]},"properties":{"NAME":"OSM-11548859860","STATE":"","TYPE":"MINOR_DISTRIBUTION","STATUS":"IN SERVICE","MAX_VOLT":null,"CITY":"","COUNTY":"","ZIP":"","LINES":null,"SOURCE":"OpenStreetMap"}},{"type":"Feature","geometry":{"type":"Point","coordinates":[-122.3776897,37.825146]},"properties":{"NAME":"OSM-11548952668","STATE":"","TYPE":"MINOR_DISTRIBUTION","STATUS":"IN SERVICE","MAX_VOLT":null,"CITY":"","COUNTY":"","ZIP":"","LINES":null,"SOURCE":"OpenStreetMap"}},{"type":"Feature","geometry":{"type":"Point","coordinates":[-122.3713743,37.8197592]},"properties":{"NAME":"OSM-11548963469","STATE":"","TYPE":"MINOR_DISTRIBUTION","STATUS":"IN SERVICE","MAX_VOLT":null,"CITY":"","COUNTY":"","ZIP":"","LINES":null,"SOURCE":"OpenStreetMap"}},{"type":"Feature","geometry":{"type":"Point","coordinates":[-122.3713398,37.819708]},"properties":{"NAME":"OSM-11548963470","STATE":"","TYPE":"MINOR_DISTRIBUTION","STATUS":"IN SERVICE","MAX_VOLT":null,"CITY":"","COUNTY":"","ZIP":"","LINES":null,"SOURCE":"OpenStreetMap"}},{"type":"Feature","geometry":{"type":"Point","coordinates":[-122.3713074,37.8196579]},"properties":{"NAME":"OSM-11548963471","STATE":"","TYPE":"MINOR_DISTRIBUTION","STATUS":"IN SERVICE","MAX_VOLT":null,"CITY":"","COUNTY":"","ZIP":"","LINES":null,"SOURCE":"OpenStreetMap"}},{"type":"Feature","geometry":{"type":"Point","coordinates":[-122.3683713,37.8271529]},"properties":{"NAME":"OSM-11548963521","STATE":"","TYPE":"MINOR_DISTRIBUTION","STATUS":"IN SERVICE","MAX_VOLT":null,"CITY":"","COUNTY":"","ZIP":"","LINES":null,"SOURCE":"OpenStreetMap"}},{"type":"Feature","geometry":{"type":"Point","coordinates":[-122.3195654,37.8218652]},"properties":{"NAME":"OSM-11549305080","STATE":"","TYPE":"MINOR_DISTRIBUTION","STATUS":"IN SERVICE","MAX_VOLT":null,"CITY":"","COUNTY":"","ZIP":"","LINES":null,"SOURCE":"OpenStreetMap"}},{"type":"Feature","geometry":{"type":"Point","coordinates":[-122.3098912,37.8239767]},"properties":{"NAME":"OSM-11549305100","STATE":"","TYPE":"MINOR_DISTRIBUTION","STATUS":"IN SERVICE","MAX_VOLT":null,"CITY":"","COUNTY":"","ZIP":"","LINES":null,"SOURCE":"OpenStreetMap"}},{"type":"Feature","geometry":{"type":"Point","coordinates":[-122.3062818,37.8237187]},"properties":{"NAME":"OSM-11549403677","STATE":"","TYPE":"MINOR_DISTRIBUTION","STATUS":"IN SERVICE","MAX_VOLT":null,"CITY":"","COUNTY":"","ZIP":"","LINES":null,"SOURCE":"OpenStreetMap"}},{"type":"Feature","geometry":{"type":"Point","coordinates":[-122.3057075,37.8239488]},"properties":{"NAME":"OSM-11549403678","STATE":"","TYPE":"MINOR_DISTRIBUTION","STATUS":"IN SERVICE","MAX_VOLT":null,"CITY":"","COUNTY":"","ZIP":"","LINES":null,"SOURCE":"OpenStreetMap"}},{"type":"Feature","geometry":{"type":"Point","coordinates":[-122.3089378,37.8232784]},"properties":{"NAME":"OSM-11549403679","STATE":"","TYPE":"MINOR_DISTRIBUTION","STATUS":"IN SERVICE","MAX_VOLT":null,"CITY":"","COUNTY":"","ZIP":"","LINES":null,"SOURCE":"OpenStreetMap"}},{"type":"Feature","geometry":{"type":"Point","coordinates":[-122.2982761,37.820402]},"properties":{"NAME":"OSM-11549403701","STATE":"","TYPE":"MINOR_DISTRIBUTION","STATUS":"IN SERVICE","MAX_VOLT":null,"CITY":"","COUNTY":"","ZIP":"","LINES":null,"SOURCE":"OpenStreetMap"}},{"type":"Feature","geometry":{"type":"Point","coordinates":[-122.4080419,37.7656363]},"properties":{"NAME":"OSM-11556092716","STATE":"","TYPE":"MINOR_DISTRIBUTION","STATUS":"IN SERVICE","MAX_VOLT":null,"CITY":"","COUNTY":"","ZIP":"","LINES":null,"SOURCE":"OpenStreetMap"}},{"type":"Feature","geometry":{"type":"Point","coordinates":[-122.4131936,37.7641586]},"properties":{"NAME":"OSM-11556204909","STATE":"","TYPE":"MINOR_DISTRIBUTION","STATUS":"IN SERVICE","MAX_VOLT":null,"CITY":"","COUNTY":"","ZIP":"","LINES":null,"SOURCE":"OpenStreetMap"}},{"type":"Feature","geometry":{"type":"Point","coordinates":[-122.4064984,37.7672564]},"properties":{"NAME":"OSM-11556204946","STATE":"","TYPE":"MINOR_DISTRIBUTION","STATUS":"IN SERVICE","MAX_VOLT":null,"CITY":"","COUNTY":"","ZIP":"","LINES":null,"SOURCE":"OpenStreetMap"}},{"type":"Feature","geometry":{"type":"Point","coordinates":[-122.4094448,37.7629946]},"properties":{"NAME":"OSM-11558070143","STATE":"","TYPE":"MINOR_DISTRIBUTION","STATUS":"IN SERVICE","MAX_VOLT":null,"CITY":"","COUNTY":"","ZIP":"","LINES":null,"SOURCE":"OpenStreetMap"}},{"type":"Feature","geometry":{"type":"Point","coordinates":[-122.3898326,37.7605417]},"properties":{"NAME":"OSM-11558076477","STATE":"","TYPE":"MINOR_DISTRIBUTION","STATUS":"IN SERVICE","MAX_VOLT":null,"CITY":"","COUNTY":"","ZIP":"","LINES":null,"SOURCE":"OpenStreetMap"}},{"type":"Feature","geometry":{"type":"Point","coordinates":[-122.3766087,37.8262026]},"properties":{"NAME":"OSM-11626113564","STATE":"","TYPE":"MINOR_DISTRIBUTION","STATUS":"IN SERVICE","MAX_VOLT":null,"CITY":"","COUNTY":"","ZIP":"","LINES":null,"SOURCE":"OpenStreetMap"}},{"type":"Feature","geometry":{"type":"Point","coordinates":[-122.3759488,37.8260982]},"properties":{"NAME":"OSM-11626113565","STATE":"","TYPE":"MINOR_DISTRIBUTION","STATUS":"IN SERVICE","MAX_VOLT":null,"CITY":"","COUNTY":"","ZIP":"","LINES":null,"SOURCE":"OpenStreetMap"}},{"type":"Feature","geometry":{"type":"Point","coordinates":[-122.3762099,37.8233075]},"properties":{"NAME":"OSM-11629097444","STATE":"","TYPE":"MINOR_DISTRIBUTION","STATUS":"IN SERVICE","MAX_VOLT":null,"CITY":"","COUNTY":"","ZIP":"","LINES":null,"SOURCE":"OpenStreetMap"}},{"type":"Feature","geometry":{"type":"Point","coordinates":[-122.3773123,37.8245071]},"properties":{"NAME":"OSM-11629097445","STATE":"","TYPE":"MINOR_DISTRIBUTION","STATUS":"IN SERVICE","MAX_VOLT":null,"CITY":"","COUNTY":"","ZIP":"","LINES":null,"SOURCE":"OpenStreetMap"}},{"type":"Feature","geometry":{"type":"Point","coordinates":[-122.3753702,37.8243091]},"properties":{"NAME":"OSM-11629097446","STATE":"","TYPE":"MINOR_DISTRIBUTION","STATUS":"IN SERVICE","MAX_VOLT":null,"CITY":"","COUNTY":"","ZIP":"","LINES":null,"SOURCE":"OpenStreetMap"}},{"type":"Feature","geometry":{"type":"Point","coordinates":[-122.3748809,37.8251735]},"properties":{"NAME":"OSM-11629097447","STATE":"","TYPE":"MINOR_DISTRIBUTION","STATUS":"IN SERVICE","MAX_VOLT":null,"CITY":"","COUNTY":"","ZIP":"","LINES":null,"SOURCE":"OpenStreetMap"}},{"type":"Feature","geometry":{"type":"Point","coordinates":[-122.3743144,37.8245131]},"properties":{"NAME":"OSM-11629097448","STATE":"","TYPE":"MINOR_DISTRIBUTION","STATUS":"IN SERVICE","MAX_VOLT":null,"CITY":"","COUNTY":"","ZIP":"","LINES":null,"SOURCE":"OpenStreetMap"}},{"type":"Feature","geometry":{"type":"Point","coordinates":[-122.3742069,37.8243432]},"properties":{"NAME":"OSM-11629097449","STATE":"","TYPE":"MINOR_DISTRIBUTION","STATUS":"IN SERVICE","MAX_VOLT":null,"CITY":"","COUNTY":"","ZIP":"","LINES":null,"SOURCE":"OpenStreetMap"}},{"type":"Feature","geometry":{"type":"Point","coordinates":[-122.3732163,37.824615]},"properties":{"NAME":"OSM-11629097450","STATE":"","TYPE":"MINOR_DISTRIBUTION","STATUS":"IN SERVICE","MAX_VOLT":null,"CITY":"","COUNTY":"","ZIP":"","LINES":null,"SOURCE":"OpenStreetMap"}},{"type":"Feature","geometry":{"type":"Point","coordinates":[-122.3764957,37.8246408]},"properties":{"NAME":"OSM-11629097451","STATE":"","TYPE":"MINOR_DISTRIBUTION","STATUS":"IN SERVICE","MAX_VOLT":null,"CITY":"","COUNTY":"","ZIP":"","LINES":null,"SOURCE":"OpenStreetMap"}},{"type":"Feature","geometry":{"type":"Point","coordinates":[-122.3763202,37.8246757]},"properties":{"NAME":"OSM-11629097452","STATE":"","TYPE":"MINOR_DISTRIBUTION","STATUS":"IN SERVICE","MAX_VOLT":null,"CITY":"","COUNTY":"","ZIP":"","LINES":null,"SOURCE":"OpenStreetMap"}},{"type":"Feature","geometry":{"type":"Point","coordinates":[-122.3761646,37.8242232]},"properties":{"NAME":"OSM-11629097453","STATE":"","TYPE":"MINOR_DISTRIBUTION","STATUS":"IN SERVICE","MAX_VOLT":null,"CITY":"","COUNTY":"","ZIP":"","LINES":null,"SOURCE":"OpenStreetMap"}},{"type":"Feature","geometry":{"type":"Point","coordinates":[-122.3765074,37.8256414]},"properties":{"NAME":"OSM-11629097454","STATE":"","TYPE":"MINOR_DISTRIBUTION","STATUS":"IN SERVICE","MAX_VOLT":null,"CITY":"","COUNTY":"","ZIP":"","LINES":null,"SOURCE":"OpenStreetMap"}},{"type":"Feature","geometry":{"type":"Point","coordinates":[-122.376523,37.8256643]},"properties":{"NAME":"OSM-11629097455","STATE":"","TYPE":"MINOR_DISTRIBUTION","STATUS":"IN SERVICE","MAX_VOLT":null,"CITY":"","COUNTY":"","ZIP":"","LINES":null,"SOURCE":"OpenStreetMap"}},{"type":"Feature","geometry":{"type":"Point","coordinates":[-122.3769558,37.8264067]},"properties":{"NAME":"OSM-11629097456","STATE":"","TYPE":"MINOR_DISTRIBUTION","STATUS":"IN SERVICE","MAX_VOLT":null,"CITY":"","COUNTY":"","ZIP":"","LINES":null,"SOURCE":"OpenStreetMap"}},{"type":"Feature","geometry":{"type":"Point","coordinates":[-122.3760135,37.8268048]},"properties":{"NAME":"OSM-11629097457","STATE":"","TYPE":"MINOR_DISTRIBUTION","STATUS":"IN SERVICE","MAX_VOLT":null,"CITY":"","COUNTY":"","ZIP":"","LINES":null,"SOURCE":"OpenStreetMap"}},{"type":"Feature","geometry":{"type":"Point","coordinates":[-122.3751094,37.8264968]},"properties":{"NAME":"OSM-11629097458","STATE":"","TYPE":"MINOR_DISTRIBUTION","STATUS":"IN SERVICE","MAX_VOLT":null,"CITY":"","COUNTY":"","ZIP":"","LINES":null,"SOURCE":"OpenStreetMap"}},{"type":"Feature","geometry":{"type":"Point","coordinates":[-122.376748,37.8236327]},"properties":{"NAME":"OSM-11629097459","STATE":"","TYPE":"MINOR_DISTRIBUTION","STATUS":"IN SERVICE","MAX_VOLT":null,"CITY":"","COUNTY":"","ZIP":"","LINES":null,"SOURCE":"OpenStreetMap"}},{"type":"Feature","geometry":{"type":"Point","coordinates":[-122.3777056,37.8261417]},"properties":{"NAME":"OSM-11629097460","STATE":"","TYPE":"MINOR_DISTRIBUTION","STATUS":"IN SERVICE","MAX_VOLT":null,"CITY":"","COUNTY":"","ZIP":"","LINES":null,"SOURCE":"OpenStreetMap"}},{"type":"Feature","geometry":{"type":"Point","coordinates":[-122.4088173,37.7671058]},"properties":{"NAME":"OSM-11709407137","STATE":"","TYPE":"MINOR_DISTRIBUTION","STATUS":"IN SERVICE","MAX_VOLT":null,"CITY":"","COUNTY":"","ZIP":"","LINES":null,"SOURCE":"OpenStreetMap"}},{"type":"Feature","geometry":{"type":"Point","coordinates":[-122.408754,37.7671094]},"properties":{"NAME":"OSM-11709407138","STATE":"","TYPE":"MINOR_DISTRIBUTION","STATUS":"IN SERVICE","MAX_VOLT":null,"CITY":"","COUNTY":"","ZIP":"","LINES":null,"SOURCE":"OpenStreetMap"}},{"type":"Feature","geometry":{"type":"Point","coordinates":[-122.4104466,37.7668029]},"properties":{"NAME":"OSM-11810968817","STATE":"","TYPE":"MINOR_DISTRIBUTION","STATUS":"IN SERVICE","MAX_VOLT":null,"CITY":"","COUNTY":"","ZIP":"","LINES":null,"SOURCE":"OpenStreetMap"}},{"type":"Feature","geometry":{"type":"Point","coordinates":[-122.3864761,37.7669408]},"properties":{"NAME":"OSM-12336533508","STATE":"","TYPE":"MINOR_DISTRIBUTION","STATUS":"IN SERVICE","MAX_VOLT":null,"CITY":"","COUNTY":"","ZIP":"","LINES":null,"SOURCE":"OpenStreetMap"}},{"type":"Feature","geometry":{"type":"Point","coordinates":[-115.067713,35.9442817]},"properties":{"NAME":"OSM-12485176239","STATE":"","TYPE":"SUBSTATION","STATUS":"IN SERVICE","MAX_VOLT":null,"CITY":"","COUNTY":"","ZIP":"","LINES":null,"SOURCE":"OpenStreetMap"}},{"type":"Feature","geometry":{"type":"Point","coordinates":[-122.4140407,37.7735809]},"properties":{"NAME":"OSM-12648695220","STATE":"","TYPE":"MINOR_DISTRIBUTION","STATUS":"IN SERVICE","MAX_VOLT":null,"CITY":"","COUNTY":"","ZIP":"","LINES":null,"SOURCE":"OpenStreetMap"}},{"type":"Feature","geometry":{"type":"Point","coordinates":[-122.408243,37.7689133]},"properties":{"NAME":"OSM-12648957404","STATE":"","TYPE":"MINOR_DISTRIBUTION","STATUS":"IN SERVICE","MAX_VOLT":null,"CITY":"","COUNTY":"","ZIP":"","LINES":null,"SOURCE":"OpenStreetMap"}},{"type":"Feature","geometry":{"type":"Point","coordinates":[-122.2795273,37.8544962]},"properties":{"NAME":"Russell Substation","STATE":"","TYPE":"SUBSTATION","STATUS":"IN SERVICE","MAX_VOLT":null,"CITY":"","COUNTY":"","ZIP":"","LINES":null,"SOURCE":"OpenStreetMap"}},{"type":"Feature","geometry":{"type":"Point","coordinates":[-111.8325638,41.7672497]},"properties":{"NAME":"OSM-12805030853","STATE":"","TYPE":"SUBSTATION","STATUS":"IN SERVICE","MAX_VOLT":null,"CITY":"","COUNTY":"","ZIP":"","LINES":null,"SOURCE":"OpenStreetMap"}},{"type":"Feature","geometry":{"type":"Point","coordinates":[-104.589632,38.2475496]},"properties":{"NAME":"OSM-12963900397","STATE":"","TYPE":"INDUSTRIAL","STATUS":"IN SERVICE","MAX_VOLT":69,"CITY":"","COUNTY":"","ZIP":"","LINES":null,"SOURCE":"OpenStreetMap"}},{"type":"Feature","geometry":{"type":"Point","coordinates":[-104.6150412,38.2230904]},"properties":{"NAME":"OSM-12963900398","STATE":"","TYPE":"MINOR_DISTRIBUTION","STATUS":"IN SERVICE","MAX_VOLT":69,"CITY":"","COUNTY":"","ZIP":"","LINES":null,"SOURCE":"OpenStreetMap"}},{"type":"Feature","geometry":{"type":"Point","coordinates":[-104.3664346,39.0102416]},"properties":{"NAME":"Calhan Substation","STATE":"","TYPE":"DISTRIBUTION","STATUS":"IN SERVICE","MAX_VOLT":69,"CITY":"","COUNTY":"","ZIP":"","LINES":null,"SOURCE":"OpenStreetMap"}},{"type":"Feature","geometry":{"type":"Point","coordinates":[-123.8282071,40.8205237]},"properties":{"NAME":"OSM-13191841218","STATE":"","TYPE":"SUBSTATION","STATUS":"IN SERVICE","MAX_VOLT":null,"CITY":"","COUNTY":"","ZIP":"","LINES":null,"SOURCE":"OpenStreetMap"}}]}