{"type":"FeatureCollection","features":[{"type":"Feature","geometry":{"type":"Point","coordinates":[-103.5529299,32.0507618]},"properties":{"NAME":"OSM-9645264070","STATE":"","TYPE":"SUBSTATION","STATUS":"IN SERVICE","MAX_VOLT":null,"CITY":"","COUNTY":"","ZIP":"","LINES":null,"SOURCE":"OpenStreetMap"}},{"type":"Feature","geometry":{"type":"Point","coordinates":[-101.8360271,31.7848768]},"properties":{"NAME":"Peck Substation","STATE":"","TYPE":"DISTRIBUTION","STATUS":"IN SERVICE","MAX_VOLT":null,"CITY":"","COUNTY":"","ZIP":"","LINES":null,"SOURCE":"OpenStreetMap"}}]}