{"type":"FeatureCollection","features":[{"type":"Feature","geometry":{"type":"Point","coordinates":[-80.5817669,44.2321434]},"properties":{"NAME":"OSM-816021618","STATE":"","TYPE":"SUBSTATION","STATUS":"IN SERVICE","MAX_VOLT":null,"CITY":"","COUNTY":"","ZIP":"","LINES":null,"SOURCE":"OpenStreetMap"}},{"type":"Feature","geometry":{"type":"Point","coordinates":[-80.8576813,44.1954358]},"properties":{"NAME":"OSM-830177066","STATE":"","TYPE":"SUBSTATION","STATUS":"IN SERVICE","MAX_VOLT":null,"CITY":"","COUNTY":"","ZIP":"","LINES":null,"SOURCE":"OpenStreetMap"}},{"type":"Feature","geometry":{"type":"Point","coordinates":[-80.7925665,44.0679305]},"properties":{"NAME":"OSM-834208363","STATE":"","TYPE":"SUBSTATION","STATUS":"IN SERVICE","MAX_VOLT":null,"CITY":"","COUNTY":"","ZIP":"","LINES":null,"SOURCE":"OpenStreetMap"}},{"type":"Feature","geometry":{"type":"Point","coordinates":[-80.5592826,43.6048507]},"properties":{"NAME":"OSM-835404679","STATE":"","TYPE":"SUBSTATION","STATUS":"IN SERVICE","MAX_VOLT":null,"CITY":"","COUNTY":"","ZIP":"","LINES":null,"SOURCE":"OpenStreetMap"}},{"type":"Feature","geometry":{"type":"Point","coordinates":[-80.5536688,43.5942147]},"properties":{"NAME":"OSM-835405576","STATE":"","TYPE":"SUBSTATION","STATUS":"IN SERVICE","MAX_VOLT":null,"CITY":"","COUNTY":"","ZIP":"","LINES":null,"SOURCE":"OpenStreetMap"}},{"type":"Feature","geometry":{"type":"Point","coordinates":[-80.9600541,43.7334033]},"properties":{"NAME":"OSM-835408242","STATE":"","TYPE":"SUBSTATION","STATUS":"IN SERVICE","MAX_VOLT":null,"CITY":"","COUNTY":"","ZIP":"","LINES":null,"SOURCE":"OpenStreetMap"}},{"type":"Feature","geometry":{"type":"Point","coordinates":[-80.5596271,43.6043134]},"properties":{"NAME":"OSM-835423900","STATE":"","TYPE":"SUBSTATION","STATUS":"IN SERVICE","MAX_VOLT":null,"CITY":"","COUNTY":"","ZIP":"","LINES":null,"SOURCE":"OpenStreetMap"}},{"type":"Feature","geometry":{"type":"Point","coordinates":[-80.5498577,43.6311247]},"properties":{"NAME":"OSM-835427265","STATE":"","TYPE":"SUBSTATION","STATUS":"IN SERVICE","MAX_VOLT":null,"CITY":"","COUNTY":"","ZIP":"","LINES":null,"SOURCE":"OpenStreetMap"}},{"type":"Feature","geometry":{"type":"Point","coordinates":[-80.9421927,43.7408393]},"properties":{"NAME":"OSM-835429331","STATE":"","TYPE":"SUBSTATION","STATUS":"IN SERVICE","MAX_VOLT":null,"CITY":"","COUNTY":"","ZIP":"","LINES":null,"SOURCE":"OpenStreetMap"}},{"type":"Feature","geometry":{"type":"Point","coordinates":[-80.5477737,43.8362427]},"properties":{"NAME":"OSM-835434691","STATE":"","TYPE":"SUBSTATION","STATUS":"IN SERVICE","MAX_VOLT":null,"CITY":"","COUNTY":"","ZIP":"","LINES":null,"SOURCE":"OpenStreetMap"}},{"type":"Feature","geometry":{"type":"Point","coordinates":[-80.9515329,43.7233218]},"properties":{"NAME":"OSM-835455059","STATE":"","TYPE":"SUBSTATION","STATUS":"IN SERVICE","MAX_VOLT":null,"CITY":"","COUNTY":"","ZIP":"","LINES":null,"SOURCE":"OpenStreetMap"}},{"type":"Feature","geometry":{"type":"Point","coordinates":[-80.5548807,43.6035526]},"properties":{"NAME":"OSM-835458637","STATE":"","TYPE":"SUBSTATION","STATUS":"IN SERVICE","MAX_VOLT":null,"CITY":"","COUNTY":"","ZIP":"","LINES":null,"SOURCE":"OpenStreetMap"}},{"type":"Feature","geometry":{"type":"Point","coordinates":[-80.9562367,43.7315657]},"properties":{"NAME":"OSM-835464181","STATE":"","TYPE":"SUBSTATION","STATUS":"IN SERVICE","MAX_VOLT":null,"CITY":"","COUNTY":"","ZIP":"","LINES":null,"SOURCE":"OpenStreetMap"}},{"type":"Feature","geometry":{"type":"Point","coordinates":[-88.2799851,48.9475373]},"properties":{"NAME":"OSM-857854881","STATE":"","TYPE":"SUBSTATION","STATUS":"IN SERVICE","MAX_VOLT":null,"CITY":"","COUNTY":"","ZIP":"","LINES":null,"SOURCE":"OpenStreetMap"}},{"type":"Feature","geometry":{"type":"Point","coordinates":[-89.1984848,48.4519517]},"properties":{"NAME":"OSM-887109626","STATE":"","TYPE":"SUBSTATION","STATUS":"IN SERVICE","MAX_VOLT":null,"CITY":"","COUNTY":"","ZIP":"","LINES":null,"SOURCE":"OpenStreetMap"}},{"type":"Feature","geometry":{"type":"Point","coordinates":[-80.618832,44.594544]},"properties":{"NAME":"OSM-1288426622","STATE":"","TYPE":"SUBSTATION","STATUS":"IN SERVICE","MAX_VOLT":null,"CITY":"","COUNTY":"","ZIP":"","LINES":null,"SOURCE":"OpenStreetMap"}},{"type":"Feature","geometry":{"type":"Point","coordinates":[-81.5182454,44.0364198]},"properties":{"NAME":"OSM-1309577519","STATE":"","TYPE":"SUBSTATION","STATUS":"IN SERVICE","MAX_VOLT":null,"CITY":"","COUNTY":"","ZIP":"","LINES":null,"SOURCE":"OpenStreetMap"}},{"type":"Feature","geometry":{"type":"Point","coordinates":[-81.6132019,43.2553695]},"properties":{"NAME":"OSM-1316552678","STATE":"","TYPE":"SUBSTATION","STATUS":"IN SERVICE","MAX_VOLT":null,"CITY":"","COUNTY":"","ZIP":"","LINES":null,"SOURCE":"OpenStreetMap"}},{"type":"Feature","geometry":{"type":"Point","coordinates":[-81.6913825,43.7764936]},"properties":{"NAME":"OSM-1317244347","STATE":"","TYPE":"SUBSTATION","STATUS":"IN SERVICE","MAX_VOLT":null,"CITY":"","COUNTY":"","ZIP":"","LINES":null,"SOURCE":"OpenStreetMap"}},{"type":"Feature","geometry":{"type":"Point","coordinates":[-81.6596979,43.8512967]},"properties":{"NAME":"OSM-1326630734","STATE":"","TYPE":"SUBSTATION","STATUS":"IN SERVICE","MAX_VOLT":null,"CITY":"","COUNTY":"","ZIP":"","LINES":null,"SOURCE":"OpenStreetMap"}},{"type":"Feature","geometry":{"type":"Point","coordinates":[-93.4280779,44.9063338]},"properties":{"NAME":"OSM-1368320171","STATE":"","TYPE":"DISTRIBUTION","STATUS":"IN SERVICE","MAX_VOLT":null,"CITY":"","COUNTY":"","ZIP":"","LINES":null,"SOURCE":"OpenStreetMap"}},{"type":"Feature","geometry":{"type":"Point","coordinates":[-82.1608423,45.8267529]},"properties":{"NAME":"OSM-1390986790","STATE":"","TYPE":"SUBSTATION","STATUS":"IN SERVICE","MAX_VOLT":null,"CITY":"","COUNTY":"","ZIP":"","LINES":null,"SOURCE":"OpenStreetMap"}},{"type":"Feature","geometry":{"type":"Point","coordinates":[-92.9174204,44.5065905]},"properties":{"NAME":"OSM-1614986995","STATE":"","TYPE":"SUBSTATION","STATUS":"IN SERVICE","MAX_VOLT":null,"CITY":"","COUNTY":"","ZIP":"","LINES":null,"SOURCE":"OpenStreetMap"}},{"type":"Feature","geometry":{"type":"Point","coordinates":[-93.412032,44.913096]},"properties":{"NAME":"OSM-1691530694","STATE":"","TYPE":"SUBSTATION","STATUS":"IN SERVICE","MAX_VOLT":null,"CITY":"","COUNTY":"","ZIP":"","LINES":null,"SOURCE":"OpenStreetMap"}},{"type":"Feature","geometry":{"type":"Point","coordinates":[-96.9740512,49.4401481]},"properties":{"NAME":"OSM-1694228629","STATE":"","TYPE":"SUBSTATION","STATUS":"IN SERVICE","MAX_VOLT":null,"CITY":"","COUNTY":"","ZIP":"","LINES":null,"SOURCE":"OpenStreetMap"}},{"type":"Feature","geometry":{"type":"Point","coordinates":[-81.1910557,43.0271806]},"properties":{"NAME":"London Hydro Substation 83","STATE":"","TYPE":"SUBSTATION","STATUS":"IN SERVICE","MAX_VOLT":null,"CITY":"","COUNTY":"","ZIP":"","LINES":null,"SOURCE":"OpenStreetMap"}},{"type":"Feature","geometry":{"type":"Point","coordinates":[-81.1905369,43.0306256]},"properties":{"NAME":"OSM-1737928730","STATE":"","TYPE":"SUBSTATION","STATUS":"IN SERVICE","MAX_VOLT":null,"CITY":"","COUNTY":"","ZIP":"","LINES":null,"SOURCE":"OpenStreetMap"}},{"type":"Feature","geometry":{"type":"Point","coordinates":[-81.2319761,43.0488661]},"properties":{"NAME":"OSM-1739274109","STATE":"","TYPE":"SUBSTATION","STATUS":"IN SERVICE","MAX_VOLT":null,"CITY":"","COUNTY":"","ZIP":"","LINES":null,"SOURCE":"OpenStreetMap"}},{"type":"Feature","geometry":{"type":"Point","coordinates":[-81.177924,43.0218638]},"properties":{"NAME":"OSM-1739305876","STATE":"","TYPE":"SUBSTATION","STATUS":"IN SERVICE","MAX_VOLT":null,"CITY":"","COUNTY":"","ZIP":"","LINES":null,"SOURCE":"OpenStreetMap"}},{"type":"Feature","geometry":{"type":"Point","coordinates":[-81.1843426,43.0233699]},"properties":{"NAME":"OSM-1739305931","STATE":"","TYPE":"SUBSTATION","STATUS":"IN SERVICE","MAX_VOLT":null,"CITY":"","COUNTY":"","ZIP":"","LINES":null,"SOURCE":"OpenStreetMap"}},{"type":"Feature","geometry":{"type":"Point","coordinates":[-81.0121715,43.1140144]},"properties":{"NAME":"OSM-1739843041","STATE":"","TYPE":"SUBSTATION","STATUS":"IN SERVICE","MAX_VOLT":null,"CITY":"","COUNTY":"","ZIP":"","LINES":null,"SOURCE":"OpenStreetMap"}},{"type":"Feature","geometry":{"type":"Point","coordinates":[-81.1081173,43.1143702]},"properties":{"NAME":"OSM-1739843048","STATE":"","TYPE":"SUBSTATION","STATUS":"IN SERVICE","MAX_VOLT":null,"CITY":"","COUNTY":"","ZIP":"","LINES":null,"SOURCE":"OpenStreetMap"}},{"type":"Feature","geometry":{"type":"Point","coordinates":[-80.6579747,42.7115845]},"properties":{"NAME":"OSM-1886104831","STATE":"","TYPE":"SUBSTATION","STATUS":"IN SERVICE","MAX_VOLT":null,"CITY":"","COUNTY":"","ZIP":"","LINES":null,"SOURCE":"OpenStreetMap"}},{"type":"Feature","geometry":{"type":"Point","coordinates":[-80.6771995,42.7359946]},"properties":{"NAME":"OSM-1886117816","STATE":"","TYPE":"SUBSTATION","STATUS":"IN SERVICE","MAX_VOLT":null,"CITY":"","COUNTY":"","ZIP":"","LINES":null,"SOURCE":"OpenStreetMap"}},{"type":"Feature","geometry":{"type":"Point","coordinates":[-81.723796,42.6621382]},"properties":{"NAME":"OSM-1916463043","STATE":"","TYPE":"SUBSTATION","STATUS":"IN SERVICE","MAX_VOLT":null,"CITY":"","COUNTY":"","ZIP":"","LINES":null,"SOURCE":"OpenStreetMap"}},{"type":"Feature","geometry":{"type":"Point","coordinates":[-81.7165227,42.7398936]},"properties":{"NAME":"OSM-1917807269","STATE":"","TYPE":"SUBSTATION","STATUS":"IN SERVICE","MAX_VOLT":null,"CITY":"","COUNTY":"","ZIP":"","LINES":null,"SOURCE":"OpenStreetMap"}},{"type":"Feature","geometry":{"type":"Point","coordinates":[-81.7122544,42.7473108]},"properties":{"NAME":"OSM-1917808591","STATE":"","TYPE":"SUBSTATION","STATUS":"IN SERVICE","MAX_VOLT":null,"CITY":"","COUNTY":"","ZIP":"","LINES":null,"SOURCE":"OpenStreetMap"}},{"type":"Feature","geometry":{"type":"Point","coordinates":[-81.8674424,42.8219928]},"properties":{"NAME":"OSM-1926056976","STATE":"","TYPE":"SUBSTATION","STATUS":"IN SERVICE","MAX_VOLT":null,"CITY":"","COUNTY":"","ZIP":"","LINES":null,"SOURCE":"OpenStreetMap"}},{"type":"Feature","geometry":{"type":"Point","coordinates":[-81.6313091,42.987135]},"properties":{"NAME":"OSM-1938683904","STATE":"","TYPE":"SUBSTATION","STATUS":"IN SERVICE","MAX_VOLT":null,"CITY":"","COUNTY":"","ZIP":"","LINES":null,"SOURCE":"OpenStreetMap"}},{"type":"Feature","geometry":{"type":"Point","coordinates":[-81.6332613,42.9603167]},"properties":{"NAME":"OSM-1938810524","STATE":"","TYPE":"SUBSTATION","STATUS":"IN SERVICE","MAX_VOLT":null,"CITY":"","COUNTY":"","ZIP":"","LINES":null,"SOURCE":"OpenStreetMap"}},{"type":"Feature","geometry":{"type":"Point","coordinates":[-81.6138108,42.9551717]},"properties":{"NAME":"OSM-1938988250","STATE":"","TYPE":"SUBSTATION","STATUS":"IN SERVICE","MAX_VOLT":null,"CITY":"","COUNTY":"","ZIP":"","LINES":null,"SOURCE":"OpenStreetMap"}},{"type":"Feature","geometry":{"type":"Point","coordinates":[-81.5005774,42.9036284]},"properties":{"NAME":"OSM-1940544084","STATE":"","TYPE":"SUBSTATION","STATUS":"IN SERVICE","MAX_VOLT":null,"CITY":"","COUNTY":"","ZIP":"","LINES":null,"SOURCE":"OpenStreetMap"}},{"type":"Feature","geometry":{"type":"Point","coordinates":[-81.4216816,42.9085516]},"properties":{"NAME":"OSM-1975443972","STATE":"","TYPE":"SUBSTATION","STATUS":"IN SERVICE","MAX_VOLT":null,"CITY":"","COUNTY":"","ZIP":"","LINES":null,"SOURCE":"OpenStreetMap"}},{"type":"Feature","geometry":{"type":"Point","coordinates":[-81.3793817,42.9150428]},"properties":{"NAME":"OSM-1976516274","STATE":"","TYPE":"SUBSTATION","STATUS":"IN SERVICE","MAX_VOLT":null,"CITY":"","COUNTY":"","ZIP":"","LINES":null,"SOURCE":"OpenStreetMap"}},{"type":"Feature","geometry":{"type":"Point","coordinates":[-81.3271433,42.9532277]},"properties":{"NAME":"OSM-1983662434","STATE":"","TYPE":"SUBSTATION","STATUS":"IN SERVICE","MAX_VOLT":null,"CITY":"","COUNTY":"","ZIP":"","LINES":null,"SOURCE":"OpenStreetMap"}},{"type":"Feature","geometry":{"type":"Point","coordinates":[-81.2305234,42.9771996]},"properties":{"NAME":"OSM-2016939837","STATE":"","TYPE":"SUBSTATION","STATUS":"IN SERVICE","MAX_VOLT":null,"CITY":"","COUNTY":"","ZIP":"","LINES":null,"SOURCE":"OpenStreetMap"}},{"type":"Feature","geometry":{"type":"Point","coordinates":[-80.7608028,42.9105843]},"properties":{"NAME":"OSM-2108165391","STATE":"","TYPE":"SUBSTATION","STATUS":"IN SERVICE","MAX_VOLT":null,"CITY":"","COUNTY":"","ZIP":"","LINES":null,"SOURCE":"OpenStreetMap"}},{"type":"Feature","geometry":{"type":"Point","coordinates":[-80.9394873,42.9350374]},"properties":{"NAME":"OSM-2108173147","STATE":"","TYPE":"SUBSTATION","STATUS":"IN SERVICE","MAX_VOLT":null,"CITY":"","COUNTY":"","ZIP":"","LINES":null,"SOURCE":"OpenStreetMap"}},{"type":"Feature","geometry":{"type":"Point","coordinates":[-80.5931769,42.9281933]},"properties":{"NAME":"OSM-2111600677","STATE":"","TYPE":"SUBSTATION","STATUS":"IN SERVICE","MAX_VOLT":null,"CITY":"","COUNTY":"","ZIP":"","LINES":null,"SOURCE":"OpenStreetMap"}},{"type":"Feature","geometry":{"type":"Point","coordinates":[-80.7154817,42.8229934]},"properties":{"NAME":"OSM-2111748139","STATE":"","TYPE":"SUBSTATION","STATUS":"IN SERVICE","MAX_VOLT":null,"CITY":"","COUNTY":"","ZIP":"","LINES":null,"SOURCE":"OpenStreetMap"}},{"type":"Feature","geometry":{"type":"Point","coordinates":[-80.7220021,42.8594169]},"properties":{"NAME":"OSM-2111777439","STATE":"","TYPE":"SUBSTATION","STATUS":"IN SERVICE","MAX_VOLT":null,"CITY":"","COUNTY":"","ZIP":"","LINES":null,"SOURCE":"OpenStreetMap"}},{"type":"Feature","geometry":{"type":"Point","coordinates":[-82.565237,42.0662947]},"properties":{"NAME":"OSM-2155307911","STATE":"","TYPE":"SUBSTATION","STATUS":"IN SERVICE","MAX_VOLT":null,"CITY":"","COUNTY":"","ZIP":"","LINES":null,"SOURCE":"OpenStreetMap"}},{"type":"Feature","geometry":{"type":"Point","coordinates":[-82.5888334,42.0332266]},"properties":{"NAME":"OSM-2156775419","STATE":"","TYPE":"SUBSTATION","STATUS":"IN SERVICE","MAX_VOLT":null,"CITY":"","COUNTY":"","ZIP":"","LINES":null,"SOURCE":"OpenStreetMap"}},{"type":"Feature","geometry":{"type":"Point","coordinates":[-82.5935001,42.0334255]},"properties":{"NAME":"OSM-2156775460","STATE":"","TYPE":"SUBSTATION","STATUS":"IN SERVICE","MAX_VOLT":null,"CITY":"","COUNTY":"","ZIP":"","LINES":null,"SOURCE":"OpenStreetMap"}},{"type":"Feature","geometry":{"type":"Point","coordinates":[-83.0843393,42.2155255]},"properties":{"NAME":"OSM-2158181226","STATE":"","TYPE":"SUBSTATION","STATUS":"IN SERVICE","MAX_VOLT":null,"CITY":"","COUNTY":"","ZIP":"","LINES":null,"SOURCE":"OpenStreetMap"}},{"type":"Feature","geometry":{"type":"Point","coordinates":[-83.0621118,42.1937713]},"properties":{"NAME":"OSM-2160162560","STATE":"","TYPE":"SUBSTATION","STATUS":"IN SERVICE","MAX_VOLT":null,"CITY":"","COUNTY":"","ZIP":"","LINES":null,"SOURCE":"OpenStreetMap"}},{"type":"Feature","geometry":{"type":"Point","coordinates":[-83.0701415,42.1409891]},"properties":{"NAME":"OSM-2160210171","STATE":"","TYPE":"SUBSTATION","STATUS":"IN SERVICE","MAX_VOLT":null,"CITY":"","COUNTY":"","ZIP":"","LINES":null,"SOURCE":"OpenStreetMap"}},{"type":"Feature","geometry":{"type":"Point","coordinates":[-82.9805694,42.2607982]},"properties":{"NAME":"OSM-2161930329","STATE":"","TYPE":"SUBSTATION","STATUS":"IN SERVICE","MAX_VOLT":null,"CITY":"","COUNTY":"","ZIP":"","LINES":null,"SOURCE":"OpenStreetMap"}},{"type":"Feature","geometry":{"type":"Point","coordinates":[-82.9966543,42.3113295]},"properties":{"NAME":"OSM-2166048019","STATE":"","TYPE":"SUBSTATION","STATUS":"IN SERVICE","MAX_VOLT":null,"CITY":"","COUNTY":"","ZIP":"","LINES":null,"SOURCE":"OpenStreetMap"}},{"type":"Feature","geometry":{"type":"Point","coordinates":[-82.9400277,42.327734]},"properties":{"NAME":"OSM-2168221593","STATE":"","TYPE":"SUBSTATION","STATUS":"IN SERVICE","MAX_VOLT":null,"CITY":"","COUNTY":"","ZIP":"","LINES":null,"SOURCE":"OpenStreetMap"}},{"type":"Feature","geometry":{"type":"Point","coordinates":[-82.1969909,42.3927228]},"properties":{"NAME":"OSM-2179189927","STATE":"","TYPE":"SUBSTATION","STATUS":"IN SERVICE","MAX_VOLT":null,"CITY":"","COUNTY":"","ZIP":"","LINES":null,"SOURCE":"OpenStreetMap"}},{"type":"Feature","geometry":{"type":"Point","coordinates":[-88.3888721,43.0203371]},"properties":{"NAME":"OSM-2189097087","STATE":"","TYPE":"SUBSTATION","STATUS":"IN SERVICE","MAX_VOLT":null,"CITY":"","COUNTY":"","ZIP":"","LINES":null,"SOURCE":"OpenStreetMap"}},{"type":"Feature","geometry":{"type":"Point","coordinates":[-82.4830029,42.6557855]},"properties":{"NAME":"OSM-2193395619","STATE":"","TYPE":"SUBSTATION","STATUS":"IN SERVICE","MAX_VOLT":null,"CITY":"","COUNTY":"","ZIP":"","LINES":null,"SOURCE":"OpenStreetMap"}},{"type":"Feature","geometry":{"type":"Point","coordinates":[-82.1815277,42.5958216]},"properties":{"NAME":"OSM-2202554256","STATE":"","TYPE":"SUBSTATION","STATUS":"IN SERVICE","MAX_VOLT":null,"CITY":"","COUNTY":"","ZIP":"","LINES":null,"SOURCE":"OpenStreetMap"}},{"type":"Feature","geometry":{"type":"Point","coordinates":[-82.4516547,42.8846441]},"properties":{"NAME":"OSM-2215319712","STATE":"","TYPE":"SUBSTATION","STATUS":"IN SERVICE","MAX_VOLT":null,"CITY":"","COUNTY":"","ZIP":"","LINES":null,"SOURCE":"OpenStreetMap"}},{"type":"Feature","geometry":{"type":"Point","coordinates":[-82.3780463,42.9588861]},"properties":{"NAME":"OSM-2217345878","STATE":"","TYPE":"SUBSTATION","STATUS":"IN SERVICE","MAX_VOLT":null,"CITY":"","COUNTY":"","ZIP":"","LINES":null,"SOURCE":"OpenStreetMap"}},{"type":"Feature","geometry":{"type":"Point","coordinates":[-82.3633683,42.9534205]},"properties":{"NAME":"OSM-2217640726","STATE":"","TYPE":"SUBSTATION","STATUS":"IN SERVICE","MAX_VOLT":null,"CITY":"","COUNTY":"","ZIP":"","LINES":null,"SOURCE":"OpenStreetMap"}},{"type":"Feature","geometry":{"type":"Point","coordinates":[-82.1485588,42.8858879]},"properties":{"NAME":"OSM-2223358393","STATE":"","TYPE":"SUBSTATION","STATUS":"IN SERVICE","MAX_VOLT":null,"CITY":"","COUNTY":"","ZIP":"","LINES":null,"SOURCE":"OpenStreetMap"}},{"type":"Feature","geometry":{"type":"Point","coordinates":[-82.153309,42.9070591]},"properties":{"NAME":"OSM-2223366081","STATE":"","TYPE":"SUBSTATION","STATUS":"IN SERVICE","MAX_VOLT":null,"CITY":"","COUNTY":"","ZIP":"","LINES":null,"SOURCE":"OpenStreetMap"}},{"type":"Feature","geometry":{"type":"Point","coordinates":[-82.1174506,42.9306965]},"properties":{"NAME":"OSM-2232740786","STATE":"","TYPE":"SUBSTATION","STATUS":"IN SERVICE","MAX_VOLT":null,"CITY":"","COUNTY":"","ZIP":"","LINES":null,"SOURCE":"OpenStreetMap"}},{"type":"Feature","geometry":{"type":"Point","coordinates":[-80.8759362,43.0509033]},"properties":{"NAME":"OSM-2276362869","STATE":"","TYPE":"SUBSTATION","STATUS":"IN SERVICE","MAX_VOLT":null,"CITY":"","COUNTY":"","ZIP":"","LINES":null,"SOURCE":"OpenStreetMap"}},{"type":"Feature","geometry":{"type":"Point","coordinates":[-80.995493,43.058102]},"properties":{"NAME":"OSM-2276364143","STATE":"","TYPE":"SUBSTATION","STATUS":"IN SERVICE","MAX_VOLT":null,"CITY":"","COUNTY":"","ZIP":"","LINES":null,"SOURCE":"OpenStreetMap"}},{"type":"Feature","geometry":{"type":"Point","coordinates":[-80.927101,43.2001677]},"properties":{"NAME":"OSM-2322183620","STATE":"","TYPE":"SUBSTATION","STATUS":"IN SERVICE","MAX_VOLT":null,"CITY":"","COUNTY":"","ZIP":"","LINES":null,"SOURCE":"OpenStreetMap"}},{"type":"Feature","geometry":{"type":"Point","coordinates":[-80.7882529,43.1834921]},"properties":{"NAME":"OSM-2323834805","STATE":"","TYPE":"SUBSTATION","STATUS":"IN SERVICE","MAX_VOLT":null,"CITY":"","COUNTY":"","ZIP":"","LINES":null,"SOURCE":"OpenStreetMap"}},{"type":"Feature","geometry":{"type":"Point","coordinates":[-80.5544425,43.24903]},"properties":{"NAME":"OSM-2338814944","STATE":"","TYPE":"SUBSTATION","STATUS":"IN SERVICE","MAX_VOLT":null,"CITY":"","COUNTY":"","ZIP":"","LINES":null,"SOURCE":"OpenStreetMap"}},{"type":"Feature","geometry":{"type":"Point","coordinates":[-80.601,43.0019102]},"properties":{"NAME":"OSM-2342828691","STATE":"","TYPE":"SUBSTATION","STATUS":"IN SERVICE","MAX_VOLT":null,"CITY":"","COUNTY":"","ZIP":"","LINES":null,"SOURCE":"OpenStreetMap"}},{"type":"Feature","geometry":{"type":"Point","coordinates":[-81.2846548,44.0020771]},"properties":{"NAME":"OSM-2359541177","STATE":"","TYPE":"SUBSTATION","STATUS":"IN SERVICE","MAX_VOLT":null,"CITY":"","COUNTY":"","ZIP":"","LINES":null,"SOURCE":"OpenStreetMap"}},{"type":"Feature","geometry":{"type":"Point","coordinates":[-81.0315076,44.1565063]},"properties":{"NAME":"OSM-2366447012","STATE":"","TYPE":"SUBSTATION","STATUS":"IN SERVICE","MAX_VOLT":null,"CITY":"","COUNTY":"","ZIP":"","LINES":null,"SOURCE":"OpenStreetMap"}},{"type":"Feature","geometry":{"type":"Point","coordinates":[-81.6932393,44.0729684]},"properties":{"NAME":"OSM-2374428282","STATE":"","TYPE":"SUBSTATION","STATUS":"IN SERVICE","MAX_VOLT":null,"CITY":"","COUNTY":"","ZIP":"","LINES":null,"SOURCE":"OpenStreetMap"}},{"type":"Feature","geometry":{"type":"Point","coordinates":[-80.5385804,44.3842478]},"properties":{"NAME":"OSM-2390110600","STATE":"","TYPE":"SUBSTATION","STATUS":"IN SERVICE","MAX_VOLT":null,"CITY":"","COUNTY":"","ZIP":"","LINES":null,"SOURCE":"OpenStreetMap"}},{"type":"Feature","geometry":{"type":"Point","coordinates":[-81.2644673,44.628253]},"properties":{"NAME":"OSM-2411600840","STATE":"","TYPE":"SUBSTATION","STATUS":"IN SERVICE","MAX_VOLT":null,"CITY":"","COUNTY":"","ZIP":"","LINES":null,"SOURCE":"OpenStreetMap"}},{"type":"Feature","geometry":{"type":"Point","coordinates":[-81.2452557,44.531922]},"properties":{"NAME":"OSM-2415458448","STATE":"","TYPE":"SUBSTATION","STATUS":"IN SERVICE","MAX_VOLT":null,"CITY":"","COUNTY":"","ZIP":"","LINES":null,"SOURCE":"OpenStreetMap"}},{"type":"Feature","geometry":{"type":"Point","coordinates":[-87.9541785,43.1477756]},"properties":{"NAME":"OSM-2417961537","STATE":"","TYPE":"SUBSTATION","STATUS":"IN SERVICE","MAX_VOLT":null,"CITY":"","COUNTY":"","ZIP":"","LINES":null,"SOURCE":"OpenStreetMap"}},{"type":"Feature","geometry":{"type":"Point","coordinates":[-81.7707485,46.0683521]},"properties":{"NAME":"OSM-2475963179","STATE":"","TYPE":"SUBSTATION","STATUS":"IN SERVICE","MAX_VOLT":null,"CITY":"","COUNTY":"","ZIP":"","LINES":null,"SOURCE":"OpenStreetMap"}},{"type":"Feature","geometry":{"type":"Point","coordinates":[-81.513455,46.3742861]},"properties":{"NAME":"OSM-2491806782","STATE":"","TYPE":"SUBSTATION","STATUS":"IN SERVICE","MAX_VOLT":null,"CITY":"","COUNTY":"","ZIP":"","LINES":null,"SOURCE":"OpenStreetMap"}},{"type":"Feature","geometry":{"type":"Point","coordinates":[-81.358544,46.4231657]},"properties":{"NAME":"OSM-2495594741","STATE":"","TYPE":"SUBSTATION","STATUS":"IN SERVICE","MAX_VOLT":null,"CITY":"","COUNTY":"","ZIP":"","LINES":null,"SOURCE":"OpenStreetMap"}},{"type":"Feature","geometry":{"type":"Point","coordinates":[-80.9339655,46.4372542]},"properties":{"NAME":"OSM-2502328821","STATE":"","TYPE":"SUBSTATION","STATUS":"IN SERVICE","MAX_VOLT":null,"CITY":"","COUNTY":"","ZIP":"","LINES":null,"SOURCE":"OpenStreetMap"}},{"type":"Feature","geometry":{"type":"Point","coordinates":[-80.9761398,46.6082286]},"properties":{"NAME":"OSM-2536598829","STATE":"","TYPE":"SUBSTATION","STATUS":"IN SERVICE","MAX_VOLT":null,"CITY":"","COUNTY":"","ZIP":"","LINES":null,"SOURCE":"OpenStreetMap"}},{"type":"Feature","geometry":{"type":"Point","coordinates":[-80.9453684,46.6448185]},"properties":{"NAME":"OSM-2537392577","STATE":"","TYPE":"SUBSTATION","STATUS":"IN SERVICE","MAX_VOLT":null,"CITY":"","COUNTY":"","ZIP":"","LINES":null,"SOURCE":"OpenStreetMap"}},{"type":"Feature","geometry":{"type":"Point","coordinates":[-80.7103529,46.5205478]},"properties":{"NAME":"OSM-2548986456","STATE":"","TYPE":"SUBSTATION","STATUS":"IN SERVICE","MAX_VOLT":null,"CITY":"","COUNTY":"","ZIP":"","LINES":null,"SOURCE":"OpenStreetMap"}},{"type":"Feature","geometry":{"type":"Point","coordinates":[-81.383473,46.6462429]},"properties":{"NAME":"OSM-2554934839","STATE":"","TYPE":"SUBSTATION","STATUS":"IN SERVICE","MAX_VOLT":null,"CITY":"","COUNTY":"","ZIP":"","LINES":null,"SOURCE":"OpenStreetMap"}},{"type":"Feature","geometry":{"type":"Point","coordinates":[-81.3437188,46.6382938]},"properties":{"NAME":"OSM-2555104473","STATE":"","TYPE":"SUBSTATION","STATUS":"IN SERVICE","MAX_VOLT":null,"CITY":"","COUNTY":"","ZIP":"","LINES":null,"SOURCE":"OpenStreetMap"}},{"type":"Feature","geometry":{"type":"Point","coordinates":[-81.0156386,46.6529858]},"properties":{"NAME":"OSM-2560816878","STATE":"","TYPE":"SUBSTATION","STATUS":"IN SERVICE","MAX_VOLT":null,"CITY":"","COUNTY":"","ZIP":"","LINES":null,"SOURCE":"OpenStreetMap"}},{"type":"Feature","geometry":{"type":"Point","coordinates":[-82.6514544,46.3793712]},"properties":{"NAME":"OSM-2648994166","STATE":"","TYPE":"SUBSTATION","STATUS":"IN SERVICE","MAX_VOLT":null,"CITY":"","COUNTY":"","ZIP":"","LINES":null,"SOURCE":"OpenStreetMap"}},{"type":"Feature","geometry":{"type":"Point","coordinates":[-84.3840331,46.5526701]},"properties":{"NAME":"OSM-2703384742","STATE":"","TYPE":"SUBSTATION","STATUS":"IN SERVICE","MAX_VOLT":null,"CITY":"","COUNTY":"","ZIP":"","LINES":null,"SOURCE":"OpenStreetMap"}},{"type":"Feature","geometry":{"type":"Point","coordinates":[-82.7419071,47.5977133]},"properties":{"NAME":"OSM-2956562417","STATE":"","TYPE":"SUBSTATION","STATUS":"IN SERVICE","MAX_VOLT":null,"CITY":"","COUNTY":"","ZIP":"","LINES":null,"SOURCE":"OpenStreetMap"}},{"type":"Feature","geometry":{"type":"Point","coordinates":[-83.4128122,47.8423649]},"properties":{"NAME":"OSM-2965359872","STATE":"","TYPE":"SUBSTATION","STATUS":"IN SERVICE","MAX_VOLT":null,"CITY":"","COUNTY":"","ZIP":"","LINES":null,"SOURCE":"OpenStreetMap"}},{"type":"Feature","geometry":{"type":"Point","coordinates":[-81.4511451,48.4690039]},"properties":{"NAME":"OSM-3014600534","STATE":"","TYPE":"SUBSTATION","STATUS":"IN SERVICE","MAX_VOLT":null,"CITY":"","COUNTY":"","ZIP":"","LINES":null,"SOURCE":"OpenStreetMap"}},{"type":"Feature","geometry":{"type":"Point","coordinates":[-81.328178,48.4819289]},"properties":{"NAME":"OSM-3015562797","STATE":"","TYPE":"SUBSTATION","STATUS":"IN SERVICE","MAX_VOLT":null,"CITY":"","COUNTY":"","ZIP":"","LINES":null,"SOURCE":"OpenStreetMap"}},{"type":"Feature","geometry":{"type":"Point","coordinates":[-84.0625263,48.3146864]},"properties":{"NAME":"OSM-3117652066","STATE":"","TYPE":"SUBSTATION","STATUS":"IN SERVICE","MAX_VOLT":null,"CITY":"","COUNTY":"","ZIP":"","LINES":null,"SOURCE":"OpenStreetMap"}},{"type":"Feature","geometry":{"type":"Point","coordinates":[-84.779016,49.2127646]},"properties":{"NAME":"OSM-3167874748","STATE":"","TYPE":"SUBSTATION","STATUS":"IN SERVICE","MAX_VOLT":null,"CITY":"","COUNTY":"","ZIP":"","LINES":null,"SOURCE":"OpenStreetMap"}},{"type":"Feature","geometry":{"type":"Point","coordinates":[-80.5482025,43.3602665]},"properties":{"NAME":"OSM-3317171503","STATE":"","TYPE":"SUBSTATION","STATUS":"IN SERVICE","MAX_VOLT":null,"CITY":"","COUNTY":"","ZIP":"","LINES":null,"SOURCE":"OpenStreetMap"}},{"type":"Feature","geometry":{"type":"Point","coordinates":[-81.9882956,49.3030789]},"properties":{"NAME":"OSM-3327725515","STATE":"","TYPE":"SUBSTATION","STATUS":"IN SERVICE","MAX_VOLT":null,"CITY":"","COUNTY":"","ZIP":"","LINES":null,"SOURCE":"OpenStreetMap"}},{"type":"Feature","geometry":{"type":"Point","coordinates":[-87.9173984,43.0364178]},"properties":{"NAME":"Everett Substation","STATE":"WI","TYPE":"SUBSTATION","STATUS":"IN SERVICE","MAX_VOLT":null,"CITY":"Milwaukee","COUNTY":"","ZIP":"53203","LINES":null,"SOURCE":"OpenStreetMap"}},{"type":"Feature","geometry":{"type":"Point","coordinates":[-82.5941652,41.3976049]},"properties":{"NAME":"BGSU Substation","STATE":"","TYPE":"SUBSTATION","STATUS":"IN SERVICE","MAX_VOLT":null,"CITY":"","COUNTY":"","ZIP":"","LINES":null,"SOURCE":"OpenStreetMap"}},{"type":"Feature","geometry":{"type":"Point","coordinates":[-90.9749217,38.5424336]},"properties":{"NAME":"OSM-4854203553","STATE":"","TYPE":"MINOR_DISTRIBUTION","STATUS":"IN SERVICE","MAX_VOLT":null,"CITY":"","COUNTY":"","ZIP":"","LINES":null,"SOURCE":"OpenStreetMap"}},{"type":"Feature","geometry":{"type":"Point","coordinates":[-84.5652846,39.2962603]},"properties":{"NAME":"OSM-5463269477","STATE":"","TYPE":"SUBSTATION","STATUS":"IN SERVICE","MAX_VOLT":null,"CITY":"","COUNTY":"","ZIP":"","LINES":null,"SOURCE":"OpenStreetMap"}},{"type":"Feature","geometry":{"type":"Point","coordinates":[-88.0780323,43.1928101]},"properties":{"NAME":"OSM-5682968670","STATE":"","TYPE":"SUBSTATION","STATUS":"IN SERVICE","MAX_VOLT":null,"CITY":"","COUNTY":"","ZIP":"","LINES":null,"SOURCE":"OpenStreetMap"}},{"type":"Feature","geometry":{"type":"Point","coordinates":[-88.0780672,43.1933362]},"properties":{"NAME":"OSM-5682968674","STATE":"","TYPE":"SUBSTATION","STATUS":"IN SERVICE","MAX_VOLT":null,"CITY":"","COUNTY":"","ZIP":"","LINES":null,"SOURCE":"OpenStreetMap"}},{"type":"Feature","geometry":{"type":"Point","coordinates":[-80.5451008,43.4729337]},"properties":{"NAME":"OSM-6580414018","STATE":"","TYPE":"SUBSTATION","STATUS":"IN SERVICE","MAX_VOLT":null,"CITY":"","COUNTY":"","ZIP":"","LINES":null,"SOURCE":"OpenStreetMap"}},{"type":"Feature","geometry":{"type":"Point","coordinates":[-95.7659726,44.4421215]},"properties":{"NAME":"OSM-7576375930","STATE":"","TYPE":"MINOR_DISTRIBUTION","STATUS":"IN SERVICE","MAX_VOLT":14,"CITY":"","COUNTY":"","ZIP":"","LINES":null,"SOURCE":"OpenStreetMap"}},{"type":"Feature","geometry":{"type":"Point","coordinates":[-95.7656178,44.4392938]},"properties":{"NAME":"OSM-7576375931","STATE":"","TYPE":"MINOR_DISTRIBUTION","STATUS":"IN SERVICE","MAX_VOLT":14,"CITY":"","COUNTY":"","ZIP":"","LINES":null,"SOURCE":"OpenStreetMap"}},{"type":"Feature","geometry":{"type":"Point","coordinates":[-95.7659995,44.4432502]},"properties":{"NAME":"OSM-7576375932","STATE":"","TYPE":"MINOR_DISTRIBUTION","STATUS":"IN SERVICE","MAX_VOLT":14,"CITY":"","COUNTY":"","ZIP":"","LINES":null,"SOURCE":"OpenStreetMap"}},{"type":"Feature","geometry":{"type":"Point","coordinates":[-95.7946531,44.4494995]},"properties":{"NAME":"OSM-7576410806","STATE":"","TYPE":"MINOR_DISTRIBUTION","STATUS":"IN SERVICE","MAX_VOLT":14,"CITY":"","COUNTY":"","ZIP":"","LINES":null,"SOURCE":"OpenStreetMap"}},{"type":"Feature","geometry":{"type":"Point","coordinates":[-95.7930413,44.4506894]},"properties":{"NAME":"OSM-7576410807","STATE":"","TYPE":"MINOR_DISTRIBUTION","STATUS":"IN SERVICE","MAX_VOLT":14,"CITY":"","COUNTY":"","ZIP":"","LINES":null,"SOURCE":"OpenStreetMap"}},{"type":"Feature","geometry":{"type":"Point","coordinates":[-95.7923806,44.4502657]},"properties":{"NAME":"OSM-7576410808","STATE":"","TYPE":"MINOR_DISTRIBUTION","STATUS":"IN SERVICE","MAX_VOLT":14,"CITY":"","COUNTY":"","ZIP":"","LINES":null,"SOURCE":"OpenStreetMap"}},{"type":"Feature","geometry":{"type":"Point","coordinates":[-95.7660175,44.4467972]},"properties":{"NAME":"OSM-7576415850","STATE":"","TYPE":"MINOR_DISTRIBUTION","STATUS":"IN SERVICE","MAX_VOLT":14,"CITY":"","COUNTY":"","ZIP":"","LINES":null,"SOURCE":"OpenStreetMap"}},{"type":"Feature","geometry":{"type":"Point","coordinates":[-95.7660154,44.4497067]},"properties":{"NAME":"OSM-7576415851","STATE":"","TYPE":"MINOR_DISTRIBUTION","STATUS":"IN SERVICE","MAX_VOLT":14,"CITY":"","COUNTY":"","ZIP":"","LINES":null,"SOURCE":"OpenStreetMap"}},{"type":"Feature","geometry":{"type":"Point","coordinates":[-95.8067895,44.4503829]},"properties":{"NAME":"OSM-7578155955","STATE":"","TYPE":"MINOR_DISTRIBUTION","STATUS":"IN SERVICE","MAX_VOLT":14,"CITY":"","COUNTY":"","ZIP":"","LINES":null,"SOURCE":"OpenStreetMap"}},{"type":"Feature","geometry":{"type":"Point","coordinates":[-95.7857568,44.442765]},"properties":{"NAME":"OSM-7683047919","STATE":"","TYPE":"MINOR_DISTRIBUTION","STATUS":"IN SERVICE","MAX_VOLT":14,"CITY":"","COUNTY":"","ZIP":"","LINES":null,"SOURCE":"OpenStreetMap"}},{"type":"Feature","geometry":{"type":"Point","coordinates":[-95.7589591,44.4516619]},"properties":{"NAME":"OSM-7683334363","STATE":"","TYPE":"MINOR_DISTRIBUTION","STATUS":"IN SERVICE","MAX_VOLT":14,"CITY":"","COUNTY":"","ZIP":"","LINES":null,"SOURCE":"OpenStreetMap"}},{"type":"Feature","geometry":{"type":"Point","coordinates":[-95.8069742,44.456553]},"properties":{"NAME":"OSM-7683371831","STATE":"","TYPE":"MINOR_DISTRIBUTION","STATUS":"IN SERVICE","MAX_VOLT":14,"CITY":"","COUNTY":"","ZIP":"","LINES":null,"SOURCE":"OpenStreetMap"}},{"type":"Feature","geometry":{"type":"Point","coordinates":[-95.8068828,44.4532681]},"properties":{"NAME":"OSM-7683371832","STATE":"","TYPE":"MINOR_DISTRIBUTION","STATUS":"IN SERVICE","MAX_VOLT":14,"CITY":"","COUNTY":"","ZIP":"","LINES":null,"SOURCE":"OpenStreetMap"}},{"type":"Feature","geometry":{"type":"Point","coordinates":[-95.7623178,44.4516559]},"properties":{"NAME":"OSM-7683373140","STATE":"","TYPE":"MINOR_DISTRIBUTION","STATUS":"IN SERVICE","MAX_VOLT":14,"CITY":"","COUNTY":"","ZIP":"","LINES":null,"SOURCE":"OpenStreetMap"}},{"type":"Feature","geometry":{"type":"Point","coordinates":[-95.8063149,44.4432399]},"properties":{"NAME":"OSM-7683797256","STATE":"","TYPE":"MINOR_DISTRIBUTION","STATUS":"IN SERVICE","MAX_VOLT":14,"CITY":"","COUNTY":"","ZIP":"","LINES":null,"SOURCE":"OpenStreetMap"}},{"type":"Feature","geometry":{"type":"Point","coordinates":[-95.8062662,44.4432395]},"properties":{"NAME":"OSM-7683797257","STATE":"","TYPE":"MINOR_DISTRIBUTION","STATUS":"IN SERVICE","MAX_VOLT":14,"CITY":"","COUNTY":"","ZIP":"","LINES":null,"SOURCE":"OpenStreetMap"}},{"type":"Feature","geometry":{"type":"Point","coordinates":[-95.8163672,44.4428772]},"properties":{"NAME":"OSM-7683797258","STATE":"","TYPE":"MINOR_DISTRIBUTION","STATUS":"IN SERVICE","MAX_VOLT":14,"CITY":"","COUNTY":"","ZIP":"","LINES":null,"SOURCE":"OpenStreetMap"}},{"type":"Feature","geometry":{"type":"Point","coordinates":[-95.8163694,44.4386663]},"properties":{"NAME":"OSM-7683797259","STATE":"","TYPE":"MINOR_DISTRIBUTION","STATUS":"IN SERVICE","MAX_VOLT":14,"CITY":"","COUNTY":"","ZIP":"","LINES":null,"SOURCE":"OpenStreetMap"}},{"type":"Feature","geometry":{"type":"Point","coordinates":[-95.8163612,44.4304428]},"properties":{"NAME":"OSM-7683797260","STATE":"","TYPE":"MINOR_DISTRIBUTION","STATUS":"IN SERVICE","MAX_VOLT":14,"CITY":"","COUNTY":"","ZIP":"","LINES":null,"SOURCE":"OpenStreetMap"}},{"type":"Feature","geometry":{"type":"Point","coordinates":[-95.8063702,44.4295938]},"properties":{"NAME":"OSM-7683797261","STATE":"","TYPE":"MINOR_DISTRIBUTION","STATUS":"IN SERVICE","MAX_VOLT":14,"CITY":"","COUNTY":"","ZIP":"","LINES":null,"SOURCE":"OpenStreetMap"}},{"type":"Feature","geometry":{"type":"Point","coordinates":[-95.7655867,44.4406622]},"properties":{"NAME":"OSM-7704049032","STATE":"","TYPE":"MINOR_DISTRIBUTION","STATUS":"IN SERVICE","MAX_VOLT":14,"CITY":"","COUNTY":"","ZIP":"","LINES":null,"SOURCE":"OpenStreetMap"}},{"type":"Feature","geometry":{"type":"Point","coordinates":[-95.7814312,44.4699686]},"properties":{"NAME":"OSM-7776223468","STATE":"","TYPE":"MINOR_DISTRIBUTION","STATUS":"IN SERVICE","MAX_VOLT":14,"CITY":"","COUNTY":"","ZIP":"","LINES":null,"SOURCE":"OpenStreetMap"}},{"type":"Feature","geometry":{"type":"Point","coordinates":[-95.7854067,44.4649497]},"properties":{"NAME":"OSM-7776223469","STATE":"","TYPE":"MINOR_DISTRIBUTION","STATUS":"IN SERVICE","MAX_VOLT":14,"CITY":"","COUNTY":"","ZIP":"","LINES":null,"SOURCE":"OpenStreetMap"}},{"type":"Feature","geometry":{"type":"Point","coordinates":[-95.7864343,44.4636298]},"properties":{"NAME":"OSM-7776223470","STATE":"","TYPE":"MINOR_DISTRIBUTION","STATUS":"IN SERVICE","MAX_VOLT":14,"CITY":"","COUNTY":"","ZIP":"","LINES":null,"SOURCE":"OpenStreetMap"}},{"type":"Feature","geometry":{"type":"Point","coordinates":[-95.7877792,44.4619431]},"properties":{"NAME":"OSM-7776223471","STATE":"","TYPE":"MINOR_DISTRIBUTION","STATUS":"IN SERVICE","MAX_VOLT":14,"CITY":"","COUNTY":"","ZIP":"","LINES":null,"SOURCE":"OpenStreetMap"}},{"type":"Feature","geometry":{"type":"Point","coordinates":[-95.7888124,44.4606799]},"properties":{"NAME":"OSM-7776223472","STATE":"","TYPE":"MINOR_DISTRIBUTION","STATUS":"IN SERVICE","MAX_VOLT":14,"CITY":"","COUNTY":"","ZIP":"","LINES":null,"SOURCE":"OpenStreetMap"}},{"type":"Feature","geometry":{"type":"Point","coordinates":[-95.7827688,44.4402293]},"properties":{"NAME":"OSM-7776272127","STATE":"","TYPE":"MINOR_DISTRIBUTION","STATUS":"IN SERVICE","MAX_VOLT":14,"CITY":"","COUNTY":"","ZIP":"","LINES":null,"SOURCE":"OpenStreetMap"}},{"type":"Feature","geometry":{"type":"Point","coordinates":[-95.7899185,44.4594407]},"properties":{"NAME":"OSM-7776678886","STATE":"","TYPE":"MINOR_DISTRIBUTION","STATUS":"IN SERVICE","MAX_VOLT":14,"CITY":"","COUNTY":"","ZIP":"","LINES":null,"SOURCE":"OpenStreetMap"}},{"type":"Feature","geometry":{"type":"Point","coordinates":[-95.7921007,44.4579023]},"properties":{"NAME":"OSM-7776678887","STATE":"","TYPE":"MINOR_DISTRIBUTION","STATUS":"IN SERVICE","MAX_VOLT":14,"CITY":"","COUNTY":"","ZIP":"","LINES":null,"SOURCE":"OpenStreetMap"}},{"type":"Feature","geometry":{"type":"Point","coordinates":[-95.794899,44.4523944]},"properties":{"NAME":"OSM-7776678888","STATE":"","TYPE":"MINOR_DISTRIBUTION","STATUS":"IN SERVICE","MAX_VOLT":14,"CITY":"","COUNTY":"","ZIP":"","LINES":null,"SOURCE":"OpenStreetMap"}},{"type":"Feature","geometry":{"type":"Point","coordinates":[-95.7761142,44.4513074]},"properties":{"NAME":"OSM-7776678890","STATE":"","TYPE":"MINOR_DISTRIBUTION","STATUS":"IN SERVICE","MAX_VOLT":14,"CITY":"","COUNTY":"","ZIP":"","LINES":null,"SOURCE":"OpenStreetMap"}},{"type":"Feature","geometry":{"type":"Point","coordinates":[-95.7760612,44.4513099]},"properties":{"NAME":"OSM-7776678891","STATE":"","TYPE":"MINOR_DISTRIBUTION","STATUS":"IN SERVICE","MAX_VOLT":14,"CITY":"","COUNTY":"","ZIP":"","LINES":null,"SOURCE":"OpenStreetMap"}},{"type":"Feature","geometry":{"type":"Point","coordinates":[-95.7657043,44.4359482]},"properties":{"NAME":"OSM-7779593484","STATE":"","TYPE":"MINOR_DISTRIBUTION","STATUS":"IN SERVICE","MAX_VOLT":14,"CITY":"","COUNTY":"","ZIP":"","LINES":null,"SOURCE":"OpenStreetMap"}},{"type":"Feature","geometry":{"type":"Point","coordinates":[-95.7656792,44.4334884]},"properties":{"NAME":"OSM-7779637685","STATE":"","TYPE":"MINOR_DISTRIBUTION","STATUS":"IN SERVICE","MAX_VOLT":14,"CITY":"","COUNTY":"","ZIP":"","LINES":null,"SOURCE":"OpenStreetMap"}},{"type":"Feature","geometry":{"type":"Point","coordinates":[-95.765641,44.4306292]},"properties":{"NAME":"OSM-7779637686","STATE":"","TYPE":"MINOR_DISTRIBUTION","STATUS":"IN SERVICE","MAX_VOLT":14,"CITY":"","COUNTY":"","ZIP":"","LINES":null,"SOURCE":"OpenStreetMap"}},{"type":"Feature","geometry":{"type":"Point","coordinates":[-95.7545062,44.4484007]},"properties":{"NAME":"OSM-7797649845","STATE":"","TYPE":"MINOR_DISTRIBUTION","STATUS":"IN SERVICE","MAX_VOLT":14,"CITY":"","COUNTY":"","ZIP":"","LINES":null,"SOURCE":"OpenStreetMap"}},{"type":"Feature","geometry":{"type":"Point","coordinates":[-95.7990067,44.4707687]},"properties":{"NAME":"OSM-7816000436","STATE":"","TYPE":"MINOR_DISTRIBUTION","STATUS":"IN SERVICE","MAX_VOLT":14,"CITY":"","COUNTY":"","ZIP":"","LINES":null,"SOURCE":"OpenStreetMap"}},{"type":"Feature","geometry":{"type":"Point","coordinates":[-95.7962206,44.4680644]},"properties":{"NAME":"OSM-7816042436","STATE":"","TYPE":"MINOR_DISTRIBUTION","STATUS":"IN SERVICE","MAX_VOLT":14,"CITY":"","COUNTY":"","ZIP":"","LINES":null,"SOURCE":"OpenStreetMap"}},{"type":"Feature","geometry":{"type":"Point","coordinates":[-95.8071453,44.4588473]},"properties":{"NAME":"OSM-8112454228","STATE":"","TYPE":"MINOR_DISTRIBUTION","STATUS":"IN SERVICE","MAX_VOLT":14,"CITY":"","COUNTY":"","ZIP":"","LINES":null,"SOURCE":"OpenStreetMap"}},{"type":"Feature","geometry":{"type":"Point","coordinates":[-95.7828846,44.4595818]},"properties":{"NAME":"OSM-8112454243","STATE":"","TYPE":"MINOR_DISTRIBUTION","STATUS":"IN SERVICE","MAX_VOLT":14,"CITY":"","COUNTY":"","ZIP":"","LINES":null,"SOURCE":"OpenStreetMap"}},{"type":"Feature","geometry":{"type":"Point","coordinates":[-95.7931254,44.4546836]},"properties":{"NAME":"OSM-8112454260","STATE":"","TYPE":"MINOR_DISTRIBUTION","STATUS":"IN SERVICE","MAX_VOLT":14,"CITY":"","COUNTY":"","ZIP":"","LINES":null,"SOURCE":"OpenStreetMap"}},{"type":"Feature","geometry":{"type":"Point","coordinates":[-95.7898057,44.4649318]},"properties":{"NAME":"OSM-8112454272","STATE":"","TYPE":"MINOR_DISTRIBUTION","STATUS":"IN SERVICE","MAX_VOLT":14,"CITY":"","COUNTY":"","ZIP":"","LINES":null,"SOURCE":"OpenStreetMap"}},{"type":"Feature","geometry":{"type":"Point","coordinates":[-95.800327,44.4705272]},"properties":{"NAME":"OSM-8112454281","STATE":"","TYPE":"MINOR_DISTRIBUTION","STATUS":"IN SERVICE","MAX_VOLT":14,"CITY":"","COUNTY":"","ZIP":"","LINES":null,"SOURCE":"OpenStreetMap"}},{"type":"Feature","geometry":{"type":"Point","coordinates":[-95.7759752,44.4348475]},"properties":{"NAME":"OSM-8112454286","STATE":"","TYPE":"MINOR_DISTRIBUTION","STATUS":"IN SERVICE","MAX_VOLT":14,"CITY":"","COUNTY":"","ZIP":"","LINES":null,"SOURCE":"OpenStreetMap"}},{"type":"Feature","geometry":{"type":"Point","coordinates":[-95.8030519,44.4432165]},"properties":{"NAME":"OSM-8112571981","STATE":"","TYPE":"MINOR_DISTRIBUTION","STATUS":"IN SERVICE","MAX_VOLT":14,"CITY":"","COUNTY":"","ZIP":"","LINES":null,"SOURCE":"OpenStreetMap"}},{"type":"Feature","geometry":{"type":"Point","coordinates":[-95.804439,44.4432407]},"properties":{"NAME":"OSM-8112571982","STATE":"","TYPE":"MINOR_DISTRIBUTION","STATUS":"IN SERVICE","MAX_VOLT":14,"CITY":"","COUNTY":"","ZIP":"","LINES":null,"SOURCE":"OpenStreetMap"}},{"type":"Feature","geometry":{"type":"Point","coordinates":[-95.7662432,44.4516491]},"properties":{"NAME":"OSM-8112571998","STATE":"","TYPE":"MINOR_DISTRIBUTION","STATUS":"IN SERVICE","MAX_VOLT":14,"CITY":"","COUNTY":"","ZIP":"","LINES":null,"SOURCE":"OpenStreetMap"}},{"type":"Feature","geometry":{"type":"Point","coordinates":[-95.7567401,44.4483841]},"properties":{"NAME":"OSM-8112572011","STATE":"","TYPE":"MINOR_DISTRIBUTION","STATUS":"IN SERVICE","MAX_VOLT":14,"CITY":"","COUNTY":"","ZIP":"","LINES":null,"SOURCE":"OpenStreetMap"}},{"type":"Feature","geometry":{"type":"Point","coordinates":[-95.7587777,44.449602]},"properties":{"NAME":"OSM-8112572012","STATE":"","TYPE":"MINOR_DISTRIBUTION","STATUS":"IN SERVICE","MAX_VOLT":14,"CITY":"","COUNTY":"","ZIP":"","LINES":null,"SOURCE":"OpenStreetMap"}},{"type":"Feature","geometry":{"type":"Point","coordinates":[-95.7498159,44.4508386]},"properties":{"NAME":"OSM-8112572013","STATE":"","TYPE":"MINOR_DISTRIBUTION","STATUS":"IN SERVICE","MAX_VOLT":14,"CITY":"","COUNTY":"","ZIP":"","LINES":null,"SOURCE":"OpenStreetMap"}},{"type":"Feature","geometry":{"type":"Point","coordinates":[-95.7533485,44.4508202]},"properties":{"NAME":"OSM-8112572014","STATE":"","TYPE":"MINOR_DISTRIBUTION","STATUS":"IN SERVICE","MAX_VOLT":14,"CITY":"","COUNTY":"","ZIP":"","LINES":null,"SOURCE":"OpenStreetMap"}},{"type":"Feature","geometry":{"type":"Point","coordinates":[-95.7740666,44.4513067]},"properties":{"NAME":"OSM-8112655295","STATE":"","TYPE":"MINOR_DISTRIBUTION","STATUS":"IN SERVICE","MAX_VOLT":14,"CITY":"","COUNTY":"","ZIP":"","LINES":null,"SOURCE":"OpenStreetMap"}},{"type":"Feature","geometry":{"type":"Point","coordinates":[-95.802038,44.4431892]},"properties":{"NAME":"OSM-8113203763","STATE":"","TYPE":"MINOR_DISTRIBUTION","STATUS":"IN SERVICE","MAX_VOLT":14,"CITY":"","COUNTY":"","ZIP":"","LINES":null,"SOURCE":"OpenStreetMap"}},{"type":"Feature","geometry":{"type":"Point","coordinates":[-95.8167278,44.439178]},"properties":{"NAME":"OSM-8117459565","STATE":"","TYPE":"MINOR_DISTRIBUTION","STATUS":"IN SERVICE","MAX_VOLT":14,"CITY":"","COUNTY":"","ZIP":"","LINES":null,"SOURCE":"OpenStreetMap"}},{"type":"Feature","geometry":{"type":"Point","coordinates":[-95.7864743,44.4596323]},"properties":{"NAME":"OSM-8119759174","STATE":"","TYPE":"MINOR_DISTRIBUTION","STATUS":"IN SERVICE","MAX_VOLT":14,"CITY":"","COUNTY":"","ZIP":"","LINES":null,"SOURCE":"OpenStreetMap"}},{"type":"Feature","geometry":{"type":"Point","coordinates":[-95.794922,44.4649124]},"properties":{"NAME":"OSM-8119759176","STATE":"","TYPE":"MINOR_DISTRIBUTION","STATUS":"IN SERVICE","MAX_VOLT":14,"CITY":"","COUNTY":"","ZIP":"","LINES":null,"SOURCE":"OpenStreetMap"}},{"type":"Feature","geometry":{"type":"Point","coordinates":[-95.7910117,44.4712867]},"properties":{"NAME":"OSM-8119810100","STATE":"","TYPE":"MINOR_DISTRIBUTION","STATUS":"IN SERVICE","MAX_VOLT":14,"CITY":"","COUNTY":"","ZIP":"","LINES":null,"SOURCE":"OpenStreetMap"}},{"type":"Feature","geometry":{"type":"Point","coordinates":[-95.7510465,44.450825]},"properties":{"NAME":"OSM-8119855920","STATE":"","TYPE":"MINOR_DISTRIBUTION","STATUS":"IN SERVICE","MAX_VOLT":14,"CITY":"","COUNTY":"","ZIP":"","LINES":null,"SOURCE":"OpenStreetMap"}},{"type":"Feature","geometry":{"type":"Point","coordinates":[-95.7713372,44.4576565]},"properties":{"NAME":"OSM-8139968608","STATE":"","TYPE":"MINOR_DISTRIBUTION","STATUS":"IN SERVICE","MAX_VOLT":14,"CITY":"","COUNTY":"","ZIP":"","LINES":null,"SOURCE":"OpenStreetMap"}},{"type":"Feature","geometry":{"type":"Point","coordinates":[-95.7693716,44.4576614]},"properties":{"NAME":"OSM-8139968609","STATE":"","TYPE":"MINOR_DISTRIBUTION","STATUS":"IN SERVICE","MAX_VOLT":14,"CITY":"","COUNTY":"","ZIP":"","LINES":null,"SOURCE":"OpenStreetMap"}},{"type":"Feature","geometry":{"type":"Point","coordinates":[-95.7720408,44.4513164]},"properties":{"NAME":"OSM-8139968610","STATE":"","TYPE":"MINOR_DISTRIBUTION","STATUS":"IN SERVICE","MAX_VOLT":14,"CITY":"","COUNTY":"","ZIP":"","LINES":null,"SOURCE":"OpenStreetMap"}},{"type":"Feature","geometry":{"type":"Point","coordinates":[-95.7660011,44.4479945]},"properties":{"NAME":"OSM-8139968611","STATE":"","TYPE":"MINOR_DISTRIBUTION","STATUS":"IN SERVICE","MAX_VOLT":14,"CITY":"","COUNTY":"","ZIP":"","LINES":null,"SOURCE":"OpenStreetMap"}},{"type":"Feature","geometry":{"type":"Point","coordinates":[-95.7770029,44.4352822]},"properties":{"NAME":"OSM-8139973960","STATE":"","TYPE":"MINOR_DISTRIBUTION","STATUS":"IN SERVICE","MAX_VOLT":14,"CITY":"","COUNTY":"","ZIP":"","LINES":null,"SOURCE":"OpenStreetMap"}},{"type":"Feature","geometry":{"type":"Point","coordinates":[-95.8007351,44.463179]},"properties":{"NAME":"OSM-8143444005","STATE":"","TYPE":"DISTRIBUTION","STATUS":"IN SERVICE","MAX_VOLT":14,"CITY":"","COUNTY":"","ZIP":"","LINES":null,"SOURCE":"OpenStreetMap"}},{"type":"Feature","geometry":{"type":"Point","coordinates":[-95.8017528,44.4665526]},"properties":{"NAME":"OSM-8143444007","STATE":"","TYPE":"MINOR_DISTRIBUTION","STATUS":"IN SERVICE","MAX_VOLT":14,"CITY":"","COUNTY":"","ZIP":"","LINES":null,"SOURCE":"OpenStreetMap"}},{"type":"Feature","geometry":{"type":"Point","coordinates":[-96.7684353,44.3001181]},"properties":{"NAME":"OSM-8155350567","STATE":"","TYPE":"MINOR_DISTRIBUTION","STATUS":"IN SERVICE","MAX_VOLT":34,"CITY":"","COUNTY":"","ZIP":"","LINES":null,"SOURCE":"OpenStreetMap"}},{"type":"Feature","geometry":{"type":"Point","coordinates":[-96.7683699,44.3071368]},"properties":{"NAME":"OSM-8155350569","STATE":"","TYPE":"MINOR_DISTRIBUTION","STATUS":"IN SERVICE","MAX_VOLT":34,"CITY":"","COUNTY":"","ZIP":"","LINES":null,"SOURCE":"OpenStreetMap"}},{"type":"Feature","geometry":{"type":"Point","coordinates":[-96.7684246,44.3096926]},"properties":{"NAME":"OSM-8155350571","STATE":"","TYPE":"MINOR_DISTRIBUTION","STATUS":"IN SERVICE","MAX_VOLT":34,"CITY":"","COUNTY":"","ZIP":"","LINES":null,"SOURCE":"OpenStreetMap"}},{"type":"Feature","geometry":{"type":"Point","coordinates":[-95.8047494,44.4254208]},"properties":{"NAME":"OSM-8155893303","STATE":"","TYPE":"MINOR_DISTRIBUTION","STATUS":"IN SERVICE","MAX_VOLT":34,"CITY":"","COUNTY":"","ZIP":"","LINES":null,"SOURCE":"OpenStreetMap"}},{"type":"Feature","geometry":{"type":"Point","coordinates":[-95.8178593,44.3300597]},"properties":{"NAME":"OSM-8155939061","STATE":"","TYPE":"MINOR_DISTRIBUTION","STATUS":"IN SERVICE","MAX_VOLT":34,"CITY":"","COUNTY":"","ZIP":"","LINES":null,"SOURCE":"OpenStreetMap"}},{"type":"Feature","geometry":{"type":"Point","coordinates":[-96.7996612,44.3064677]},"properties":{"NAME":"OSM-8158723329","STATE":"","TYPE":"MINOR_DISTRIBUTION","STATUS":"IN SERVICE","MAX_VOLT":34,"CITY":"","COUNTY":"","ZIP":"","LINES":null,"SOURCE":"OpenStreetMap"}},{"type":"Feature","geometry":{"type":"Point","coordinates":[-96.8035141,44.3072826]},"properties":{"NAME":"OSM-8158723331","STATE":"","TYPE":"MINOR_DISTRIBUTION","STATUS":"IN SERVICE","MAX_VOLT":34,"CITY":"","COUNTY":"","ZIP":"","LINES":null,"SOURCE":"OpenStreetMap"}},{"type":"Feature","geometry":{"type":"Point","coordinates":[-96.8064195,44.3076601]},"properties":{"NAME":"OSM-8158723333","STATE":"","TYPE":"MINOR_DISTRIBUTION","STATUS":"IN SERVICE","MAX_VOLT":34,"CITY":"","COUNTY":"","ZIP":"","LINES":null,"SOURCE":"OpenStreetMap"}},{"type":"Feature","geometry":{"type":"Point","coordinates":[-96.8088858,44.3171648]},"properties":{"NAME":"OSM-8158723335","STATE":"","TYPE":"MINOR_DISTRIBUTION","STATUS":"IN SERVICE","MAX_VOLT":42,"CITY":"","COUNTY":"","ZIP":"","LINES":null,"SOURCE":"OpenStreetMap"}},{"type":"Feature","geometry":{"type":"Point","coordinates":[-96.8088098,44.3233068]},"properties":{"NAME":"OSM-8158723336","STATE":"","TYPE":"MINOR_DISTRIBUTION","STATUS":"IN SERVICE","MAX_VOLT":42,"CITY":"","COUNTY":"","ZIP":"","LINES":null,"SOURCE":"OpenStreetMap"}},{"type":"Feature","geometry":{"type":"Point","coordinates":[-80.5331621,43.4997417]},"properties":{"NAME":"SV 76","STATE":"","TYPE":"MINOR_DISTRIBUTION","STATUS":"IN SERVICE","MAX_VOLT":null,"CITY":"","COUNTY":"","ZIP":"","LINES":null,"SOURCE":"OpenStreetMap"}},{"type":"Feature","geometry":{"type":"Point","coordinates":[-89.6314855,40.6988773]},"properties":{"NAME":"OSM-8819901640","STATE":"","TYPE":"MINOR_DISTRIBUTION","STATUS":"IN SERVICE","MAX_VOLT":null,"CITY":"","COUNTY":"","ZIP":"","LINES":null,"SOURCE":"OpenStreetMap"}},{"type":"Feature","geometry":{"type":"Point","coordinates":[-80.5299407,43.4988934]},"properties":{"NAME":"SV 67","STATE":"","TYPE":"MINOR_DISTRIBUTION","STATUS":"IN SERVICE","MAX_VOLT":null,"CITY":"","COUNTY":"","ZIP":"","LINES":null,"SOURCE":"OpenStreetMap"}},{"type":"Feature","geometry":{"type":"Point","coordinates":[-80.5433417,43.4756127]},"properties":{"NAME":"SV 66","STATE":"","TYPE":"MINOR_DISTRIBUTION","STATUS":"IN SERVICE","MAX_VOLT":null,"CITY":"","COUNTY":"","ZIP":"","LINES":null,"SOURCE":"OpenStreetMap"}},{"type":"Feature","geometry":{"type":"Point","coordinates":[-80.5435724,43.4759076]},"properties":{"NAME":"SV 65","STATE":"","TYPE":"MINOR_DISTRIBUTION","STATUS":"IN SERVICE","MAX_VOLT":null,"CITY":"","COUNTY":"","ZIP":"","LINES":null,"SOURCE":"OpenStreetMap"}},{"type":"Feature","geometry":{"type":"Point","coordinates":[-80.5435104,43.4759295]},"properties":{"NAME":"SV 64","STATE":"","TYPE":"MINOR_DISTRIBUTION","STATUS":"IN SERVICE","MAX_VOLT":null,"CITY":"","COUNTY":"","ZIP":"","LINES":null,"SOURCE":"OpenStreetMap"}},{"type":"Feature","geometry":{"type":"Point","coordinates":[-80.5485345,43.4775751]},"properties":{"NAME":"SV 6","STATE":"","TYPE":"MINOR_DISTRIBUTION","STATUS":"IN SERVICE","MAX_VOLT":null,"CITY":"","COUNTY":"","ZIP":"","LINES":null,"SOURCE":"OpenStreetMap"}},{"type":"Feature","geometry":{"type":"Point","coordinates":[-80.5488381,43.4771834]},"properties":{"NAME":"SV 4","STATE":"","TYPE":"MINOR_DISTRIBUTION","STATUS":"IN SERVICE","MAX_VOLT":null,"CITY":"","COUNTY":"","ZIP":"","LINES":null,"SOURCE":"OpenStreetMap"}},{"type":"Feature","geometry":{"type":"Point","coordinates":[-80.5493649,43.4769942]},"properties":{"NAME":"SV 3","STATE":"","TYPE":"MINOR_DISTRIBUTION","STATUS":"IN SERVICE","MAX_VOLT":null,"CITY":"","COUNTY":"","ZIP":"","LINES":null,"SOURCE":"OpenStreetMap"}},{"type":"Feature","geometry":{"type":"Point","coordinates":[-80.5506715,43.4765261]},"properties":{"NAME":"SV 2","STATE":"","TYPE":"MINOR_DISTRIBUTION","STATUS":"IN SERVICE","MAX_VOLT":null,"CITY":"","COUNTY":"","ZIP":"","LINES":null,"SOURCE":"OpenStreetMap"}},{"type":"Feature","geometry":{"type":"Point","coordinates":[-80.5199039,43.4593893]},"properties":{"NAME":"SV 54","STATE":"","TYPE":"MINOR_DISTRIBUTION","STATUS":"IN SERVICE","MAX_VOLT":null,"CITY":"","COUNTY":"","ZIP":"","LINES":null,"SOURCE":"OpenStreetMap"}},{"type":"Feature","geometry":{"type":"Point","coordinates":[-80.523492,43.4651894]},"properties":{"NAME":"SV 95","STATE":"","TYPE":"MINOR_DISTRIBUTION","STATUS":"IN SERVICE","MAX_VOLT":null,"CITY":"","COUNTY":"","ZIP":"","LINES":null,"SOURCE":"OpenStreetMap"}},{"type":"Feature","geometry":{"type":"Point","coordinates":[-83.711805,42.2928519]},"properties":{"NAME":"OSM-9849260336","STATE":"","TYPE":"DISTRIBUTION","STATUS":"IN SERVICE","MAX_VOLT":14,"CITY":"","COUNTY":"","ZIP":"","LINES":null,"SOURCE":"OpenStreetMap"}},{"type":"Feature","geometry":{"type":"Point","coordinates":[-80.5135176,43.5157491]},"properties":{"NAME":"SV 25","STATE":"","TYPE":"MINOR_DISTRIBUTION","STATUS":"IN SERVICE","MAX_VOLT":null,"CITY":"","COUNTY":"","ZIP":"","LINES":null,"SOURCE":"OpenStreetMap"}},{"type":"Feature","geometry":{"type":"Point","coordinates":[-80.512731,43.5161376]},"properties":{"NAME":"SV 24","STATE":"","TYPE":"MINOR_DISTRIBUTION","STATUS":"IN SERVICE","MAX_VOLT":null,"CITY":"","COUNTY":"","ZIP":"","LINES":null,"SOURCE":"OpenStreetMap"}},{"type":"Feature","geometry":{"type":"Point","coordinates":[-80.5138247,43.5162421]},"properties":{"NAME":"SV 23","STATE":"","TYPE":"MINOR_DISTRIBUTION","STATUS":"IN SERVICE","MAX_VOLT":null,"CITY":"","COUNTY":"","ZIP":"","LINES":null,"SOURCE":"OpenStreetMap"}},{"type":"Feature","geometry":{"type":"Point","coordinates":[-87.9050873,43.0348084]},"properties":{"NAME":"OSM-10604544548","STATE":"","TYPE":"SUBSTATION","STATUS":"IN SERVICE","MAX_VOLT":null,"CITY":"","COUNTY":"","ZIP":"","LINES":null,"SOURCE":"OpenStreetMap"}},{"type":"Feature","geometry":{"type":"Point","coordinates":[-95.7817968,44.4393954]},"properties":{"NAME":"OSM-10719894515","STATE":"","TYPE":"MINOR_DISTRIBUTION","STATUS":"IN SERVICE","MAX_VOLT":14,"CITY":"","COUNTY":"","ZIP":"","LINES":null,"SOURCE":"OpenStreetMap"}},{"type":"Feature","geometry":{"type":"Point","coordinates":[-95.7809947,44.438711]},"properties":{"NAME":"OSM-10719894516","STATE":"","TYPE":"MINOR_DISTRIBUTION","STATUS":"IN SERVICE","MAX_VOLT":14,"CITY":"","COUNTY":"","ZIP":"","LINES":null,"SOURCE":"OpenStreetMap"}},{"type":"Feature","geometry":{"type":"Point","coordinates":[-95.7798112,44.4377053]},"properties":{"NAME":"OSM-10719894517","STATE":"","TYPE":"MINOR_DISTRIBUTION","STATUS":"IN SERVICE","MAX_VOLT":14,"CITY":"","COUNTY":"","ZIP":"","LINES":null,"SOURCE":"OpenStreetMap"}},{"type":"Feature","geometry":{"type":"Point","coordinates":[-95.7790808,44.4370682]},"properties":{"NAME":"OSM-10719894518","STATE":"","TYPE":"MINOR_DISTRIBUTION","STATUS":"IN SERVICE","MAX_VOLT":14,"CITY":"","COUNTY":"","ZIP":"","LINES":null,"SOURCE":"OpenStreetMap"}},{"type":"Feature","geometry":{"type":"Point","coordinates":[-95.7776224,44.4358134]},"properties":{"NAME":"OSM-10719894519","STATE":"","TYPE":"MINOR_DISTRIBUTION","STATUS":"IN SERVICE","MAX_VOLT":14,"CITY":"","COUNTY":"","ZIP":"","LINES":null,"SOURCE":"OpenStreetMap"}},{"type":"Feature","geometry":{"type":"Point","coordinates":[-95.7861948,44.4357182]},"properties":{"NAME":"OSM-10719894520","STATE":"","TYPE":"MINOR_DISTRIBUTION","STATUS":"IN SERVICE","MAX_VOLT":14,"CITY":"","COUNTY":"","ZIP":"","LINES":null,"SOURCE":"OpenStreetMap"}},{"type":"Feature","geometry":{"type":"Point","coordinates":[-95.7779774,44.4366967]},"properties":{"NAME":"OSM-10719894521","STATE":"","TYPE":"MINOR_DISTRIBUTION","STATUS":"IN SERVICE","MAX_VOLT":14,"CITY":"","COUNTY":"","ZIP":"","LINES":null,"SOURCE":"OpenStreetMap"}},{"type":"Feature","geometry":{"type":"Point","coordinates":[-92.8560913,45.3933668]},"properties":{"NAME":"OSM-11216165022","STATE":"","TYPE":"DISTRIBUTION","STATUS":"IN SERVICE","MAX_VOLT":115,"CITY":"","COUNTY":"","ZIP":"","LINES":null,"SOURCE":"OpenStreetMap"}},{"type":"Feature","geometry":{"type":"Point","coordinates":[-95.7556276,44.4577825]},"properties":{"NAME":"OSM-11220836982","STATE":"","TYPE":"MINOR_DISTRIBUTION","STATUS":"IN SERVICE","MAX_VOLT":14,"CITY":"","COUNTY":"","ZIP":"","LINES":null,"SOURCE":"OpenStreetMap"}},{"type":"Feature","geometry":{"type":"Point","coordinates":[-95.7554504,44.4647281]},"properties":{"NAME":"OSM-11220836983","STATE":"","TYPE":"MINOR_DISTRIBUTION","STATUS":"IN SERVICE","MAX_VOLT":14,"CITY":"","COUNTY":"","ZIP":"","LINES":null,"SOURCE":"OpenStreetMap"}},{"type":"Feature","geometry":{"type":"Point","coordinates":[-95.7554797,44.470611]},"properties":{"NAME":"OSM-11220836984","STATE":"","TYPE":"MINOR_DISTRIBUTION","STATUS":"IN SERVICE","MAX_VOLT":14,"CITY":"","COUNTY":"","ZIP":"","LINES":null,"SOURCE":"OpenStreetMap"}},{"type":"Feature","geometry":{"type":"Point","coordinates":[-82.3122584,36.9108006]},"properties":{"NAME":"OSM-11374871660","STATE":"","TYPE":"SUBSTATION","STATUS":"IN SERVICE","MAX_VOLT":null,"CITY":"","COUNTY":"","ZIP":"","LINES":null,"SOURCE":"OpenStreetMap"}},{"type":"Feature","geometry":{"type":"Point","coordinates":[-88.3440699,37.4302078]},"properties":{"NAME":"OSM-11756981751","STATE":"","TYPE":"SUBSTATION","STATUS":"IN SERVICE","MAX_VOLT":null,"CITY":"","COUNTY":"","ZIP":"","LINES":null,"SOURCE":"OpenStreetMap"}},{"type":"Feature","geometry":{"type":"Point","coordinates":[-93.2710806,44.9791849]},"properties":{"NAME":"5th Street Substation","STATE":"","TYPE":"MINOR_DISTRIBUTION","STATUS":"IN SERVICE","MAX_VOLT":115,"CITY":"","COUNTY":"","ZIP":"","LINES":null,"SOURCE":"OpenStreetMap"}},{"type":"Feature","geometry":{"type":"Point","coordinates":[-96.0787047,44.0228827]},"properties":{"NAME":"OSM-12294347837","STATE":"","TYPE":"GENERATION","STATUS":"IN SERVICE","MAX_VOLT":34,"CITY":"","COUNTY":"","ZIP":"","LINES":null,"SOURCE":"OpenStreetMap"}},{"type":"Feature","geometry":{"type":"Point","coordinates":[-96.1149879,44.0227582]},"properties":{"NAME":"OSM-12294347850","STATE":"","TYPE":"GENERATION","STATUS":"IN SERVICE","MAX_VOLT":34,"CITY":"","COUNTY":"","ZIP":"","LINES":null,"SOURCE":"OpenStreetMap"}},{"type":"Feature","geometry":{"type":"Point","coordinates":[-96.1187467,44.022766]},"properties":{"NAME":"OSM-12294347859","STATE":"","TYPE":"GENERATION","STATUS":"IN SERVICE","MAX_VOLT":34,"CITY":"","COUNTY":"","ZIP":"","LINES":null,"SOURCE":"OpenStreetMap"}},{"type":"Feature","geometry":{"type":"Point","coordinates":[-96.0646024,44.0358392]},"properties":{"NAME":"OSM-12294347868","STATE":"","TYPE":"GENERATION","STATUS":"IN SERVICE","MAX_VOLT":34,"CITY":"","COUNTY":"","ZIP":"","LINES":null,"SOURCE":"OpenStreetMap"}},{"type":"Feature","geometry":{"type":"Point","coordinates":[-87.6106891,41.8216582]},"properties":{"NAME":"Bronzeville Community Microgrid Substation","STATE":"","TYPE":"YES","STATUS":"IN SERVICE","MAX_VOLT":null,"CITY":"","COUNTY":"","ZIP":"","LINES":null,"SOURCE":"OpenStreetMap"}},{"type":"Feature","geometry":{"type":"Point","coordinates":[-94.1887779,42.6745646]},"properties":{"NAME":"Hope Substation","STATE":"","TYPE":"YES","STATUS":"IN SERVICE","MAX_VOLT":161,"CITY":"","COUNTY":"","ZIP":"","LINES":null,"SOURCE":"OpenStreetMap"}},{"type":"Feature","geometry":{"type":"Point","coordinates":[-96.1246839,44.115585]},"properties":{"NAME":"Tholen Interconnection Station","STATE":"","TYPE":"GENERATION","STATUS":"IN SERVICE","MAX_VOLT":34,"CITY":"","COUNTY":"","ZIP":"","LINES":null,"SOURCE":"OpenStreetMap"}},{"type":"Feature","geometry":{"type":"Point","coordinates":[-96.0845181,44.0515819]},"properties":{"NAME":"Boeve Interconnect Substation","STATE":"","TYPE":"GENERATION","STATUS":"IN SERVICE","MAX_VOLT":34,"CITY":"","COUNTY":"","ZIP":"","LINES":null,"SOURCE":"OpenStreetMap"}},{"type":"Feature","geometry":{"type":"Point","coordinates":[-96.0918468,44.0806957]},"properties":{"NAME":"McBeth Interconnection Station","STATE":"","TYPE":"GENERATION","STATUS":"IN SERVICE","MAX_VOLT":34,"CITY":"","COUNTY":"","ZIP":"","LINES":null,"SOURCE":"OpenStreetMap"}},{"type":"Feature","geometry":{"type":"Point","coordinates":[-96.3918895,44.2836663]},"properties":{"NAME":"JJN Wind Farm Interconnect Station","STATE":"","TYPE":"GENERATION","STATUS":"IN SERVICE","MAX_VOLT":34,"CITY":"","COUNTY":"","ZIP":"","LINES":null,"SOURCE":"OpenStreetMap"}},{"type":"Feature","geometry":{"type":"Point","coordinates":[-96.3929631,44.2836529]},"properties":{"NAME":"OSM-12410145403","STATE":"","TYPE":"GENERATION","STATUS":"IN SERVICE","MAX_VOLT":34,"CITY":"","COUNTY":"","ZIP":"","LINES":null,"SOURCE":"OpenStreetMap"}},{"type":"Feature","geometry":{"type":"Point","coordinates":[-96.343511,44.2837767]},"properties":{"NAME":"OSM-12425973105","STATE":"","TYPE":"GENERATION","STATUS":"IN SERVICE","MAX_VOLT":34,"CITY":"","COUNTY":"","ZIP":"","LINES":null,"SOURCE":"OpenStreetMap"}},{"type":"Feature","geometry":{"type":"Point","coordinates":[-80.5686478,41.1447458]},"properties":{"NAME":"OSM-12456212018","STATE":"","TYPE":"SUBSTATION","STATUS":"IN SERVICE","MAX_VOLT":null,"CITY":"","COUNTY":"","ZIP":"","LINES":null,"SOURCE":"OpenStreetMap"}},{"type":"Feature","geometry":{"type":"Point","coordinates":[-88.455225,42.5828028]},"properties":{"NAME":"OSM-12536520527","STATE":"","TYPE":"MINOR_DISTRIBUTION","STATUS":"IN SERVICE","MAX_VOLT":null,"CITY":"","COUNTY":"","ZIP":"","LINES":null,"SOURCE":"OpenStreetMap"}},{"type":"Feature","geometry":{"type":"Point","coordinates":[-83.353309,39.3245462]},"properties":{"NAME":"Ross County Solar Substation","STATE":"","TYPE":"SUBSTATION","STATUS":"IN SERVICE","MAX_VOLT":null,"CITY":"","COUNTY":"","ZIP":"","LINES":null,"SOURCE":"OpenStreetMap"}},{"type":"Feature","geometry":{"type":"Point","coordinates":[-84.9990542,43.9437402]},"properties":{"NAME":"OSM-12814765422","STATE":"","TYPE":"SUBSTATION","STATUS":"IN SERVICE","MAX_VOLT":null,"CITY":"","COUNTY":"","ZIP":"","LINES":null,"SOURCE":"OpenStreetMap"}},{"type":"Feature","geometry":{"type":"Point","coordinates":[-81.5262752,41.586368]},"properties":{"NAME":"OSM-13175814541","STATE":"","TYPE":"SUBSTATION","STATUS":"IN SERVICE","MAX_VOLT":null,"CITY":"","COUNTY":"","ZIP":"","LINES":null,"SOURCE":"OpenStreetMap"}},{"type":"Feature","geometry":{"type":"Point","coordinates":[-84.1719742,39.6411789]},"properties":{"NAME":"OSM-13201321750","STATE":"","TYPE":"SUBSTATION","STATUS":"IN SERVICE","MAX_VOLT":null,"CITY":"","COUNTY":"","ZIP":"","LINES":null,"SOURCE":"OpenStreetMap"}},{"type":"Feature","geometry":{"type":"Point","coordinates":[-96.1084187,36.0002656]},"properties":{"NAME":"OSM-13290066347","STATE":"","TYPE":"DISTRIBUTION","STATUS":"IN SERVICE","MAX_VOLT":null,"CITY":"","COUNTY":"","ZIP":"","LINES":null,"SOURCE":"OpenStreetMap"}},{"type":"Feature","geometry":{"type":"Point","coordinates":[-81.6390759,41.4692086]},"properties":{"NAME":"OSM-13322939232","STATE":"","TYPE":"SUBSTATION","STATUS":"IN SERVICE","MAX_VOLT":null,"CITY":"","COUNTY":"","ZIP":"","LINES":null,"SOURCE":"OpenStreetMap"}},{"type":"Feature","geometry":{"type":"Point","coordinates":[-81.4446298,41.6270374]},"properties":{"NAME":"OSM-13322939240","STATE":"","TYPE":"SUBSTATION","STATUS":"IN SERVICE","MAX_VOLT":null,"CITY":"","COUNTY":"","ZIP":"","LINES":null,"SOURCE":"OpenStreetMap"}},{"type":"Feature","geometry":{"type":"Point","coordinates":[-81.4792503,41.6102363]},"properties":{"NAME":"OSM-13322939242","STATE":"","TYPE":"SUBSTATION","STATUS":"IN SERVICE","MAX_VOLT":null,"CITY":"","COUNTY":"","ZIP":"","LINES":null,"SOURCE":"OpenStreetMap"}},{"type":"Feature","geometry":{"type":"Point","coordinates":[-80.5147297,41.2164312]},"properties":{"NAME":"OSM-13325109829","STATE":"","TYPE":"SUBSTATION","STATUS":"IN SERVICE","MAX_VOLT":null,"CITY":"","COUNTY":"","ZIP":"","LINES":null,"SOURCE":"OpenStreetMap"}},{"type":"Feature","geometry":{"type":"Point","coordinates":[-80.5144908,41.2134223]},"properties":{"NAME":"OSM-13325109830","STATE":"","TYPE":"SUBSTATION","STATUS":"IN SERVICE","MAX_VOLT":null,"CITY":"","COUNTY":"","ZIP":"","LINES":null,"SOURCE":"OpenStreetMap"}},{"type":"Feature","geometry":{"type":"Point","coordinates":[-90.4873992,38.5229259]},"properties":{"NAME":"OSM-13334253004","STATE":"","TYPE":"SUBSTATION","STATUS":"IN SERVICE","MAX_VOLT":null,"CITY":"","COUNTY":"","ZIP":"","LINES":null,"SOURCE":"OpenStreetMap"}},{"type":"Feature","geometry":{"type":"Point","coordinates":[-95.9406737,36.2053139]},"properties":{"NAME":"OSM-13352518115","STATE":"OK","TYPE":"SUBSTATION","STATUS":"IN SERVICE","MAX_VOLT":null,"CITY":"Tulsa","COUNTY":"","ZIP":"74115","LINES":null,"SOURCE":"OpenStreetMap"}},{"type":"Feature","geometry":{"type":"Point","coordinates":[-87.1158626,41.6233565]},"properties":{"NAME":"OSM-13397261492","STATE":"","TYPE":"SUBSTATION","STATUS":"IN SERVICE","MAX_VOLT":null,"CITY":"","COUNTY":"","ZIP":"","LINES":null,"SOURCE":"OpenStreetMap"}},{"type":"Feature","geometry":{"type":"Point","coordinates":[-90.2999293,37.5637711]},"properties":{"NAME":"OSM-13415903590","STATE":"","TYPE":"SUBSTATION","STATUS":"IN SERVICE","MAX_VOLT":null,"CITY":"","COUNTY":"","ZIP":"","LINES":null,"SOURCE":"OpenStreetMap"}},{"type":"Feature","geometry":{"type":"Point","coordinates":[-93.9228789,45.0574749]},"properties":{"NAME":"Montrose Interconnect","STATE":"","TYPE":"YES","STATUS":"IN SERVICE","MAX_VOLT":12,"CITY":"","COUNTY":"","ZIP":"","LINES":null,"SOURCE":"OpenStreetMap"}},{"type":"Feature","geometry":{"type":"Point","coordinates":[-93.8070058,45.1943119]},"properties":{"NAME":"Lake Pulaski Interconnect Station","STATE":"","TYPE":"GENERATION","STATUS":"IN SERVICE","MAX_VOLT":34,"CITY":"","COUNTY":"","ZIP":"","LINES":null,"SOURCE":"OpenStreetMap"}},{"type":"Feature","geometry":{"type":"Point","coordinates":[-93.5274018,44.090015]},"properties":{"NAME":"Waseca Interconnect Station","STATE":"","TYPE":"GENERATION","STATUS":"IN SERVICE","MAX_VOLT":24,"CITY":"","COUNTY":"","ZIP":"","LINES":null,"SOURCE":"OpenStreetMap"}},{"type":"Feature","geometry":{"type":"Point","coordinates":[-94.588709,45.6360959]},"properties":{"NAME":"OSM-13453257178","STATE":"","TYPE":"GENERATION","STATUS":"IN SERVICE","MAX_VOLT":12,"CITY":"","COUNTY":"","ZIP":"","LINES":null,"SOURCE":"OpenStreetMap"}},{"type":"Feature","geometry":{"type":"Point","coordinates":[-94.1145405,45.2539613]},"properties":{"NAME":"Annandale Interconnect","STATE":"","TYPE":"GENERATION","STATUS":"IN SERVICE","MAX_VOLT":12,"CITY":"","COUNTY":"","ZIP":"","LINES":null,"SOURCE":"OpenStreetMap"}},{"type":"Feature","geometry":{"type":"Point","coordinates":[-96.7277297,43.570905]},"properties":{"NAME":"SD State Penitentiary Substation","STATE":"","TYPE":"SUBSTATION","STATUS":"IN SERVICE","MAX_VOLT":null,"CITY":"","COUNTY":"","ZIP":"","LINES":null,"SOURCE":"OpenStreetMap"}},{"type":"Feature","geometry":{"type":"Point","coordinates":[-95.8657002,36.1113866]},"properties":{"NAME":"OSM-13583272650","STATE":"OK","TYPE":"SUBSTATION","STATUS":"IN SERVICE","MAX_VOLT":null,"CITY":"Tulsa","COUNTY":"","ZIP":"74146","LINES":null,"SOURCE":"OpenStreetMap"}},{"type":"Feature","geometry":{"type":"Point","coordinates":[-89.0470919,41.1337407]},"properties":{"NAME":"OSM-13738817337","STATE":"","TYPE":"SUBSTATION","STATUS":"IN SERVICE","MAX_VOLT":null,"CITY":"","COUNTY":"","ZIP":"","LINES":null,"SOURCE":"OpenStreetMap"}},{"type":"Feature","geometry":{"type":"Point","coordinates":[-94.2646047,45.6044985]},"properties":{"NAME":"OSM-13831363355","STATE":"","TYPE":"SUBSTATION","STATUS":"IN SERVICE","MAX_VOLT":null,"CITY":"","COUNTY":"","ZIP":"","LINES":null,"SOURCE":"OpenStreetMap"}},{"type":"Feature","geometry":{"type":"Point","coordinates":[-94.4082616,45.3174638]},"properties":{"NAME":"OSM-13918894497","STATE":"","TYPE":"SUBSTATION","STATUS":"IN SERVICE","MAX_VOLT":null,"CITY":"","COUNTY":"","ZIP":"","LINES":null,"SOURCE":"OpenStreetMap"}},{"type":"Feature","geometry":{"type":"Point","coordinates":[-81.4587238,41.5891811]},"properties":{"NAME":"OSM-14020896331","STATE":"","TYPE":"SUBSTATION","STATUS":"IN SERVICE","MAX_VOLT":null,"CITY":"","COUNTY":"","ZIP":"","LINES":null,"SOURCE":"OpenStreetMap"}}]}