{"type":"FeatureCollection","features":[{"type":"Feature","geometry":{"type":"Point","coordinates":[-76.66116,39.483743]},"properties":{"NAME":"Gilroy","STATE":"","TYPE":"SUBSTATION","STATUS":"IN SERVICE","MAX_VOLT":null,"CITY":"","COUNTY":"","ZIP":"","LINES":null,"SOURCE":"OpenStreetMap"}},{"type":"Feature","geometry":{"type":"Point","coordinates":[-90.9749217,38.5424336]},"properties":{"NAME":"OSM-4854203553","STATE":"","TYPE":"MINOR_DISTRIBUTION","STATUS":"IN SERVICE","MAX_VOLT":null,"CITY":"","COUNTY":"","ZIP":"","LINES":null,"SOURCE":"OpenStreetMap"}},{"type":"Feature","geometry":{"type":"Point","coordinates":[-84.5652846,39.2962603]},"properties":{"NAME":"OSM-5463269477","STATE":"","TYPE":"SUBSTATION","STATUS":"IN SERVICE","MAX_VOLT":null,"CITY":"","COUNTY":"","ZIP":"","LINES":null,"SOURCE":"OpenStreetMap"}},{"type":"Feature","geometry":{"type":"Point","coordinates":[-77.1777406,38.8984521]},"properties":{"NAME":"K06TP1 Fisher Ave TPSS","STATE":"","TYPE":"TRACTION","STATUS":"IN SERVICE","MAX_VOLT":34,"CITY":"","COUNTY":"","ZIP":"","LINES":null,"SOURCE":"OpenStreetMap"}},{"type":"Feature","geometry":{"type":"Point","coordinates":[-77.1888304,38.913763]},"properties":{"NAME":"N92TBS1 Baldwin Drive","STATE":"","TYPE":"TRACTION","STATUS":"IN SERVICE","MAX_VOLT":34,"CITY":"","COUNTY":"","ZIP":"","LINES":null,"SOURCE":"OpenStreetMap"}},{"type":"Feature","geometry":{"type":"Point","coordinates":[-77.2332343,38.9203374]},"properties":{"NAME":"N03 Greensboro TPSS5","STATE":"","TYPE":"TRACTION","STATUS":"IN SERVICE","MAX_VOLT":34,"CITY":"","COUNTY":"","ZIP":"","LINES":null,"SOURCE":"OpenStreetMap"}},{"type":"Feature","geometry":{"type":"Point","coordinates":[-77.2107742,38.9242285]},"properties":{"NAME":"TPSS#3 -McLean","STATE":"","TYPE":"TRACTION","STATUS":"IN SERVICE","MAX_VOLT":34,"CITY":"","COUNTY":"","ZIP":"","LINES":null,"SOURCE":"OpenStreetMap"}},{"type":"Feature","geometry":{"type":"Point","coordinates":[-77.2062734,38.9268822]},"properties":{"NAME":"TPSS#3 - McLean","STATE":"","TYPE":"TRACTION","STATUS":"IN SERVICE","MAX_VOLT":34,"CITY":"","COUNTY":"","ZIP":"","LINES":null,"SOURCE":"OpenStreetMap"}},{"type":"Feature","geometry":{"type":"Point","coordinates":[-76.5994115,39.2919299]},"properties":{"NAME":"OSM-7491477577","STATE":"","TYPE":"TRACTION","STATUS":"IN SERVICE","MAX_VOLT":null,"CITY":"","COUNTY":"","ZIP":"","LINES":null,"SOURCE":"OpenStreetMap"}},{"type":"Feature","geometry":{"type":"Point","coordinates":[-83.2775653,31.7225098]},"properties":{"NAME":"OSM-9662501205","STATE":"","TYPE":"INDUSTRIAL","STATUS":"IN SERVICE","MAX_VOLT":46,"CITY":"","COUNTY":"","ZIP":"","LINES":null,"SOURCE":"OpenStreetMap"}},{"type":"Feature","geometry":{"type":"Point","coordinates":[-84.2400925,32.0065699]},"properties":{"NAME":"OSM-9667366078","STATE":"","TYPE":"INDUSTRIAL","STATUS":"IN SERVICE","MAX_VOLT":46,"CITY":"","COUNTY":"","ZIP":"","LINES":null,"SOURCE":"OpenStreetMap"}},{"type":"Feature","geometry":{"type":"Point","coordinates":[-84.107343,32.2542049]},"properties":{"NAME":"OSM-9667572589","STATE":"","TYPE":"INDUSTRIAL","STATUS":"IN SERVICE","MAX_VOLT":46,"CITY":"","COUNTY":"","ZIP":"","LINES":null,"SOURCE":"OpenStreetMap"}},{"type":"Feature","geometry":{"type":"Point","coordinates":[-84.0754656,32.4050697]},"properties":{"NAME":"OSM-9667572775","STATE":"","TYPE":"DISTRIBUTION","STATUS":"IN SERVICE","MAX_VOLT":46,"CITY":"","COUNTY":"","ZIP":"","LINES":null,"SOURCE":"OpenStreetMap"}},{"type":"Feature","geometry":{"type":"Point","coordinates":[-84.2292448,32.0371443]},"properties":{"NAME":"OSM-9667949275","STATE":"","TYPE":"INDUSTRIAL","STATUS":"IN SERVICE","MAX_VOLT":46,"CITY":"","COUNTY":"","ZIP":"","LINES":null,"SOURCE":"OpenStreetMap"}},{"type":"Feature","geometry":{"type":"Point","coordinates":[-83.7334539,32.4515265]},"properties":{"NAME":"OSM-9674353815","STATE":"","TYPE":"INDUSTRIAL","STATUS":"IN SERVICE","MAX_VOLT":46,"CITY":"","COUNTY":"","ZIP":"","LINES":null,"SOURCE":"OpenStreetMap"}},{"type":"Feature","geometry":{"type":"Point","coordinates":[-83.9971992,33.6594156]},"properties":{"NAME":"OSM-9689407777","STATE":"","TYPE":"INDUSTRIAL","STATUS":"IN SERVICE","MAX_VOLT":46,"CITY":"","COUNTY":"","ZIP":"","LINES":null,"SOURCE":"OpenStreetMap"}},{"type":"Feature","geometry":{"type":"Point","coordinates":[-83.9971619,33.6593887]},"properties":{"NAME":"OSM-9689407778","STATE":"","TYPE":"INDUSTRIAL","STATUS":"IN SERVICE","MAX_VOLT":46,"CITY":"","COUNTY":"","ZIP":"","LINES":null,"SOURCE":"OpenStreetMap"}},{"type":"Feature","geometry":{"type":"Point","coordinates":[-84.0368745,33.6762754]},"properties":{"NAME":"Pactiv Substation","STATE":"","TYPE":"INDUSTRIAL","STATUS":"IN SERVICE","MAX_VOLT":46,"CITY":"","COUNTY":"","ZIP":"","LINES":null,"SOURCE":"OpenStreetMap"}},{"type":"Feature","geometry":{"type":"Point","coordinates":[-84.0422841,33.6760653]},"properties":{"NAME":"OSM-9689407955","STATE":"","TYPE":"INDUSTRIAL","STATUS":"IN SERVICE","MAX_VOLT":46,"CITY":"","COUNTY":"","ZIP":"","LINES":null,"SOURCE":"OpenStreetMap"}},{"type":"Feature","geometry":{"type":"Point","coordinates":[-83.8887848,33.6346711]},"properties":{"NAME":"Martin Marietta Substation","STATE":"","TYPE":"INDUSTRIAL","STATUS":"IN SERVICE","MAX_VOLT":46,"CITY":"","COUNTY":"","ZIP":"","LINES":null,"SOURCE":"OpenStreetMap"}},{"type":"Feature","geometry":{"type":"Point","coordinates":[-83.8445377,33.6122307]},"properties":{"NAME":"OSM-9689408362","STATE":"","TYPE":"INDUSTRIAL","STATUS":"IN SERVICE","MAX_VOLT":46,"CITY":"","COUNTY":"","ZIP":"","LINES":null,"SOURCE":"OpenStreetMap"}},{"type":"Feature","geometry":{"type":"Point","coordinates":[-83.8349529,33.6132485]},"properties":{"NAME":"OSM-9689408421","STATE":"","TYPE":"INDUSTRIAL","STATUS":"IN SERVICE","MAX_VOLT":46,"CITY":"","COUNTY":"","ZIP":"","LINES":null,"SOURCE":"OpenStreetMap"}},{"type":"Feature","geometry":{"type":"Point","coordinates":[-83.8349017,33.6132888]},"properties":{"NAME":"OSM-9689408422","STATE":"","TYPE":"INDUSTRIAL","STATUS":"IN SERVICE","MAX_VOLT":46,"CITY":"","COUNTY":"","ZIP":"","LINES":null,"SOURCE":"OpenStreetMap"}},{"type":"Feature","geometry":{"type":"Point","coordinates":[-83.8343522,33.6119625]},"properties":{"NAME":"OSM-9689408430","STATE":"","TYPE":"INDUSTRIAL","STATUS":"IN SERVICE","MAX_VOLT":46,"CITY":"","COUNTY":"","ZIP":"","LINES":null,"SOURCE":"OpenStreetMap"}},{"type":"Feature","geometry":{"type":"Point","coordinates":[-83.8343277,33.6119257]},"properties":{"NAME":"OSM-9689408431","STATE":"","TYPE":"INDUSTRIAL","STATUS":"IN SERVICE","MAX_VOLT":46,"CITY":"","COUNTY":"","ZIP":"","LINES":null,"SOURCE":"OpenStreetMap"}},{"type":"Feature","geometry":{"type":"Point","coordinates":[-83.7027861,33.6540699]},"properties":{"NAME":"OSM-9689616502","STATE":"","TYPE":"INDUSTRIAL","STATUS":"IN SERVICE","MAX_VOLT":46,"CITY":"","COUNTY":"","ZIP":"","LINES":null,"SOURCE":"OpenStreetMap"}},{"type":"Feature","geometry":{"type":"Point","coordinates":[-83.7020747,33.654122]},"properties":{"NAME":"OSM-9689616503","STATE":"","TYPE":"INDUSTRIAL","STATUS":"IN SERVICE","MAX_VOLT":46,"CITY":"","COUNTY":"","ZIP":"","LINES":null,"SOURCE":"OpenStreetMap"}},{"type":"Feature","geometry":{"type":"Point","coordinates":[-83.7020747,33.654077]},"properties":{"NAME":"OSM-9689616504","STATE":"","TYPE":"INDUSTRIAL","STATUS":"IN SERVICE","MAX_VOLT":46,"CITY":"","COUNTY":"","ZIP":"","LINES":null,"SOURCE":"OpenStreetMap"}},{"type":"Feature","geometry":{"type":"Point","coordinates":[-83.7009022,33.6539822]},"properties":{"NAME":"OSM-9689616505","STATE":"","TYPE":"INDUSTRIAL","STATUS":"IN SERVICE","MAX_VOLT":46,"CITY":"","COUNTY":"","ZIP":"","LINES":null,"SOURCE":"OpenStreetMap"}},{"type":"Feature","geometry":{"type":"Point","coordinates":[-83.6976977,33.653634]},"properties":{"NAME":"OSM-9689616510","STATE":"","TYPE":"INDUSTRIAL","STATUS":"IN SERVICE","MAX_VOLT":46,"CITY":"","COUNTY":"","ZIP":"","LINES":null,"SOURCE":"OpenStreetMap"}},{"type":"Feature","geometry":{"type":"Point","coordinates":[-83.6987023,33.6537217]},"properties":{"NAME":"OSM-9689616511","STATE":"","TYPE":"INDUSTRIAL","STATUS":"IN SERVICE","MAX_VOLT":46,"CITY":"","COUNTY":"","ZIP":"","LINES":null,"SOURCE":"OpenStreetMap"}},{"type":"Feature","geometry":{"type":"Point","coordinates":[-83.6938188,33.6534634]},"properties":{"NAME":"OSM-9689622019","STATE":"","TYPE":"INDUSTRIAL","STATUS":"IN SERVICE","MAX_VOLT":46,"CITY":"","COUNTY":"","ZIP":"","LINES":null,"SOURCE":"OpenStreetMap"}},{"type":"Feature","geometry":{"type":"Point","coordinates":[-83.6938217,33.6535321]},"properties":{"NAME":"OSM-9689622020","STATE":"","TYPE":"INDUSTRIAL","STATUS":"IN SERVICE","MAX_VOLT":46,"CITY":"","COUNTY":"","ZIP":"","LINES":null,"SOURCE":"OpenStreetMap"}},{"type":"Feature","geometry":{"type":"Point","coordinates":[-83.6947124,33.6535914]},"properties":{"NAME":"OSM-9689622021","STATE":"","TYPE":"INDUSTRIAL","STATUS":"IN SERVICE","MAX_VOLT":46,"CITY":"","COUNTY":"","ZIP":"","LINES":null,"SOURCE":"OpenStreetMap"}},{"type":"Feature","geometry":{"type":"Point","coordinates":[-83.6947238,33.653544]},"properties":{"NAME":"OSM-9689622022","STATE":"","TYPE":"INDUSTRIAL","STATUS":"IN SERVICE","MAX_VOLT":46,"CITY":"","COUNTY":"","ZIP":"","LINES":null,"SOURCE":"OpenStreetMap"}},{"type":"Feature","geometry":{"type":"Point","coordinates":[-83.6966643,33.6535787]},"properties":{"NAME":"OSM-9689622029","STATE":"","TYPE":"INDUSTRIAL","STATUS":"IN SERVICE","MAX_VOLT":46,"CITY":"","COUNTY":"","ZIP":"","LINES":null,"SOURCE":"OpenStreetMap"}},{"type":"Feature","geometry":{"type":"Point","coordinates":[-83.6967334,33.6535915]},"properties":{"NAME":"OSM-9689622030","STATE":"","TYPE":"INDUSTRIAL","STATUS":"IN SERVICE","MAX_VOLT":46,"CITY":"","COUNTY":"","ZIP":"","LINES":null,"SOURCE":"OpenStreetMap"}},{"type":"Feature","geometry":{"type":"Point","coordinates":[-83.6989986,33.6537449]},"properties":{"NAME":"OSM-9689622031","STATE":"","TYPE":"INDUSTRIAL","STATUS":"IN SERVICE","MAX_VOLT":46,"CITY":"","COUNTY":"","ZIP":"","LINES":null,"SOURCE":"OpenStreetMap"}},{"type":"Feature","geometry":{"type":"Point","coordinates":[-83.7003923,33.6539398]},"properties":{"NAME":"OSM-9689622032","STATE":"","TYPE":"INDUSTRIAL","STATUS":"IN SERVICE","MAX_VOLT":46,"CITY":"","COUNTY":"","ZIP":"","LINES":null,"SOURCE":"OpenStreetMap"}},{"type":"Feature","geometry":{"type":"Point","coordinates":[-83.0702805,33.5382323]},"properties":{"NAME":"Vulcan Materials Substation","STATE":"","TYPE":"INDUSTRIAL","STATUS":"IN SERVICE","MAX_VOLT":46,"CITY":"","COUNTY":"","ZIP":"","LINES":null,"SOURCE":"OpenStreetMap"}},{"type":"Feature","geometry":{"type":"Point","coordinates":[-85.04137,34.0241451]},"properties":{"NAME":"OSM-9701307443","STATE":"","TYPE":"INDUSTRIAL","STATUS":"IN SERVICE","MAX_VOLT":46,"CITY":"","COUNTY":"","ZIP":"","LINES":null,"SOURCE":"OpenStreetMap"}},{"type":"Feature","geometry":{"type":"Point","coordinates":[-85.0414188,34.0241234]},"properties":{"NAME":"OSM-9701307444","STATE":"","TYPE":"INDUSTRIAL","STATUS":"IN SERVICE","MAX_VOLT":46,"CITY":"","COUNTY":"","ZIP":"","LINES":null,"SOURCE":"OpenStreetMap"}},{"type":"Feature","geometry":{"type":"Point","coordinates":[-85.0414955,34.0241104]},"properties":{"NAME":"OSM-9701307445","STATE":"","TYPE":"INDUSTRIAL","STATUS":"IN SERVICE","MAX_VOLT":46,"CITY":"","COUNTY":"","ZIP":"","LINES":null,"SOURCE":"OpenStreetMap"}},{"type":"Feature","geometry":{"type":"Point","coordinates":[-85.0477138,34.0171261]},"properties":{"NAME":"OSM-9701307516","STATE":"","TYPE":"INDUSTRIAL","STATUS":"IN SERVICE","MAX_VOLT":46,"CITY":"","COUNTY":"","ZIP":"","LINES":null,"SOURCE":"OpenStreetMap"}},{"type":"Feature","geometry":{"type":"Point","coordinates":[-85.0477585,34.0170969]},"properties":{"NAME":"OSM-9701307517","STATE":"","TYPE":"INDUSTRIAL","STATUS":"IN SERVICE","MAX_VOLT":46,"CITY":"","COUNTY":"","ZIP":"","LINES":null,"SOURCE":"OpenStreetMap"}},{"type":"Feature","geometry":{"type":"Point","coordinates":[-85.0477914,34.0170598]},"properties":{"NAME":"OSM-9701307518","STATE":"","TYPE":"INDUSTRIAL","STATUS":"IN SERVICE","MAX_VOLT":46,"CITY":"","COUNTY":"","ZIP":"","LINES":null,"SOURCE":"OpenStreetMap"}},{"type":"Feature","geometry":{"type":"Point","coordinates":[-85.2794905,34.0132805]},"properties":{"NAME":"OSM-9703986249","STATE":"","TYPE":"INDUSTRIAL","STATUS":"IN SERVICE","MAX_VOLT":46,"CITY":"","COUNTY":"","ZIP":"","LINES":null,"SOURCE":"OpenStreetMap"}},{"type":"Feature","geometry":{"type":"Point","coordinates":[-85.2794888,34.0133305]},"properties":{"NAME":"OSM-9703986250","STATE":"","TYPE":"INDUSTRIAL","STATUS":"IN SERVICE","MAX_VOLT":46,"CITY":"","COUNTY":"","ZIP":"","LINES":null,"SOURCE":"OpenStreetMap"}},{"type":"Feature","geometry":{"type":"Point","coordinates":[-85.2813164,34.0141702]},"properties":{"NAME":"OSM-9703986259","STATE":"","TYPE":"INDUSTRIAL","STATUS":"IN SERVICE","MAX_VOLT":46,"CITY":"","COUNTY":"","ZIP":"","LINES":null,"SOURCE":"OpenStreetMap"}},{"type":"Feature","geometry":{"type":"Point","coordinates":[-85.2813146,34.0152545]},"properties":{"NAME":"OSM-9703986263","STATE":"","TYPE":"INDUSTRIAL","STATUS":"IN SERVICE","MAX_VOLT":46,"CITY":"","COUNTY":"","ZIP":"","LINES":null,"SOURCE":"OpenStreetMap"}},{"type":"Feature","geometry":{"type":"Point","coordinates":[-85.2813146,34.0152143]},"properties":{"NAME":"OSM-9703986264","STATE":"","TYPE":"INDUSTRIAL","STATUS":"IN SERVICE","MAX_VOLT":46,"CITY":"","COUNTY":"","ZIP":"","LINES":null,"SOURCE":"OpenStreetMap"}},{"type":"Feature","geometry":{"type":"Point","coordinates":[-85.2813146,34.0151689]},"properties":{"NAME":"OSM-9703986265","STATE":"","TYPE":"INDUSTRIAL","STATUS":"IN SERVICE","MAX_VOLT":46,"CITY":"","COUNTY":"","ZIP":"","LINES":null,"SOURCE":"OpenStreetMap"}},{"type":"Feature","geometry":{"type":"Point","coordinates":[-85.1769105,34.2071033]},"properties":{"NAME":"OSM-9704725623","STATE":"","TYPE":"INDUSTRIAL","STATUS":"IN SERVICE","MAX_VOLT":46,"CITY":"","COUNTY":"","ZIP":"","LINES":null,"SOURCE":"OpenStreetMap"}},{"type":"Feature","geometry":{"type":"Point","coordinates":[-85.1759527,34.2056099]},"properties":{"NAME":"OSM-9704725627","STATE":"","TYPE":"INDUSTRIAL","STATUS":"IN SERVICE","MAX_VOLT":46,"CITY":"","COUNTY":"","ZIP":"","LINES":null,"SOURCE":"OpenStreetMap"}},{"type":"Feature","geometry":{"type":"Point","coordinates":[-85.18215,34.2218634]},"properties":{"NAME":"OSM-9704725641","STATE":"","TYPE":"INDUSTRIAL","STATUS":"IN SERVICE","MAX_VOLT":46,"CITY":"","COUNTY":"","ZIP":"","LINES":null,"SOURCE":"OpenStreetMap"}},{"type":"Feature","geometry":{"type":"Point","coordinates":[-84.17258,33.0519488]},"properties":{"NAME":"OSM-9706809992","STATE":"","TYPE":"INDUSTRIAL","STATUS":"IN SERVICE","MAX_VOLT":69,"CITY":"","COUNTY":"","ZIP":"","LINES":null,"SOURCE":"OpenStreetMap"}},{"type":"Feature","geometry":{"type":"Point","coordinates":[-84.9663597,34.5116032]},"properties":{"NAME":"OSM-9706853970","STATE":"","TYPE":"GENERATION","STATUS":"IN SERVICE","MAX_VOLT":34,"CITY":"","COUNTY":"","ZIP":"","LINES":null,"SOURCE":"OpenStreetMap"}},{"type":"Feature","geometry":{"type":"Point","coordinates":[-84.796337,34.2203454]},"properties":{"NAME":"OSM-9711998210","STATE":"","TYPE":"INDUSTRIAL","STATUS":"IN SERVICE","MAX_VOLT":46,"CITY":"","COUNTY":"","ZIP":"","LINES":null,"SOURCE":"OpenStreetMap"}},{"type":"Feature","geometry":{"type":"Point","coordinates":[-84.7970205,34.2193486]},"properties":{"NAME":"OSM-9711998211","STATE":"","TYPE":"INDUSTRIAL","STATUS":"IN SERVICE","MAX_VOLT":46,"CITY":"","COUNTY":"","ZIP":"","LINES":null,"SOURCE":"OpenStreetMap"}},{"type":"Feature","geometry":{"type":"Point","coordinates":[-84.7938268,34.2188522]},"properties":{"NAME":"OSM-9711998212","STATE":"","TYPE":"INDUSTRIAL","STATUS":"IN SERVICE","MAX_VOLT":46,"CITY":"","COUNTY":"","ZIP":"","LINES":null,"SOURCE":"OpenStreetMap"}},{"type":"Feature","geometry":{"type":"Point","coordinates":[-84.7831878,34.2455432]},"properties":{"NAME":"OSM-9712008656","STATE":"","TYPE":"INDUSTRIAL","STATUS":"IN SERVICE","MAX_VOLT":46,"CITY":"","COUNTY":"","ZIP":"","LINES":null,"SOURCE":"OpenStreetMap"}},{"type":"Feature","geometry":{"type":"Point","coordinates":[-84.9663792,34.7289566]},"properties":{"NAME":"OSM-9718111434","STATE":"","TYPE":"INDUSTRIAL","STATUS":"IN SERVICE","MAX_VOLT":46,"CITY":"","COUNTY":"","ZIP":"","LINES":null,"SOURCE":"OpenStreetMap"}},{"type":"Feature","geometry":{"type":"Point","coordinates":[-84.9660825,34.7288977]},"properties":{"NAME":"OSM-9718111435","STATE":"","TYPE":"INDUSTRIAL","STATUS":"IN SERVICE","MAX_VOLT":46,"CITY":"","COUNTY":"","ZIP":"","LINES":null,"SOURCE":"OpenStreetMap"}},{"type":"Feature","geometry":{"type":"Point","coordinates":[-84.9660807,34.7289562]},"properties":{"NAME":"OSM-9718111436","STATE":"","TYPE":"INDUSTRIAL","STATUS":"IN SERVICE","MAX_VOLT":46,"CITY":"","COUNTY":"","ZIP":"","LINES":null,"SOURCE":"OpenStreetMap"}},{"type":"Feature","geometry":{"type":"Point","coordinates":[-84.9660866,34.7290482]},"properties":{"NAME":"OSM-9718111437","STATE":"","TYPE":"INDUSTRIAL","STATUS":"IN SERVICE","MAX_VOLT":46,"CITY":"","COUNTY":"","ZIP":"","LINES":null,"SOURCE":"OpenStreetMap"}},{"type":"Feature","geometry":{"type":"Point","coordinates":[-84.9660809,34.7290024]},"properties":{"NAME":"OSM-9718111438","STATE":"","TYPE":"INDUSTRIAL","STATUS":"IN SERVICE","MAX_VOLT":46,"CITY":"","COUNTY":"","ZIP":"","LINES":null,"SOURCE":"OpenStreetMap"}},{"type":"Feature","geometry":{"type":"Point","coordinates":[-84.9454923,34.7304981]},"properties":{"NAME":"OSM-9718111492","STATE":"","TYPE":"INDUSTRIAL","STATUS":"IN SERVICE","MAX_VOLT":46,"CITY":"","COUNTY":"","ZIP":"","LINES":null,"SOURCE":"OpenStreetMap"}},{"type":"Feature","geometry":{"type":"Point","coordinates":[-84.9454923,34.7304531]},"properties":{"NAME":"OSM-9718111493","STATE":"","TYPE":"INDUSTRIAL","STATUS":"IN SERVICE","MAX_VOLT":46,"CITY":"","COUNTY":"","ZIP":"","LINES":null,"SOURCE":"OpenStreetMap"}},{"type":"Feature","geometry":{"type":"Point","coordinates":[-84.9456088,34.7349503]},"properties":{"NAME":"OSM-9718111505","STATE":"","TYPE":"INDUSTRIAL","STATUS":"IN SERVICE","MAX_VOLT":46,"CITY":"","COUNTY":"","ZIP":"","LINES":null,"SOURCE":"OpenStreetMap"}},{"type":"Feature","geometry":{"type":"Point","coordinates":[-84.9456101,34.7349908]},"properties":{"NAME":"OSM-9718111506","STATE":"","TYPE":"INDUSTRIAL","STATUS":"IN SERVICE","MAX_VOLT":46,"CITY":"","COUNTY":"","ZIP":"","LINES":null,"SOURCE":"OpenStreetMap"}},{"type":"Feature","geometry":{"type":"Point","coordinates":[-84.9456101,34.7350383]},"properties":{"NAME":"OSM-9718111507","STATE":"","TYPE":"INDUSTRIAL","STATUS":"IN SERVICE","MAX_VOLT":46,"CITY":"","COUNTY":"","ZIP":"","LINES":null,"SOURCE":"OpenStreetMap"}},{"type":"Feature","geometry":{"type":"Point","coordinates":[-84.9456077,34.7350777]},"properties":{"NAME":"OSM-9718111508","STATE":"","TYPE":"INDUSTRIAL","STATUS":"IN SERVICE","MAX_VOLT":46,"CITY":"","COUNTY":"","ZIP":"","LINES":null,"SOURCE":"OpenStreetMap"}},{"type":"Feature","geometry":{"type":"Point","coordinates":[-84.9452541,34.7333973]},"properties":{"NAME":"OSM-9718111510","STATE":"","TYPE":"INDUSTRIAL","STATUS":"IN SERVICE","MAX_VOLT":46,"CITY":"","COUNTY":"","ZIP":"","LINES":null,"SOURCE":"OpenStreetMap"}},{"type":"Feature","geometry":{"type":"Point","coordinates":[-84.9452555,34.7334513]},"properties":{"NAME":"OSM-9718111511","STATE":"","TYPE":"INDUSTRIAL","STATUS":"IN SERVICE","MAX_VOLT":46,"CITY":"","COUNTY":"","ZIP":"","LINES":null,"SOURCE":"OpenStreetMap"}},{"type":"Feature","geometry":{"type":"Point","coordinates":[-84.945257,34.733503]},"properties":{"NAME":"OSM-9718111512","STATE":"","TYPE":"INDUSTRIAL","STATUS":"IN SERVICE","MAX_VOLT":46,"CITY":"","COUNTY":"","ZIP":"","LINES":null,"SOURCE":"OpenStreetMap"}},{"type":"Feature","geometry":{"type":"Point","coordinates":[-85.392041,34.4119321]},"properties":{"NAME":"OSM-9718634144","STATE":"","TYPE":"INDUSTRIAL","STATUS":"IN SERVICE","MAX_VOLT":46,"CITY":"","COUNTY":"","ZIP":"","LINES":null,"SOURCE":"OpenStreetMap"}},{"type":"Feature","geometry":{"type":"Point","coordinates":[-84.1817687,31.2809919]},"properties":{"NAME":"OSM-9721954227","STATE":"","TYPE":"INDUSTRIAL","STATUS":"IN SERVICE","MAX_VOLT":46,"CITY":"","COUNTY":"","ZIP":"","LINES":null,"SOURCE":"OpenStreetMap"}},{"type":"Feature","geometry":{"type":"Point","coordinates":[-84.1817809,31.280955]},"properties":{"NAME":"OSM-9721954228","STATE":"","TYPE":"INDUSTRIAL","STATUS":"IN SERVICE","MAX_VOLT":46,"CITY":"","COUNTY":"","ZIP":"","LINES":null,"SOURCE":"OpenStreetMap"}},{"type":"Feature","geometry":{"type":"Point","coordinates":[-84.1817969,31.2809156]},"properties":{"NAME":"OSM-9721954229","STATE":"","TYPE":"INDUSTRIAL","STATUS":"IN SERVICE","MAX_VOLT":46,"CITY":"","COUNTY":"","ZIP":"","LINES":null,"SOURCE":"OpenStreetMap"}},{"type":"Feature","geometry":{"type":"Point","coordinates":[-84.2634926,31.8972598]},"properties":{"NAME":"OSM-9724159839","STATE":"","TYPE":"INDUSTRIAL","STATUS":"IN SERVICE","MAX_VOLT":46,"CITY":"","COUNTY":"","ZIP":"","LINES":null,"SOURCE":"OpenStreetMap"}},{"type":"Feature","geometry":{"type":"Point","coordinates":[-84.2959356,33.2358874]},"properties":{"NAME":"OSM-9730283167","STATE":"","TYPE":"INDUSTRIAL","STATUS":"IN SERVICE","MAX_VOLT":46,"CITY":"","COUNTY":"","ZIP":"","LINES":null,"SOURCE":"OpenStreetMap"}},{"type":"Feature","geometry":{"type":"Point","coordinates":[-84.2882057,33.2280565]},"properties":{"NAME":"OSM-9730283172","STATE":"","TYPE":"INDUSTRIAL","STATUS":"IN SERVICE","MAX_VOLT":46,"CITY":"","COUNTY":"","ZIP":"","LINES":null,"SOURCE":"OpenStreetMap"}},{"type":"Feature","geometry":{"type":"Point","coordinates":[-84.283595,33.2315887]},"properties":{"NAME":"OSM-9730283182","STATE":"","TYPE":"INDUSTRIAL","STATUS":"IN SERVICE","MAX_VOLT":46,"CITY":"","COUNTY":"","ZIP":"","LINES":null,"SOURCE":"OpenStreetMap"}},{"type":"Feature","geometry":{"type":"Point","coordinates":[-84.3263894,34.4207865]},"properties":{"NAME":"OSM-9738685322","STATE":"","TYPE":"INDUSTRIAL","STATUS":"IN SERVICE","MAX_VOLT":46,"CITY":"","COUNTY":"","ZIP":"","LINES":null,"SOURCE":"OpenStreetMap"}},{"type":"Feature","geometry":{"type":"Point","coordinates":[-84.3268156,34.4216309]},"properties":{"NAME":"OSM-9738685323","STATE":"","TYPE":"INDUSTRIAL","STATUS":"IN SERVICE","MAX_VOLT":46,"CITY":"","COUNTY":"","ZIP":"","LINES":null,"SOURCE":"OpenStreetMap"}},{"type":"Feature","geometry":{"type":"Point","coordinates":[-84.3285547,34.4215447]},"properties":{"NAME":"OSM-9738685326","STATE":"","TYPE":"INDUSTRIAL","STATUS":"IN SERVICE","MAX_VOLT":46,"CITY":"","COUNTY":"","ZIP":"","LINES":null,"SOURCE":"OpenStreetMap"}},{"type":"Feature","geometry":{"type":"Point","coordinates":[-84.4003045,34.4673132]},"properties":{"NAME":"OSM-9738707409","STATE":"","TYPE":"INDUSTRIAL","STATUS":"IN SERVICE","MAX_VOLT":46,"CITY":"","COUNTY":"","ZIP":"","LINES":null,"SOURCE":"OpenStreetMap"}},{"type":"Feature","geometry":{"type":"Point","coordinates":[-84.4867235,34.6831946]},"properties":{"NAME":"OSM-9738707832","STATE":"","TYPE":"INDUSTRIAL","STATUS":"IN SERVICE","MAX_VOLT":46,"CITY":"","COUNTY":"","ZIP":"","LINES":null,"SOURCE":"OpenStreetMap"}},{"type":"Feature","geometry":{"type":"Point","coordinates":[-83.1041414,34.4203241]},"properties":{"NAME":"OSM-9740731922","STATE":"","TYPE":"INDUSTRIAL","STATUS":"IN SERVICE","MAX_VOLT":46,"CITY":"","COUNTY":"","ZIP":"","LINES":null,"SOURCE":"OpenStreetMap"}},{"type":"Feature","geometry":{"type":"Point","coordinates":[-83.087021,34.4538387]},"properties":{"NAME":"OSM-9740731946","STATE":"","TYPE":"INDUSTRIAL","STATUS":"IN SERVICE","MAX_VOLT":46,"CITY":"","COUNTY":"","ZIP":"","LINES":null,"SOURCE":"OpenStreetMap"}},{"type":"Feature","geometry":{"type":"Point","coordinates":[-82.9398556,34.329314]},"properties":{"NAME":"OSM-9740732112","STATE":"","TYPE":"INDUSTRIAL","STATUS":"IN SERVICE","MAX_VOLT":46,"CITY":"","COUNTY":"","ZIP":"","LINES":null,"SOURCE":"OpenStreetMap"}},{"type":"Feature","geometry":{"type":"Point","coordinates":[-82.9685157,34.3265054]},"properties":{"NAME":"OSM-9740732153","STATE":"","TYPE":"INDUSTRIAL","STATUS":"IN SERVICE","MAX_VOLT":46,"CITY":"","COUNTY":"","ZIP":"","LINES":null,"SOURCE":"OpenStreetMap"}},{"type":"Feature","geometry":{"type":"Point","coordinates":[-83.0965657,34.4147396]},"properties":{"NAME":"OSM-9740732552","STATE":"","TYPE":"INDUSTRIAL","STATUS":"IN SERVICE","MAX_VOLT":46,"CITY":"","COUNTY":"","ZIP":"","LINES":null,"SOURCE":"OpenStreetMap"}},{"type":"Feature","geometry":{"type":"Point","coordinates":[-85.2736971,33.7306397]},"properties":{"NAME":"OSM-9749115225","STATE":"","TYPE":"INDUSTRIAL","STATUS":"IN SERVICE","MAX_VOLT":46,"CITY":"","COUNTY":"","ZIP":"","LINES":null,"SOURCE":"OpenStreetMap"}},{"type":"Feature","geometry":{"type":"Point","coordinates":[-85.2725786,33.732239]},"properties":{"NAME":"OSM-9749115226","STATE":"","TYPE":"INDUSTRIAL","STATUS":"IN SERVICE","MAX_VOLT":46,"CITY":"","COUNTY":"","ZIP":"","LINES":null,"SOURCE":"OpenStreetMap"}},{"type":"Feature","geometry":{"type":"Point","coordinates":[-85.2725627,33.7322061]},"properties":{"NAME":"OSM-9749115227","STATE":"","TYPE":"INDUSTRIAL","STATUS":"IN SERVICE","MAX_VOLT":46,"CITY":"","COUNTY":"","ZIP":"","LINES":null,"SOURCE":"OpenStreetMap"}},{"type":"Feature","geometry":{"type":"Point","coordinates":[-85.2793577,33.7349631]},"properties":{"NAME":"OSM-9749115229","STATE":"","TYPE":"INDUSTRIAL","STATUS":"IN SERVICE","MAX_VOLT":46,"CITY":"","COUNTY":"","ZIP":"","LINES":null,"SOURCE":"OpenStreetMap"}},{"type":"Feature","geometry":{"type":"Point","coordinates":[-81.6452058,34.7629431]},"properties":{"NAME":"OSM-9919465727","STATE":"","TYPE":"INDUSTRIAL","STATUS":"IN SERVICE","MAX_VOLT":34,"CITY":"","COUNTY":"","ZIP":"","LINES":null,"SOURCE":"OpenStreetMap"}},{"type":"Feature","geometry":{"type":"Point","coordinates":[-85.7284367,32.825175]},"properties":{"NAME":"OSM-10759691407","STATE":"","TYPE":"INDUSTRIAL","STATUS":"IN SERVICE","MAX_VOLT":46,"CITY":"","COUNTY":"","ZIP":"","LINES":null,"SOURCE":"OpenStreetMap"}},{"type":"Feature","geometry":{"type":"Point","coordinates":[-85.7245634,32.8275316]},"properties":{"NAME":"OSM-10759691408","STATE":"","TYPE":"INDUSTRIAL","STATUS":"IN SERVICE","MAX_VOLT":46,"CITY":"","COUNTY":"","ZIP":"","LINES":null,"SOURCE":"OpenStreetMap"}},{"type":"Feature","geometry":{"type":"Point","coordinates":[-89.7705592,30.2829717]},"properties":{"NAME":"OSM-10909366190","STATE":"","TYPE":"INDUSTRIAL","STATUS":"IN SERVICE","MAX_VOLT":34,"CITY":"","COUNTY":"","ZIP":"","LINES":null,"SOURCE":"OpenStreetMap"}},{"type":"Feature","geometry":{"type":"Point","coordinates":[-89.8295283,30.3083573]},"properties":{"NAME":"OSM-10909366609","STATE":"","TYPE":"INDUSTRIAL","STATUS":"IN SERVICE","MAX_VOLT":34,"CITY":"","COUNTY":"","ZIP":"","LINES":null,"SOURCE":"OpenStreetMap"}},{"type":"Feature","geometry":{"type":"Point","coordinates":[-89.8287066,30.3059119]},"properties":{"NAME":"OSM-10909366616","STATE":"","TYPE":"INDUSTRIAL","STATUS":"IN SERVICE","MAX_VOLT":34,"CITY":"","COUNTY":"","ZIP":"","LINES":null,"SOURCE":"OpenStreetMap"}},{"type":"Feature","geometry":{"type":"Point","coordinates":[-89.82746,30.3024622]},"properties":{"NAME":"OSM-10909366624","STATE":"","TYPE":"INDUSTRIAL","STATUS":"IN SERVICE","MAX_VOLT":34,"CITY":"","COUNTY":"","ZIP":"","LINES":null,"SOURCE":"OpenStreetMap"}},{"type":"Feature","geometry":{"type":"Point","coordinates":[-89.8444264,30.2723067]},"properties":{"NAME":"OSM-10909366810","STATE":"","TYPE":"DISTRIBUTION","STATUS":"IN SERVICE","MAX_VOLT":34,"CITY":"","COUNTY":"","ZIP":"","LINES":null,"SOURCE":"OpenStreetMap"}},{"type":"Feature","geometry":{"type":"Point","coordinates":[-90.0321703,30.3780234]},"properties":{"NAME":"OSM-10909367233","STATE":"","TYPE":"DISTRIBUTION","STATUS":"IN SERVICE","MAX_VOLT":34,"CITY":"","COUNTY":"","ZIP":"","LINES":null,"SOURCE":"OpenStreetMap"}},{"type":"Feature","geometry":{"type":"Point","coordinates":[-89.6937798,30.4584]},"properties":{"NAME":"OSM-10911912615","STATE":"","TYPE":"INDUSTRIAL","STATUS":"IN SERVICE","MAX_VOLT":34,"CITY":"","COUNTY":"","ZIP":"","LINES":null,"SOURCE":"OpenStreetMap"}},{"type":"Feature","geometry":{"type":"Point","coordinates":[-89.7543511,30.3178877]},"properties":{"NAME":"OSM-10911912647","STATE":"","TYPE":"DISTRIBUTION","STATUS":"IN SERVICE","MAX_VOLT":34,"CITY":"","COUNTY":"","ZIP":"","LINES":null,"SOURCE":"OpenStreetMap"}},{"type":"Feature","geometry":{"type":"Point","coordinates":[-89.9645381,30.4065852]},"properties":{"NAME":"OSM-10913753517","STATE":"","TYPE":"DISTRIBUTION","STATUS":"IN SERVICE","MAX_VOLT":34,"CITY":"","COUNTY":"","ZIP":"","LINES":null,"SOURCE":"OpenStreetMap"}},{"type":"Feature","geometry":{"type":"Point","coordinates":[-90.1839177,30.4693606]},"properties":{"NAME":"OSM-10913754859","STATE":"","TYPE":"DISTRIBUTION","STATUS":"IN SERVICE","MAX_VOLT":34,"CITY":"","COUNTY":"","ZIP":"","LINES":null,"SOURCE":"OpenStreetMap"}},{"type":"Feature","geometry":{"type":"Point","coordinates":[-90.1847174,30.4774283]},"properties":{"NAME":"OSM-10913754877","STATE":"","TYPE":"INDUSTRIAL","STATUS":"IN SERVICE","MAX_VOLT":34,"CITY":"","COUNTY":"","ZIP":"","LINES":null,"SOURCE":"OpenStreetMap"}},{"type":"Feature","geometry":{"type":"Point","coordinates":[-90.116022,30.5127602]},"properties":{"NAME":"OSM-10915550811","STATE":"","TYPE":"DISTRIBUTION","STATUS":"IN SERVICE","MAX_VOLT":34,"CITY":"","COUNTY":"","ZIP":"","LINES":null,"SOURCE":"OpenStreetMap"}},{"type":"Feature","geometry":{"type":"Point","coordinates":[-91.499354,29.791104]},"properties":{"NAME":"OSM-10943887256","STATE":"","TYPE":"DISTRIBUTION","STATUS":"IN SERVICE","MAX_VOLT":34,"CITY":"","COUNTY":"","ZIP":"","LINES":null,"SOURCE":"OpenStreetMap"}},{"type":"Feature","geometry":{"type":"Point","coordinates":[-91.4458901,29.7344542]},"properties":{"NAME":"OSM-10944133321","STATE":"","TYPE":"INDUSTRIAL","STATUS":"IN SERVICE","MAX_VOLT":34,"CITY":"","COUNTY":"","ZIP":"","LINES":null,"SOURCE":"OpenStreetMap"}},{"type":"Feature","geometry":{"type":"Point","coordinates":[-91.4539792,29.7350827]},"properties":{"NAME":"OSM-10944133331","STATE":"","TYPE":"INDUSTRIAL","STATUS":"IN SERVICE","MAX_VOLT":34,"CITY":"","COUNTY":"","ZIP":"","LINES":null,"SOURCE":"OpenStreetMap"}},{"type":"Feature","geometry":{"type":"Point","coordinates":[-91.4730933,29.6873305]},"properties":{"NAME":"OSM-10944133503","STATE":"","TYPE":"INDUSTRIAL","STATUS":"IN SERVICE","MAX_VOLT":34,"CITY":"","COUNTY":"","ZIP":"","LINES":null,"SOURCE":"OpenStreetMap"}},{"type":"Feature","geometry":{"type":"Point","coordinates":[-82.3122584,36.9108006]},"properties":{"NAME":"OSM-11374871660","STATE":"","TYPE":"SUBSTATION","STATUS":"IN SERVICE","MAX_VOLT":null,"CITY":"","COUNTY":"","ZIP":"","LINES":null,"SOURCE":"OpenStreetMap"}},{"type":"Feature","geometry":{"type":"Point","coordinates":[-78.1850896,39.1359156]},"properties":{"NAME":"OSM-11405400783","STATE":"","TYPE":"INDUSTRIAL","STATUS":"IN SERVICE","MAX_VOLT":34,"CITY":"","COUNTY":"","ZIP":"","LINES":null,"SOURCE":"OpenStreetMap"}},{"type":"Feature","geometry":{"type":"Point","coordinates":[-78.2923968,38.9978007]},"properties":{"NAME":"OSM-11407063329","STATE":"","TYPE":"INDUSTRIAL","STATUS":"IN SERVICE","MAX_VOLT":34,"CITY":"","COUNTY":"","ZIP":"","LINES":null,"SOURCE":"OpenStreetMap"}},{"type":"Feature","geometry":{"type":"Point","coordinates":[-88.3440699,37.4302078]},"properties":{"NAME":"OSM-11756981751","STATE":"","TYPE":"SUBSTATION","STATUS":"IN SERVICE","MAX_VOLT":null,"CITY":"","COUNTY":"","ZIP":"","LINES":null,"SOURCE":"OpenStreetMap"}},{"type":"Feature","geometry":{"type":"Point","coordinates":[-82.7439648,28.1411241]},"properties":{"NAME":"Duke Energy","STATE":"","TYPE":"SUBSTATION","STATUS":"IN SERVICE","MAX_VOLT":null,"CITY":"","COUNTY":"","ZIP":"","LINES":null,"SOURCE":"OpenStreetMap"}},{"type":"Feature","geometry":{"type":"Point","coordinates":[-83.353309,39.3245462]},"properties":{"NAME":"Ross County Solar Substation","STATE":"","TYPE":"SUBSTATION","STATUS":"IN SERVICE","MAX_VOLT":null,"CITY":"","COUNTY":"","ZIP":"","LINES":null,"SOURCE":"OpenStreetMap"}},{"type":"Feature","geometry":{"type":"Point","coordinates":[-82.0466749,26.933532]},"properties":{"NAME":"Florida Power & Light PG1","STATE":"","TYPE":"SUBSTATION","STATUS":"IN SERVICE","MAX_VOLT":null,"CITY":"","COUNTY":"","ZIP":"33950","LINES":null,"SOURCE":"OpenStreetMap"}},{"type":"Feature","geometry":{"type":"Point","coordinates":[-90.4873992,38.5229259]},"properties":{"NAME":"OSM-13334253004","STATE":"","TYPE":"SUBSTATION","STATUS":"IN SERVICE","MAX_VOLT":null,"CITY":"","COUNTY":"","ZIP":"","LINES":null,"SOURCE":"OpenStreetMap"}},{"type":"Feature","geometry":{"type":"Point","coordinates":[-90.2999293,37.5637711]},"properties":{"NAME":"OSM-13415903590","STATE":"","TYPE":"SUBSTATION","STATUS":"IN SERVICE","MAX_VOLT":null,"CITY":"","COUNTY":"","ZIP":"","LINES":null,"SOURCE":"OpenStreetMap"}},{"type":"Feature","geometry":{"type":"Point","coordinates":[-76.5664396,38.9363496]},"properties":{"NAME":"BGE South River Substation","STATE":"","TYPE":"SUBSTATION","STATUS":"IN SERVICE","MAX_VOLT":null,"CITY":"","COUNTY":"","ZIP":"","LINES":null,"SOURCE":"OpenStreetMap"}}]}